<?xml version="1.0" encoding="UTF-8"?><kml xmlns="http://www.opengis.net/kml/2.2"><Document><name>Tre Cime + Cadini</name><description>Планировочная реконструкция по OpenStreetMap, 09.09.2026. Не запись GPS и не проверенный навигационный трек. Высоты не экспортированы. Данные © OpenStreetMap contributors, ODbL. Автопереезды и канатки в пеший трек не включены.</description><Style id="track"><LineStyle><color>ff3241bd</color><width>4</width></LineStyle></Style><Placemark><name>Парковка Auronzo P1</name><Point><coordinates>12.292624890909092,46.612843372727276</coordinates></Point></Placemark><Placemark><name>Rifugio Auronzo</name><Point><coordinates>12.296110622222223,46.61221833333333</coordinates></Point></Placemark><Placemark><name>Rifugio Lavaredo</name><Point><coordinates>12.312066699999999,46.61831716</coordinates></Point></Placemark><Placemark><name>Forcella Lavaredo</name><Point><coordinates>12.311453,46.622499</coordinates></Point></Placemark><Placemark><name>Rifugio Locatelli</name><Point><coordinates>12.310487725,46.6369159375</coordinates></Point></Placemark><Placemark><name>Langalm</name><Point><coordinates>12.289800166666666,46.62566868333334</coordinates></Point></Placemark><Placemark><name>Cadini — viewpoint</name><Point><coordinates>12.2954732,46.6009257</coordinates></Point></Placemark><Placemark><name>Кольцо Tre Cime</name><description>Планировочная реконструкция по OpenStreetMap, 09.09.2026. Не запись GPS и не проверенный навигационный трек. Высоты не экспортированы. Данные © OpenStreetMap contributors, ODbL. Автопереезды и канатки в пеший трек не включены.</description><styleUrl>#track</styleUrl><LineString><tessellate>1</tessellate><altitudeMode>clampToGround</altitudeMode><coordinates>12.2961473,46.6123544,0 12.2962618,46.6123701,0 12.2963126,46.6123497,0 12.2963629,46.6123087,0 12.2964115,46.6122229,0 12.2964797,46.6124192,0 12.2965091,46.6125315,0 12.2965468,46.6126367,0 12.2965685,46.6127501,0 12.2966017,46.6128568,0 12.2966378,46.6129296,0 12.2966422,46.6129915,0 12.2966261,46.613079,0 12.2966003,46.6131543,0 12.2965876,46.6132202,0 12.2966064,46.613263,0 12.2966461,46.6132984,0 12.2967613,46.6133423,0 12.2970403,46.6133939,0 12.2973125,46.6134653,0 12.2974393,46.6135012,0 12.2974757,46.6135184,0 12.2975066,46.6135401,0 12.2975465,46.6135717,0 12.2975897,46.6135912,0 12.2976379,46.6135989,0 12.2977603,46.6136059,0 12.2978935,46.6136085,0 12.2980747,46.6136359,0 12.298227,46.6136645,0 12.2983441,46.6136782,0 12.2984616,46.6136807,0 12.2985808,46.613669,0 12.2987611,46.6136392,0 12.2989312,46.6136315,0 12.2991511,46.6136537,0 12.2993604,46.6136997,0 12.299642,46.6137605,0 12.2999075,46.6138692,0 12.3003635,46.6140037,0 12.3009134,46.6141548,0 12.3013727,46.614205,0 12.3016295,46.614258,0 12.301898,46.6142683,0 12.3021901,46.6142561,0 12.3024532,46.6142112,0 12.3027265,46.6142027,0 12.3030272,46.6141928,0 12.303328,46.6141983,0 12.3035734,46.6141985,0 12.3037983,46.614201,0 12.3040113,46.6141843,0 12.3041618,46.6141614,0 12.3043117,46.6141143,0 12.3044807,46.6140203,0 12.3047677,46.6137863,0 12.3049018,46.6136242,0 12.3049611,46.6135903,0 12.3050359,46.61358,0 12.3052639,46.6136058,0 12.3054436,46.6136288,0 12.3055633,46.6136192,0 12.3056799,46.6135866,0 12.3058326,46.6135486,0 12.3059509,46.6135414,0 12.3060954,46.6135376,0 12.3064012,46.6135542,0 12.3065302,46.6134982,0 12.3066586,46.6134694,0 12.3067922,46.6134702,0 12.3069801,46.6135064,0 12.3071095,46.6134982,0 12.3072969,46.6135091,0 12.3074794,46.6135763,0 12.3076878,46.6136678,0 12.3078442,46.6137476,0 12.3080883,46.6138324,0 12.3082094,46.6138672,0 12.3083189,46.6138987,0 12.3084343,46.6139705,0 12.3084897,46.6140835,0 12.3084826,46.6141974,0 12.3085281,46.6142948,0 12.3085925,46.614457,0 12.30863,46.6146191,0 12.3086757,46.6147425,0 12.3086971,46.6148807,0 12.3088017,46.615006,0 12.3088476,46.6151011,0 12.308917,46.6151626,0 12.3090166,46.6152227,0 12.309132,46.6152783,0 12.309255,46.6153524,0 12.3093908,46.6154641,0 12.3094964,46.6155771,0 12.3096654,46.6158757,0 12.3097611,46.616091,0 12.3097942,46.616233,0 12.3098478,46.6163527,0 12.3098856,46.6163898,0 12.3099417,46.6164449,0 12.3099551,46.6164817,0 12.3099567,46.6165427,0 12.3099741,46.6165759,0 12.3099956,46.6166017,0 12.3100533,46.6166529,0 12.3102222,46.6168108,0 12.3104325,46.6170013,0 12.3106525,46.6172316,0 12.310705,46.6173018,0 12.3107383,46.6173734,0 12.3108483,46.6175116,0 12.3108794,46.6175634,0 12.3109178,46.6176344,0 12.3109468,46.6177322,0 12.3109665,46.6177642,0 12.3109961,46.6177927,0 12.3110604,46.6178399,0 12.311256,46.6179501,0 12.3113514,46.6180221,0 12.3114102,46.6181122,0 12.3114534,46.6181483,0 12.3114973,46.618173,0 12.3115812,46.6182086,0 12.3116881,46.6182459,0 12.3117804,46.6182891,0 12.3118585,46.6183418,0 12.311967,46.6184327,0 12.3118585,46.6183418,0 12.3117804,46.6182891,0 12.3116881,46.6182459,0 12.3115812,46.6182086,0 12.3114848,46.6183024,0 12.3114013,46.6183553,0 12.3113628,46.6184013,0 12.3112442,46.6184451,0 12.3111603,46.6184506,0 12.3104817,46.6189263,0 12.310374,46.6191302,0 12.3102835,46.6193277,0 12.3103445,46.6194464,0 12.3103597,46.6194848,0 12.3103353,46.6195602,0 12.3104512,46.6200768,0 12.3105787,46.6207512,0 12.3106321,46.6208572,0 12.3106753,46.6209981,0 12.3107714,46.6212265,0 12.3108811,46.6214191,0 12.3109655,46.621519,0 12.3110326,46.6216991,0 12.3110941,46.6217525,0 12.3113294,46.6220697,0 12.311431,46.6222742,0 12.311453,46.622499,0 12.3118325,46.6227279,0 12.3121486,46.6231692,0 12.3122305,46.6232667,0 12.3122795,46.6233249,0 12.3124579,46.6234778,0 12.3125772,46.6235699,0 12.3127972,46.6237136,0 12.3130064,46.6238057,0 12.3131606,46.6238591,0 12.3132727,46.6239106,0 12.3135555,46.6241544,0 12.3136169,46.6242518,0 12.3137172,46.6247037,0 12.3137078,46.6248879,0 12.313689,46.6250519,0 12.3136742,46.6252379,0 12.3136997,46.6253982,0 12.3137064,46.6256717,0 12.3136877,46.62589,0 12.3136152,46.6262262,0 12.313571,46.6264619,0 12.313575,46.6265098,0 12.3135616,46.6266075,0 12.3135428,46.6266719,0 12.3135294,46.6267475,0 12.3135495,46.626788,0 12.3135468,46.6268221,0 12.3135106,46.6268709,0 12.3135026,46.6269068,0 12.3134945,46.6269492,0 12.3135629,46.6271094,0 12.3135938,46.6272135,0 12.3135996,46.6273148,0 12.3136125,46.6274631,0 12.3136005,46.6275321,0 12.3136085,46.6276159,0 12.31363,46.6277873,0 12.313626,46.6279015,0 12.3136112,46.6281501,0 12.3136099,46.6283509,0 12.3135817,46.6284927,0 12.3135763,46.6286373,0 12.313567,46.6287184,0 12.3135146,46.628828,0 12.3134247,46.6289629,0 12.3130562,46.6293788,0 12.3129528,46.6294809,0 12.3128672,46.6295218,0 12.3127834,46.6297398,0 12.3125294,46.6300249,0 12.3117608,46.6306215,0 12.3118329,46.6307168,0 12.3118594,46.6307759,0 12.3117805,46.6308902,0 12.3118141,46.6310373,0 12.3118385,46.6311595,0 12.3118461,46.6313561,0 12.3118277,46.6315174,0 12.3118933,46.6316969,0 12.3119064,46.6318942,0 12.3119021,46.6321685,0 12.3119081,46.6323395,0 12.312,46.6324455,0 12.3120093,46.6325262,0 12.3120522,46.6326748,0 12.3121457,46.632743,0 12.3121065,46.632846,0 12.3120985,46.6329123,0 12.3121655,46.6329731,0 12.3121501,46.6330517,0 12.3121543,46.6331288,0 12.3121888,46.6331827,0 12.3123988,46.6334151,0 12.3124238,46.6335378,0 12.3125091,46.6338236,0 12.3125807,46.6339869,0 12.3125746,46.6344174,0 12.3123905,46.6346545,0 12.3122956,46.6348452,0 12.3122506,46.6349197,0 12.3121347,46.6349336,0 12.3120653,46.6349964,0 12.311837,46.6351346,0 12.3117846,46.6352799,0 12.3117228,46.635422,0 12.311759,46.6357398,0 12.3117228,46.6359391,0 12.3116322,46.6360931,0 12.3115598,46.6363418,0 12.3115177,46.6364549,0 12.3114467,46.6365637,0 12.3112549,46.6366722,0 12.311061,46.6367547,0 12.3109532,46.6368475,0 12.3108392,46.6369018,0 12.3107403,46.6369807,0 12.3105931,46.6370539,0 12.3107403,46.6369807,0 12.3108392,46.6369018,0 12.3109236,46.6367793,0 12.3109693,46.6366975,0 12.3110349,46.6366363,0 12.3111071,46.6365569,0 12.3111138,46.636532,0 12.3110792,46.6365184,0 12.3109555,46.6365541,0 12.310914,46.6365523,0 12.3109089,46.6365294,0 12.3109719,46.6364447,0 12.3111098,46.6363147,0 12.3111194,46.6362366,0 12.3110937,46.6360974,0 12.311032,46.6358598,0 12.3110293,46.635788,0 12.3110561,46.6356646,0 12.3110642,46.6355955,0 12.311043,46.6355791,0 12.3109773,46.635569,0 12.3109542,46.6355531,0 12.3109639,46.6355294,0 12.311083,46.6354252,0 12.3111838,46.6353121,0 12.3111835,46.6352935,0 12.3111556,46.6352854,0 12.3111047,46.63529,0 12.3110497,46.6352826,0 12.3110319,46.6352732,0 12.3110349,46.6352568,0 12.31115,46.6351839,0 12.3111825,46.6351666,0 12.3112576,46.6351473,0 12.3112653,46.6351342,0 12.3112415,46.6351288,0 12.311157,46.6351344,0 12.3111339,46.6351231,0 12.3111409,46.635104,0 12.3111822,46.635084,0 12.3112412,46.6350315,0 12.3112412,46.6350057,0 12.3111959,46.6349925,0 12.3111172,46.6349956,0 12.3110561,46.6350112,0 12.31098,46.6350524,0 12.3109561,46.6350476,0 12.3109501,46.6350269,0 12.3109558,46.6349511,0 12.3109878,46.6349063,0 12.3110617,46.6348291,0 12.3111221,46.6347761,0 12.3111515,46.6347261,0 12.3110765,46.6346914,0 12.3109585,46.6346767,0 12.3107756,46.6346478,0 12.3106849,46.6346012,0 12.3105528,46.6345696,0 12.3103684,46.6345478,0 12.3101047,46.6345473,0 12.309958,46.634568,0 12.3097937,46.6346135,0 12.3096389,46.6346214,0 12.3095329,46.6346362,0 12.3094806,46.6346638,0 12.3094169,46.634686,0 12.3093408,46.634685,0 12.3092647,46.6346702,0 12.3091185,46.6346344,0 12.3089994,46.6346283,0 12.3088691,46.6346252,0 12.3088393,46.6345841,0 12.3088704,46.6345128,0 12.3088487,46.6344928,0 12.3087899,46.6344907,0 12.3087441,46.6344721,0 12.308735,46.63444,0 12.3087497,46.6344078,0 12.3087296,46.6343333,0 12.308629,46.6341932,0 12.3085499,46.6341142,0 12.3084694,46.634056,0 12.3083594,46.633987,0 12.3082776,46.6339354,0 12.3081976,46.6339022,0 12.3081261,46.6338921,0 12.3080741,46.6338581,0 12.308059,46.6338,0 12.3080228,46.6337365,0 12.308041,46.6336841,0 12.3080885,46.6336232,0 12.3081164,46.6335544,0 12.308106,46.6335311,0 12.3080698,46.6334897,0 12.3080219,46.6333967,0 12.307972,46.6333781,0 12.3079249,46.6333525,0 12.3078538,46.6333322,0 12.3078157,46.6333062,0 12.3078042,46.6332806,0 12.3078309,46.6332167,0 12.3078123,46.6331858,0 12.3077881,46.6331729,0 12.3077479,46.6331646,0 12.3077275,46.6331464,0 12.3077331,46.6331149,0 12.3077278,46.6330601,0 12.3076902,46.6330016,0 12.3076439,46.632949,0 12.3076259,46.6329123,0 12.3076366,46.6328672,0 12.3076606,46.6328241,0 12.307713,46.6327741,0 12.3077852,46.6327389,0 12.3077881,46.6327171,0 12.3077698,46.6326753,0 12.3078236,46.6326113,0 12.3078243,46.6325108,0 12.3078257,46.6324095,0 12.3078638,46.6322689,0 12.3079635,46.6320868,0 12.3080093,46.6317674,0 12.3079419,46.6316627,0 12.3078333,46.6316288,0 12.3076572,46.6316437,0 12.3071089,46.631776,0 12.306919,46.6317344,0 12.3066758,46.6316598,0 12.3066721,46.6315847,0 12.3065227,46.6314095,0 12.306502,46.6313484,0 12.3065101,46.6312841,0 12.306561,46.631216,0 12.3065758,46.631146,0 12.3066172,46.6310654,0 12.3066241,46.6310143,0 12.3066522,46.6309572,0 12.3066543,46.6309287,0 12.3066294,46.6309213,0 12.306565,46.6309157,0 12.3064926,46.6308771,0 12.3064604,46.6308384,0 12.3064041,46.6308089,0 12.3063489,46.6308145,0 12.3062288,46.6308623,0 12.3061466,46.6309084,0 12.3060152,46.630925,0 12.3058301,46.6309489,0 12.3056927,46.6309869,0 12.3053876,46.6311754,0 12.3051142,46.6313335,0 12.3049825,46.6314259,0 12.30486,46.6315358,0 12.3048511,46.6315438,0 12.3047224,46.6316101,0 12.3046212,46.6317018,0 12.3043415,46.6318035,0 12.3040927,46.6319431,0 12.3040433,46.6319443,0 12.3040426,46.6319045,0 12.3041818,46.6317701,0 12.3042235,46.6317114,0 12.3042288,46.6316414,0 12.3042047,46.6314775,0 12.3041934,46.6311683,0 12.3042154,46.6310631,0 12.3041189,46.6309728,0 12.3039105,46.6307794,0 12.3035974,46.6305476,0 12.3033625,46.6304092,0 12.3032686,46.6303779,0 12.3031651,46.63036,0 12.3029736,46.6303484,0 12.3027127,46.6303686,0 12.3024639,46.6303392,0 12.302225,46.6302833,0 12.3019543,46.6301864,0 12.3016708,46.6301196,0 12.3014984,46.6301108,0 12.3008881,46.6301366,0 12.3005301,46.6301422,0 12.3001727,46.6301526,0 12.3000339,46.6301366,0 12.2998998,46.630109,0 12.2996378,46.6300523,0 12.2992748,46.6299248,0 12.2991621,46.6299138,0 12.2990526,46.6299246,0 12.2987499,46.6299932,0 12.2986006,46.6299835,0 12.298446,46.6299414,0 12.2982856,46.6298843,0 12.2981563,46.6298475,0 12.2980423,46.6298472,0 12.2977105,46.6298563,0 12.2974874,46.6298077,0 12.2973543,46.6297461,0 12.2972899,46.6296689,0 12.2972256,46.6296356,0 12.2971103,46.6295896,0 12.2969735,46.6295491,0 12.2968102,46.6295261,0 12.2966142,46.6294419,0 12.2963899,46.6294139,0 12.2962519,46.6293907,0 12.2961363,46.6293463,0 12.2959059,46.6292065,0 12.2957638,46.6291365,0 12.295622,46.629032,0 12.2955063,46.6289928,0 12.2954097,46.6290075,0 12.2953168,46.628993,0 12.2952247,46.628967,0 12.2950903,46.6289997,0 12.2950047,46.6289762,0 12.2949456,46.6289352,0 12.2946656,46.6287663,0 12.2944732,46.6285806,0 12.2943744,46.6284881,0 12.2943288,46.6283573,0 12.2942675,46.6281222,0 12.2940306,46.6279301,0 12.2936986,46.6278496,0 12.2935817,46.6277485,0 12.2934625,46.6277053,0 12.2933552,46.6277034,0 12.2932386,46.6276478,0 12.293146,46.6276298,0 12.2930199,46.627534,0 12.2927597,46.6274032,0 12.2926363,46.62737,0 12.2925407,46.6272898,0 12.2924969,46.6271858,0 12.2925022,46.6271269,0 12.2924775,46.6270479,0 12.2924352,46.627009,0 12.2923413,46.6269832,0 12.2923252,46.6269427,0 12.2921535,46.6268819,0 12.2920462,46.626869,0 12.2919391,46.6268409,0 12.2918665,46.6268082,0 12.2918424,46.6267438,0 12.2916707,46.6266756,0 12.29155,46.6265688,0 12.2914132,46.626484,0 12.2913212,46.6263783,0 12.2911879,46.6262962,0 12.2911128,46.6262151,0 12.290968,46.6261138,0 12.2908688,46.6260714,0 12.2908017,46.6260014,0 12.2907561,46.6259185,0 12.290689,46.625913,0 12.2906542,46.6258688,0 12.2905791,46.6258301,0 12.290528,46.6257622,0 12.2905284,46.6257539,0 12.2905288,46.6257452,0 12.2905299,46.6257184,0 12.2905308,46.6256993,0 12.2905518,46.6256257,0 12.290504,46.6255483,0 12.2904529,46.6255168,0 12.290394,46.625517,0 12.2902921,46.6254967,0 12.2901038,46.6255174,0 12.2899813,46.625545,0 12.2899082,46.6256037,0 12.2899813,46.625545,0 12.2900756,46.6253163,0 12.2901148,46.6251864,0 12.2901907,46.6250711,0 12.2901699,46.624914,0 12.2901651,46.6248574,0 12.290194,46.6247772,0 12.2901827,46.6246994,0 12.2901419,46.6246788,0 12.2900888,46.6246692,0 12.2900096,46.6246548,0 12.2899096,46.624577,0 12.2898495,46.6244302,0 12.2898225,46.6242674,0 12.2897796,46.624191,0 12.2896368,46.6241109,0 12.2895751,46.6240202,0 12.2894956,46.623957,0 12.2893934,46.6239571,0 12.2892915,46.6239239,0 12.289097,46.6238806,0 12.2889937,46.6238852,0 12.2888489,46.6239483,0 12.2886826,46.6239414,0 12.2885706,46.6239041,0 12.2883647,46.6238917,0 12.2882762,46.6238498,0 12.288061,46.6238456,0 12.2879094,46.6239023,0 12.287752,46.6239199,0 12.2876473,46.6239552,0 12.2875983,46.6239723,0 12.2875527,46.6240077,0 12.2875145,46.6241178,0 12.2874354,46.62415,0 12.2873643,46.6241279,0 12.2872979,46.6240446,0 12.2871571,46.6239713,0 12.2870493,46.6238978,0 12.2869552,46.6238558,0 12.2868701,46.6237259,0 12.2867849,46.6236476,0 12.2866972,46.6236043,0 12.2864934,46.6234775,0 12.2863611,46.6233335,0 12.2862846,46.6232095,0 12.2861043,46.6231323,0 12.2860679,46.6230596,0 12.2860314,46.6229478,0 12.2859651,46.6228936,0 12.2858864,46.6227855,0 12.2858757,46.6227321,0 12.2857885,46.6226146,0 12.2857047,46.6224284,0 12.28572,46.6222639,0 12.2857005,46.6221078,0 12.2857122,46.6220667,0 12.2857364,46.6220253,0 12.2858052,46.621907,0 12.2858166,46.6217564,0 12.285815,46.6214523,0 12.2858141,46.6212884,0 12.2858231,46.6211318,0 12.2858117,46.6210774,0 12.2857916,46.62103,0 12.2856474,46.6208766,0 12.2854911,46.62072,0 12.2853456,46.6205344,0 12.285294,46.6204631,0 12.2851981,46.6203659,0 12.2851592,46.620271,0 12.285102,46.6201895,0 12.2850694,46.620107,0 12.2850054,46.6200385,0 12.284958,46.6199458,0 12.2849263,46.6198294,0 12.2849049,46.6197066,0 12.2848534,46.6195346,0 12.2848646,46.6194913,0 12.2848995,46.6194508,0 12.2849303,46.6194075,0 12.2849533,46.6193587,0 12.284953,46.6192563,0 12.2849256,46.6191669,0 12.2849159,46.619091,0 12.2849294,46.6189883,0 12.2849506,46.6187796,0 12.2849922,46.618705,0 12.2849834,46.61851,0 12.284984,46.6183694,0 12.2850031,46.6182303,0 12.2850343,46.618131,0 12.2850339,46.6180214,0 12.2850256,46.6179668,0 12.2850423,46.6178782,0 12.2850043,46.6178232,0 12.2849231,46.6177242,0 12.2848465,46.617638,0 12.2847671,46.6175788,0 12.2847258,46.6175293,0 12.2845729,46.6174945,0 12.2844871,46.617503,0 12.2843661,46.6175051,0 12.284247,46.6175203,0 12.2842934,46.6174992,0 12.2842936,46.6172965,0 12.2844047,46.6170624,0 12.2849454,46.6166098,0 12.2854173,46.616371,0 12.2855419,46.6163336,0 12.2857415,46.6162526,0 12.2859114,46.6161614,0 12.286073,46.6161204,0 12.2862795,46.616055,0 12.2863993,46.6160311,0 12.2864512,46.6160158,0 12.2865343,46.615944,0 12.2865947,46.6159062,0 12.2866765,46.6158564,0 12.286748,46.6158308,0 12.2868589,46.6158251,0 12.2870265,46.6158546,0 12.2870784,46.6158443,0 12.2871101,46.6158238,0 12.2871631,46.6157669,0 12.2872628,46.6156662,0 12.2872929,46.6156198,0 12.2873075,46.6155859,0 12.2872759,46.6155589,0 12.2872397,46.6155432,0 12.2872277,46.615523,0 12.287233,46.6155009,0 12.2872592,46.6154525,0 12.2873235,46.6154105,0 12.287529,46.6152837,0 12.2878364,46.6151,0 12.2880544,46.6150386,0 12.2882188,46.6149997,0 12.2883293,46.6150089,0 12.2885099,46.6150025,0 12.2887417,46.6150127,0 12.2889156,46.6150062,0 12.2891837,46.6149765,0 12.2893509,46.6149543,0 12.289414,46.6149328,0 12.2894924,46.6148969,0 12.2896005,46.6148326,0 12.2897174,46.6147933,0 12.2899261,46.6147302,0 12.2900207,46.614672,0 12.2901739,46.6145704,0 12.290297,46.6145044,0 12.2904228,46.6144603,0 12.2906129,46.6144225,0 12.2907253,46.6143952,0 12.2908183,46.6143514,0 12.2908983,46.6143161,0 12.2910287,46.6142847,0 12.2911199,46.6142784,0 12.2913604,46.6142285,0 12.291546,46.6141861,0 12.2916684,46.6141543,0 12.2917713,46.6141098,0 12.2918584,46.614079,0 12.2919242,46.6140624,0 12.2919685,46.6140629,0 12.2920134,46.6140468,0 12.2920771,46.6140062,0 12.2921495,46.6139767,0 12.2922213,46.6139698,0 12.2922937,46.613962,0 12.2923614,46.6139302,0 12.2924332,46.6138837,0 12.2925384,46.6138201,0 12.2926977,46.6137095,0 12.2930152,46.6135483,0 12.2930987,46.6135342,0 12.2932996,46.6136135,0 12.2933895,46.6135667,0 12.2936485,46.6133922,0 12.2937018,46.613318,0 12.2937407,46.6132941,0 12.2937846,46.6132824,0 12.2938319,46.6132812,0 12.2938769,46.6132913,0 12.2939378,46.61328,0 12.2939774,46.6132688,0 12.2940274,46.6132363,0 12.2941074,46.6131533,0 12.2941705,46.6130446,0 12.2943761,46.6129041,0 12.2944704,46.6127834,0 12.2945749,46.6127487,0 12.2946876,46.6127028,0 12.2949059,46.6125872,0 12.2950092,46.6125355,0 12.2951289,46.6124938,0 12.2954022,46.6123933,0 12.2955755,46.6123257,0 12.2956791,46.6122902,0 12.2957453,46.6122867,0 12.295818,46.6122981,0 12.2959221,46.6123165,0 12.2961473,46.6123544,0</coordinates></LineString></Placemark><Placemark><name>Cadini — туда и обратно</name><description>Планировочная реконструкция по OpenStreetMap, 09.09.2026. Не запись GPS и не проверенный навигационный трек. Высоты не экспортированы. Данные © OpenStreetMap contributors, ODbL. Автопереезды и канатки в пеший трек не включены.</description><styleUrl>#track</styleUrl><LineString><tessellate>1</tessellate><altitudeMode>clampToGround</altitudeMode><coordinates>12.2961473,46.6123544,0 12.2962618,46.6123701,0 12.2963126,46.6123497,0 12.2963629,46.6123087,0 12.2964115,46.6122229,0 12.2964019,46.6121058,0 12.2963753,46.6120402,0 12.2964575,46.6120028,0 12.2964655,46.6119417,0 12.2964442,46.6117877,0 12.2964571,46.6116962,0 12.2965512,46.611559,0 12.2966903,46.6114145,0 12.2967947,46.6113499,0 12.2968471,46.6112925,0 12.2969201,46.6112665,0 12.2970128,46.6112262,0 12.2970851,46.6111741,0 12.2971978,46.6110177,0 12.2972986,46.6108897,0 12.2973335,46.6107085,0 12.2973593,46.610587,0 12.2973334,46.6105034,0 12.2972634,46.6104047,0 12.2972004,46.6102785,0 12.2972422,46.6101213,0 12.2972433,46.6099325,0 12.2972319,46.6098262,0 12.2972617,46.6097758,0 12.297289,46.6097494,0 12.2973329,46.6097069,0 12.297519,46.6096622,0 12.2976913,46.6096735,0 12.2980364,46.6096106,0 12.2982688,46.6095434,0 12.2984461,46.6094694,0 12.2985323,46.609328,0 12.2985747,46.6092818,0 12.298671,46.6091276,0 12.2987555,46.6087934,0 12.2988099,46.6086986,0 12.2988866,46.6085641,0 12.2990705,46.6084815,0 12.299232,46.6083871,0 12.2992834,46.6080774,0 12.2996194,46.6078137,0 12.299754,46.6075507,0 12.2997976,46.6074955,0 12.2999493,46.6070563,0 12.3000697,46.6067535,0 12.3001733,46.6064712,0 12.3003101,46.6062096,0 12.300423,46.6060238,0 12.3004196,46.6058907,0 12.3003715,46.6057583,0 12.3003127,46.6056599,0 12.3002509,46.6055411,0 12.3002159,46.6054924,0 12.3001981,46.6054568,0 12.3002059,46.6054357,0 12.3002434,46.6053994,0 12.3002476,46.6053787,0 12.3001751,46.605284,0 12.3000987,46.6052339,0 12.3001027,46.6051893,0 12.300024,46.6051085,0 12.2998788,46.6050158,0 12.2998573,46.604914,0 12.2996939,46.6045148,0 12.2996369,46.6043301,0 12.2995571,46.6042115,0 12.299506,46.6041632,0 12.2994934,46.6041147,0 12.2994557,46.604066,0 12.2994293,46.6039932,0 12.2994143,46.6038751,0 12.2993159,46.6038582,0 12.2991777,46.6037933,0 12.2991037,46.6036869,0 12.2990125,46.6036129,0 12.2989039,46.6035463,0 12.2987751,46.6034994,0 12.2986382,46.603419,0 12.2984781,46.603363,0 12.2984155,46.6033378,0 12.2983535,46.6032622,0 12.2981226,46.6031794,0 12.297865,46.6031692,0 12.2973272,46.6030002,0 12.2970184,46.6029404,0 12.2967478,46.6028754,0 12.2966445,46.6028213,0 12.2963918,46.6027244,0 12.2960418,46.6026015,0 12.2960207,46.6025492,0 12.2959805,46.6025116,0 12.2959722,46.6023732,0 12.2959333,46.6022126,0 12.2958301,46.6021173,0 12.2957395,46.6020147,0 12.2956538,46.6018055,0 12.295536,46.6016335,0 12.2954336,46.601493,0 12.2954307,46.6014096,0 12.2954385,46.6012709,0 12.295452,46.6011904,0 12.2954649,46.601104,0 12.2954814,46.6010196,0 12.2954732,46.6009257,0 12.2954814,46.6010196,0 12.2954649,46.601104,0 12.295452,46.6011904,0 12.2954385,46.6012709,0 12.2954307,46.6014096,0 12.2954336,46.601493,0 12.295536,46.6016335,0 12.2956538,46.6018055,0 12.2957395,46.6020147,0 12.2958301,46.6021173,0 12.2959333,46.6022126,0 12.2959722,46.6023732,0 12.2959805,46.6025116,0 12.2960207,46.6025492,0 12.2960418,46.6026015,0 12.2963918,46.6027244,0 12.2966445,46.6028213,0 12.2967478,46.6028754,0 12.2970184,46.6029404,0 12.2973272,46.6030002,0 12.297865,46.6031692,0 12.2981226,46.6031794,0 12.2983535,46.6032622,0 12.2984155,46.6033378,0 12.2984781,46.603363,0 12.2986382,46.603419,0 12.2987751,46.6034994,0 12.2989039,46.6035463,0 12.2990125,46.6036129,0 12.2991037,46.6036869,0 12.2991777,46.6037933,0 12.2993159,46.6038582,0 12.2994143,46.6038751,0 12.2994293,46.6039932,0 12.2994557,46.604066,0 12.2994934,46.6041147,0 12.299506,46.6041632,0 12.2995571,46.6042115,0 12.2996369,46.6043301,0 12.2996939,46.6045148,0 12.2998573,46.604914,0 12.2998788,46.6050158,0 12.300024,46.6051085,0 12.3001027,46.6051893,0 12.3000987,46.6052339,0 12.3001751,46.605284,0 12.3002476,46.6053787,0 12.3002434,46.6053994,0 12.3002059,46.6054357,0 12.3001981,46.6054568,0 12.3002159,46.6054924,0 12.3002509,46.6055411,0 12.3003127,46.6056599,0 12.3003715,46.6057583,0 12.3004196,46.6058907,0 12.300423,46.6060238,0 12.3003101,46.6062096,0 12.3001733,46.6064712,0 12.3000697,46.6067535,0 12.2999493,46.6070563,0 12.2997976,46.6074955,0 12.299754,46.6075507,0 12.2996194,46.6078137,0 12.2992834,46.6080774,0 12.299232,46.6083871,0 12.2990705,46.6084815,0 12.2988866,46.6085641,0 12.2988099,46.6086986,0 12.2987555,46.6087934,0 12.298671,46.6091276,0 12.2985747,46.6092818,0 12.2985323,46.609328,0 12.2984461,46.6094694,0 12.2982688,46.6095434,0 12.2980364,46.6096106,0 12.2976913,46.6096735,0 12.297519,46.6096622,0 12.2973329,46.6097069,0 12.297289,46.6097494,0 12.2972617,46.6097758,0 12.2972319,46.6098262,0 12.2972433,46.6099325,0 12.2972422,46.6101213,0 12.2972004,46.6102785,0 12.2972634,46.6104047,0 12.2973334,46.6105034,0 12.2973593,46.610587,0 12.2973335,46.6107085,0 12.2972986,46.6108897,0 12.2971978,46.6110177,0 12.2970851,46.6111741,0 12.2970128,46.6112262,0 12.2969201,46.6112665,0 12.2968471,46.6112925,0 12.2967947,46.6113499,0 12.2966903,46.6114145,0 12.2965512,46.611559,0 12.2964571,46.6116962,0 12.2964442,46.6117877,0 12.2964655,46.6119417,0 12.2964575,46.6120028,0 12.2963753,46.6120402,0 12.2964019,46.6121058,0 12.2964115,46.6122229,0 12.2963629,46.6123087,0 12.2963126,46.6123497,0 12.2962618,46.6123701,0 12.2961473,46.6123544,0</coordinates></LineString></Placemark></Document></kml>