<?xml version="1.0" encoding="UTF-8"?><gpx version="1.1" creator="Dolomites Atlas" xmlns="http://www.topografix.com/GPX/1/1"><metadata><name>Tre Cime · основное кольцо</name><desc>Планировочная реконструкция по OpenStreetMap, 09.09.2026. Не запись GPS и не проверенный навигационный трек. Высоты не экспортированы. Данные © OpenStreetMap contributors, ODbL. Автопереезды и канатки в пеший трек не включены.</desc><link href="https://www.openstreetmap.org/copyright"><text>OpenStreetMap contributors · ODbL</text></link></metadata><wpt lat="46.612843372727276" lon="12.292624890909092"><name>Парковка Auronzo P1</name></wpt><wpt lat="46.61221833333333" lon="12.296110622222223"><name>Rifugio Auronzo</name></wpt><wpt lat="46.61831716" lon="12.312066699999999"><name>Rifugio Lavaredo</name></wpt><wpt lat="46.622499" lon="12.311453"><name>Forcella Lavaredo</name></wpt><wpt lat="46.6369159375" lon="12.310487725"><name>Rifugio Locatelli</name></wpt><wpt lat="46.62566868333334" lon="12.289800166666666"><name>Langalm</name></wpt><trk><name>Кольцо Tre Cime</name><desc>Планировочная реконструкция по OpenStreetMap, 09.09.2026. Не запись GPS и не проверенный навигационный трек. Высоты не экспортированы. Данные © OpenStreetMap contributors, ODbL. Автопереезды и канатки в пеший трек не включены.</desc><type>hiking</type><trkseg><trkpt lat="46.6123544" lon="12.2961473"/><trkpt lat="46.6123701" lon="12.2962618"/><trkpt lat="46.6123497" lon="12.2963126"/><trkpt lat="46.6123087" lon="12.2963629"/><trkpt lat="46.6122229" lon="12.2964115"/><trkpt lat="46.6124192" lon="12.2964797"/><trkpt lat="46.6125315" lon="12.2965091"/><trkpt lat="46.6126367" lon="12.2965468"/><trkpt lat="46.6127501" lon="12.2965685"/><trkpt lat="46.6128568" lon="12.2966017"/><trkpt lat="46.6129296" lon="12.2966378"/><trkpt lat="46.6129915" lon="12.2966422"/><trkpt lat="46.613079" lon="12.2966261"/><trkpt lat="46.6131543" lon="12.2966003"/><trkpt lat="46.6132202" lon="12.2965876"/><trkpt lat="46.613263" lon="12.2966064"/><trkpt lat="46.6132984" lon="12.2966461"/><trkpt lat="46.6133423" lon="12.2967613"/><trkpt lat="46.6133939" lon="12.2970403"/><trkpt lat="46.6134653" lon="12.2973125"/><trkpt lat="46.6135012" lon="12.2974393"/><trkpt lat="46.6135184" lon="12.2974757"/><trkpt lat="46.6135401" lon="12.2975066"/><trkpt lat="46.6135717" lon="12.2975465"/><trkpt lat="46.6135912" lon="12.2975897"/><trkpt lat="46.6135989" lon="12.2976379"/><trkpt lat="46.6136059" lon="12.2977603"/><trkpt lat="46.6136085" lon="12.2978935"/><trkpt lat="46.6136359" lon="12.2980747"/><trkpt lat="46.6136645" lon="12.298227"/><trkpt lat="46.6136782" lon="12.2983441"/><trkpt lat="46.6136807" lon="12.2984616"/><trkpt lat="46.613669" lon="12.2985808"/><trkpt lat="46.6136392" lon="12.2987611"/><trkpt lat="46.6136315" lon="12.2989312"/><trkpt lat="46.6136537" lon="12.2991511"/><trkpt lat="46.6136997" lon="12.2993604"/><trkpt lat="46.6137605" lon="12.299642"/><trkpt lat="46.6138692" lon="12.2999075"/><trkpt lat="46.6140037" lon="12.3003635"/><trkpt lat="46.6141548" lon="12.3009134"/><trkpt lat="46.614205" lon="12.3013727"/><trkpt lat="46.614258" lon="12.3016295"/><trkpt lat="46.6142683" lon="12.301898"/><trkpt lat="46.6142561" lon="12.3021901"/><trkpt lat="46.6142112" lon="12.3024532"/><trkpt lat="46.6142027" lon="12.3027265"/><trkpt lat="46.6141928" lon="12.3030272"/><trkpt lat="46.6141983" lon="12.303328"/><trkpt lat="46.6141985" lon="12.3035734"/><trkpt lat="46.614201" lon="12.3037983"/><trkpt lat="46.6141843" lon="12.3040113"/><trkpt lat="46.6141614" lon="12.3041618"/><trkpt lat="46.6141143" lon="12.3043117"/><trkpt lat="46.6140203" lon="12.3044807"/><trkpt lat="46.6137863" lon="12.3047677"/><trkpt lat="46.6136242" lon="12.3049018"/><trkpt lat="46.6135903" lon="12.3049611"/><trkpt lat="46.61358" lon="12.3050359"/><trkpt lat="46.6136058" lon="12.3052639"/><trkpt lat="46.6136288" lon="12.3054436"/><trkpt lat="46.6136192" lon="12.3055633"/><trkpt lat="46.6135866" lon="12.3056799"/><trkpt lat="46.6135486" lon="12.3058326"/><trkpt lat="46.6135414" lon="12.3059509"/><trkpt lat="46.6135376" lon="12.3060954"/><trkpt lat="46.6135542" lon="12.3064012"/><trkpt lat="46.6134982" lon="12.3065302"/><trkpt lat="46.6134694" lon="12.3066586"/><trkpt lat="46.6134702" lon="12.3067922"/><trkpt lat="46.6135064" lon="12.3069801"/><trkpt lat="46.6134982" lon="12.3071095"/><trkpt lat="46.6135091" lon="12.3072969"/><trkpt lat="46.6135763" lon="12.3074794"/><trkpt lat="46.6136678" lon="12.3076878"/><trkpt lat="46.6137476" lon="12.3078442"/><trkpt lat="46.6138324" lon="12.3080883"/><trkpt lat="46.6138672" lon="12.3082094"/><trkpt lat="46.6138987" lon="12.3083189"/><trkpt lat="46.6139705" lon="12.3084343"/><trkpt lat="46.6140835" lon="12.3084897"/><trkpt lat="46.6141974" lon="12.3084826"/><trkpt lat="46.6142948" lon="12.3085281"/><trkpt lat="46.614457" lon="12.3085925"/><trkpt lat="46.6146191" lon="12.30863"/><trkpt lat="46.6147425" lon="12.3086757"/><trkpt lat="46.6148807" lon="12.3086971"/><trkpt lat="46.615006" lon="12.3088017"/><trkpt lat="46.6151011" lon="12.3088476"/><trkpt lat="46.6151626" lon="12.308917"/><trkpt lat="46.6152227" lon="12.3090166"/><trkpt lat="46.6152783" lon="12.309132"/><trkpt lat="46.6153524" lon="12.309255"/><trkpt lat="46.6154641" lon="12.3093908"/><trkpt lat="46.6155771" lon="12.3094964"/><trkpt lat="46.6158757" lon="12.3096654"/><trkpt lat="46.616091" lon="12.3097611"/><trkpt lat="46.616233" lon="12.3097942"/><trkpt lat="46.6163527" lon="12.3098478"/><trkpt lat="46.6163898" lon="12.3098856"/><trkpt lat="46.6164449" lon="12.3099417"/><trkpt lat="46.6164817" lon="12.3099551"/><trkpt lat="46.6165427" lon="12.3099567"/><trkpt lat="46.6165759" lon="12.3099741"/><trkpt lat="46.6166017" lon="12.3099956"/><trkpt lat="46.6166529" lon="12.3100533"/><trkpt lat="46.6168108" lon="12.3102222"/><trkpt lat="46.6170013" lon="12.3104325"/><trkpt lat="46.6172316" lon="12.3106525"/><trkpt lat="46.6173018" lon="12.310705"/><trkpt lat="46.6173734" lon="12.3107383"/><trkpt lat="46.6175116" lon="12.3108483"/><trkpt lat="46.6175634" lon="12.3108794"/><trkpt lat="46.6176344" lon="12.3109178"/><trkpt lat="46.6177322" lon="12.3109468"/><trkpt lat="46.6177642" lon="12.3109665"/><trkpt lat="46.6177927" lon="12.3109961"/><trkpt lat="46.6178399" lon="12.3110604"/><trkpt lat="46.6179501" lon="12.311256"/><trkpt lat="46.6180221" lon="12.3113514"/><trkpt lat="46.6181122" lon="12.3114102"/><trkpt lat="46.6181483" lon="12.3114534"/><trkpt lat="46.618173" lon="12.3114973"/><trkpt lat="46.6182086" lon="12.3115812"/><trkpt lat="46.6182459" lon="12.3116881"/><trkpt lat="46.6182891" lon="12.3117804"/><trkpt lat="46.6183418" lon="12.3118585"/><trkpt lat="46.6184327" lon="12.311967"/><trkpt lat="46.6183418" lon="12.3118585"/><trkpt lat="46.6182891" lon="12.3117804"/><trkpt lat="46.6182459" lon="12.3116881"/><trkpt lat="46.6182086" lon="12.3115812"/><trkpt lat="46.6183024" lon="12.3114848"/><trkpt lat="46.6183553" lon="12.3114013"/><trkpt lat="46.6184013" lon="12.3113628"/><trkpt lat="46.6184451" lon="12.3112442"/><trkpt lat="46.6184506" lon="12.3111603"/><trkpt lat="46.6189263" lon="12.3104817"/><trkpt lat="46.6191302" lon="12.310374"/><trkpt lat="46.6193277" lon="12.3102835"/><trkpt lat="46.6194464" lon="12.3103445"/><trkpt lat="46.6194848" lon="12.3103597"/><trkpt lat="46.6195602" lon="12.3103353"/><trkpt lat="46.6200768" lon="12.3104512"/><trkpt lat="46.6207512" lon="12.3105787"/><trkpt lat="46.6208572" lon="12.3106321"/><trkpt lat="46.6209981" lon="12.3106753"/><trkpt lat="46.6212265" lon="12.3107714"/><trkpt lat="46.6214191" lon="12.3108811"/><trkpt lat="46.621519" lon="12.3109655"/><trkpt lat="46.6216991" lon="12.3110326"/><trkpt lat="46.6217525" lon="12.3110941"/><trkpt lat="46.6220697" lon="12.3113294"/><trkpt lat="46.6222742" lon="12.311431"/><trkpt lat="46.622499" lon="12.311453"/><trkpt lat="46.6227279" lon="12.3118325"/><trkpt lat="46.6231692" lon="12.3121486"/><trkpt lat="46.6232667" lon="12.3122305"/><trkpt lat="46.6233249" lon="12.3122795"/><trkpt lat="46.6234778" lon="12.3124579"/><trkpt lat="46.6235699" lon="12.3125772"/><trkpt lat="46.6237136" lon="12.3127972"/><trkpt lat="46.6238057" lon="12.3130064"/><trkpt lat="46.6238591" lon="12.3131606"/><trkpt lat="46.6239106" lon="12.3132727"/><trkpt lat="46.6241544" lon="12.3135555"/><trkpt lat="46.6242518" lon="12.3136169"/><trkpt lat="46.6247037" lon="12.3137172"/><trkpt lat="46.6248879" lon="12.3137078"/><trkpt lat="46.6250519" lon="12.313689"/><trkpt lat="46.6252379" lon="12.3136742"/><trkpt lat="46.6253982" lon="12.3136997"/><trkpt lat="46.6256717" lon="12.3137064"/><trkpt lat="46.62589" lon="12.3136877"/><trkpt lat="46.6262262" lon="12.3136152"/><trkpt lat="46.6264619" lon="12.313571"/><trkpt lat="46.6265098" lon="12.313575"/><trkpt lat="46.6266075" lon="12.3135616"/><trkpt lat="46.6266719" lon="12.3135428"/><trkpt lat="46.6267475" lon="12.3135294"/><trkpt lat="46.626788" lon="12.3135495"/><trkpt lat="46.6268221" lon="12.3135468"/><trkpt lat="46.6268709" lon="12.3135106"/><trkpt lat="46.6269068" lon="12.3135026"/><trkpt lat="46.6269492" lon="12.3134945"/><trkpt lat="46.6271094" lon="12.3135629"/><trkpt lat="46.6272135" lon="12.3135938"/><trkpt lat="46.6273148" lon="12.3135996"/><trkpt lat="46.6274631" lon="12.3136125"/><trkpt lat="46.6275321" lon="12.3136005"/><trkpt lat="46.6276159" lon="12.3136085"/><trkpt lat="46.6277873" lon="12.31363"/><trkpt lat="46.6279015" lon="12.313626"/><trkpt lat="46.6281501" lon="12.3136112"/><trkpt lat="46.6283509" lon="12.3136099"/><trkpt lat="46.6284927" lon="12.3135817"/><trkpt lat="46.6286373" lon="12.3135763"/><trkpt lat="46.6287184" lon="12.313567"/><trkpt lat="46.628828" lon="12.3135146"/><trkpt lat="46.6289629" lon="12.3134247"/><trkpt lat="46.6293788" lon="12.3130562"/><trkpt lat="46.6294809" lon="12.3129528"/><trkpt lat="46.6295218" lon="12.3128672"/><trkpt lat="46.6297398" lon="12.3127834"/><trkpt lat="46.6300249" lon="12.3125294"/><trkpt lat="46.6306215" lon="12.3117608"/><trkpt lat="46.6307168" lon="12.3118329"/><trkpt lat="46.6307759" lon="12.3118594"/><trkpt lat="46.6308902" lon="12.3117805"/><trkpt lat="46.6310373" lon="12.3118141"/><trkpt lat="46.6311595" lon="12.3118385"/><trkpt lat="46.6313561" lon="12.3118461"/><trkpt lat="46.6315174" lon="12.3118277"/><trkpt lat="46.6316969" lon="12.3118933"/><trkpt lat="46.6318942" lon="12.3119064"/><trkpt lat="46.6321685" lon="12.3119021"/><trkpt lat="46.6323395" lon="12.3119081"/><trkpt lat="46.6324455" lon="12.312"/><trkpt lat="46.6325262" lon="12.3120093"/><trkpt lat="46.6326748" lon="12.3120522"/><trkpt lat="46.632743" lon="12.3121457"/><trkpt lat="46.632846" lon="12.3121065"/><trkpt lat="46.6329123" lon="12.3120985"/><trkpt lat="46.6329731" lon="12.3121655"/><trkpt lat="46.6330517" lon="12.3121501"/><trkpt lat="46.6331288" lon="12.3121543"/><trkpt lat="46.6331827" lon="12.3121888"/><trkpt lat="46.6334151" lon="12.3123988"/><trkpt lat="46.6335378" lon="12.3124238"/><trkpt lat="46.6338236" lon="12.3125091"/><trkpt lat="46.6339869" lon="12.3125807"/><trkpt lat="46.6344174" lon="12.3125746"/><trkpt lat="46.6346545" lon="12.3123905"/><trkpt lat="46.6348452" lon="12.3122956"/><trkpt lat="46.6349197" lon="12.3122506"/><trkpt lat="46.6349336" lon="12.3121347"/><trkpt lat="46.6349964" lon="12.3120653"/><trkpt lat="46.6351346" lon="12.311837"/><trkpt lat="46.6352799" lon="12.3117846"/><trkpt lat="46.635422" lon="12.3117228"/><trkpt lat="46.6357398" lon="12.311759"/><trkpt lat="46.6359391" lon="12.3117228"/><trkpt lat="46.6360931" lon="12.3116322"/><trkpt lat="46.6363418" lon="12.3115598"/><trkpt lat="46.6364549" lon="12.3115177"/><trkpt lat="46.6365637" lon="12.3114467"/><trkpt lat="46.6366722" lon="12.3112549"/><trkpt lat="46.6367547" lon="12.311061"/><trkpt lat="46.6368475" lon="12.3109532"/><trkpt lat="46.6369018" lon="12.3108392"/><trkpt lat="46.6369807" lon="12.3107403"/><trkpt lat="46.6370539" lon="12.3105931"/><trkpt lat="46.6369807" lon="12.3107403"/><trkpt lat="46.6369018" lon="12.3108392"/><trkpt lat="46.6367793" lon="12.3109236"/><trkpt lat="46.6366975" lon="12.3109693"/><trkpt lat="46.6366363" lon="12.3110349"/><trkpt lat="46.6365569" lon="12.3111071"/><trkpt lat="46.636532" lon="12.3111138"/><trkpt lat="46.6365184" lon="12.3110792"/><trkpt lat="46.6365541" lon="12.3109555"/><trkpt lat="46.6365523" lon="12.310914"/><trkpt lat="46.6365294" lon="12.3109089"/><trkpt lat="46.6364447" lon="12.3109719"/><trkpt lat="46.6363147" lon="12.3111098"/><trkpt lat="46.6362366" lon="12.3111194"/><trkpt lat="46.6360974" lon="12.3110937"/><trkpt lat="46.6358598" lon="12.311032"/><trkpt lat="46.635788" lon="12.3110293"/><trkpt lat="46.6356646" lon="12.3110561"/><trkpt lat="46.6355955" lon="12.3110642"/><trkpt lat="46.6355791" lon="12.311043"/><trkpt lat="46.635569" lon="12.3109773"/><trkpt lat="46.6355531" lon="12.3109542"/><trkpt lat="46.6355294" lon="12.3109639"/><trkpt lat="46.6354252" lon="12.311083"/><trkpt lat="46.6353121" lon="12.3111838"/><trkpt lat="46.6352935" lon="12.3111835"/><trkpt lat="46.6352854" lon="12.3111556"/><trkpt lat="46.63529" lon="12.3111047"/><trkpt lat="46.6352826" lon="12.3110497"/><trkpt lat="46.6352732" lon="12.3110319"/><trkpt lat="46.6352568" lon="12.3110349"/><trkpt lat="46.6351839" lon="12.31115"/><trkpt lat="46.6351666" lon="12.3111825"/><trkpt lat="46.6351473" lon="12.3112576"/><trkpt lat="46.6351342" lon="12.3112653"/><trkpt lat="46.6351288" lon="12.3112415"/><trkpt lat="46.6351344" lon="12.311157"/><trkpt lat="46.6351231" lon="12.3111339"/><trkpt lat="46.635104" lon="12.3111409"/><trkpt lat="46.635084" lon="12.3111822"/><trkpt lat="46.6350315" lon="12.3112412"/><trkpt lat="46.6350057" lon="12.3112412"/><trkpt lat="46.6349925" lon="12.3111959"/><trkpt lat="46.6349956" lon="12.3111172"/><trkpt lat="46.6350112" lon="12.3110561"/><trkpt lat="46.6350524" lon="12.31098"/><trkpt lat="46.6350476" lon="12.3109561"/><trkpt lat="46.6350269" lon="12.3109501"/><trkpt lat="46.6349511" lon="12.3109558"/><trkpt lat="46.6349063" lon="12.3109878"/><trkpt lat="46.6348291" lon="12.3110617"/><trkpt lat="46.6347761" lon="12.3111221"/><trkpt lat="46.6347261" lon="12.3111515"/><trkpt lat="46.6346914" lon="12.3110765"/><trkpt lat="46.6346767" lon="12.3109585"/><trkpt lat="46.6346478" lon="12.3107756"/><trkpt lat="46.6346012" lon="12.3106849"/><trkpt lat="46.6345696" lon="12.3105528"/><trkpt lat="46.6345478" lon="12.3103684"/><trkpt lat="46.6345473" lon="12.3101047"/><trkpt lat="46.634568" lon="12.309958"/><trkpt lat="46.6346135" lon="12.3097937"/><trkpt lat="46.6346214" lon="12.3096389"/><trkpt lat="46.6346362" lon="12.3095329"/><trkpt lat="46.6346638" lon="12.3094806"/><trkpt lat="46.634686" lon="12.3094169"/><trkpt lat="46.634685" lon="12.3093408"/><trkpt lat="46.6346702" lon="12.3092647"/><trkpt lat="46.6346344" lon="12.3091185"/><trkpt lat="46.6346283" lon="12.3089994"/><trkpt lat="46.6346252" lon="12.3088691"/><trkpt lat="46.6345841" lon="12.3088393"/><trkpt lat="46.6345128" lon="12.3088704"/><trkpt lat="46.6344928" lon="12.3088487"/><trkpt lat="46.6344907" lon="12.3087899"/><trkpt lat="46.6344721" lon="12.3087441"/><trkpt lat="46.63444" lon="12.308735"/><trkpt lat="46.6344078" lon="12.3087497"/><trkpt lat="46.6343333" lon="12.3087296"/><trkpt lat="46.6341932" lon="12.308629"/><trkpt lat="46.6341142" lon="12.3085499"/><trkpt lat="46.634056" lon="12.3084694"/><trkpt lat="46.633987" lon="12.3083594"/><trkpt lat="46.6339354" lon="12.3082776"/><trkpt lat="46.6339022" lon="12.3081976"/><trkpt lat="46.6338921" lon="12.3081261"/><trkpt lat="46.6338581" lon="12.3080741"/><trkpt lat="46.6338" lon="12.308059"/><trkpt lat="46.6337365" lon="12.3080228"/><trkpt lat="46.6336841" lon="12.308041"/><trkpt lat="46.6336232" lon="12.3080885"/><trkpt lat="46.6335544" lon="12.3081164"/><trkpt lat="46.6335311" lon="12.308106"/><trkpt lat="46.6334897" lon="12.3080698"/><trkpt lat="46.6333967" lon="12.3080219"/><trkpt lat="46.6333781" lon="12.307972"/><trkpt lat="46.6333525" lon="12.3079249"/><trkpt lat="46.6333322" lon="12.3078538"/><trkpt lat="46.6333062" lon="12.3078157"/><trkpt lat="46.6332806" lon="12.3078042"/><trkpt lat="46.6332167" lon="12.3078309"/><trkpt lat="46.6331858" lon="12.3078123"/><trkpt lat="46.6331729" lon="12.3077881"/><trkpt lat="46.6331646" lon="12.3077479"/><trkpt lat="46.6331464" lon="12.3077275"/><trkpt lat="46.6331149" lon="12.3077331"/><trkpt lat="46.6330601" lon="12.3077278"/><trkpt lat="46.6330016" lon="12.3076902"/><trkpt lat="46.632949" lon="12.3076439"/><trkpt lat="46.6329123" lon="12.3076259"/><trkpt lat="46.6328672" lon="12.3076366"/><trkpt lat="46.6328241" lon="12.3076606"/><trkpt lat="46.6327741" lon="12.307713"/><trkpt lat="46.6327389" lon="12.3077852"/><trkpt lat="46.6327171" lon="12.3077881"/><trkpt lat="46.6326753" lon="12.3077698"/><trkpt lat="46.6326113" lon="12.3078236"/><trkpt lat="46.6325108" lon="12.3078243"/><trkpt lat="46.6324095" lon="12.3078257"/><trkpt lat="46.6322689" lon="12.3078638"/><trkpt lat="46.6320868" lon="12.3079635"/><trkpt lat="46.6317674" lon="12.3080093"/><trkpt lat="46.6316627" lon="12.3079419"/><trkpt lat="46.6316288" lon="12.3078333"/><trkpt lat="46.6316437" lon="12.3076572"/><trkpt lat="46.631776" lon="12.3071089"/><trkpt lat="46.6317344" lon="12.306919"/><trkpt lat="46.6316598" lon="12.3066758"/><trkpt lat="46.6315847" lon="12.3066721"/><trkpt lat="46.6314095" lon="12.3065227"/><trkpt lat="46.6313484" lon="12.306502"/><trkpt lat="46.6312841" lon="12.3065101"/><trkpt lat="46.631216" lon="12.306561"/><trkpt lat="46.631146" lon="12.3065758"/><trkpt lat="46.6310654" lon="12.3066172"/><trkpt lat="46.6310143" lon="12.3066241"/><trkpt lat="46.6309572" lon="12.3066522"/><trkpt lat="46.6309287" lon="12.3066543"/><trkpt lat="46.6309213" lon="12.3066294"/><trkpt lat="46.6309157" lon="12.306565"/><trkpt lat="46.6308771" lon="12.3064926"/><trkpt lat="46.6308384" lon="12.3064604"/><trkpt lat="46.6308089" lon="12.3064041"/><trkpt lat="46.6308145" lon="12.3063489"/><trkpt lat="46.6308623" lon="12.3062288"/><trkpt lat="46.6309084" lon="12.3061466"/><trkpt lat="46.630925" lon="12.3060152"/><trkpt lat="46.6309489" lon="12.3058301"/><trkpt lat="46.6309869" lon="12.3056927"/><trkpt lat="46.6311754" lon="12.3053876"/><trkpt lat="46.6313335" lon="12.3051142"/><trkpt lat="46.6314259" lon="12.3049825"/><trkpt lat="46.6315358" lon="12.30486"/><trkpt lat="46.6315438" lon="12.3048511"/><trkpt lat="46.6316101" lon="12.3047224"/><trkpt lat="46.6317018" lon="12.3046212"/><trkpt lat="46.6318035" lon="12.3043415"/><trkpt lat="46.6319431" lon="12.3040927"/><trkpt lat="46.6319443" lon="12.3040433"/><trkpt lat="46.6319045" lon="12.3040426"/><trkpt lat="46.6317701" lon="12.3041818"/><trkpt lat="46.6317114" lon="12.3042235"/><trkpt lat="46.6316414" lon="12.3042288"/><trkpt lat="46.6314775" lon="12.3042047"/><trkpt lat="46.6311683" lon="12.3041934"/><trkpt lat="46.6310631" lon="12.3042154"/><trkpt lat="46.6309728" lon="12.3041189"/><trkpt lat="46.6307794" lon="12.3039105"/><trkpt lat="46.6305476" lon="12.3035974"/><trkpt lat="46.6304092" lon="12.3033625"/><trkpt lat="46.6303779" lon="12.3032686"/><trkpt lat="46.63036" lon="12.3031651"/><trkpt lat="46.6303484" lon="12.3029736"/><trkpt lat="46.6303686" lon="12.3027127"/><trkpt lat="46.6303392" lon="12.3024639"/><trkpt lat="46.6302833" lon="12.302225"/><trkpt lat="46.6301864" lon="12.3019543"/><trkpt lat="46.6301196" lon="12.3016708"/><trkpt lat="46.6301108" lon="12.3014984"/><trkpt lat="46.6301366" lon="12.3008881"/><trkpt lat="46.6301422" lon="12.3005301"/><trkpt lat="46.6301526" lon="12.3001727"/><trkpt lat="46.6301366" lon="12.3000339"/><trkpt lat="46.630109" lon="12.2998998"/><trkpt lat="46.6300523" lon="12.2996378"/><trkpt lat="46.6299248" lon="12.2992748"/><trkpt lat="46.6299138" lon="12.2991621"/><trkpt lat="46.6299246" lon="12.2990526"/><trkpt lat="46.6299932" lon="12.2987499"/><trkpt lat="46.6299835" lon="12.2986006"/><trkpt lat="46.6299414" lon="12.298446"/><trkpt lat="46.6298843" lon="12.2982856"/><trkpt lat="46.6298475" lon="12.2981563"/><trkpt lat="46.6298472" lon="12.2980423"/><trkpt lat="46.6298563" lon="12.2977105"/><trkpt lat="46.6298077" lon="12.2974874"/><trkpt lat="46.6297461" lon="12.2973543"/><trkpt lat="46.6296689" lon="12.2972899"/><trkpt lat="46.6296356" lon="12.2972256"/><trkpt lat="46.6295896" lon="12.2971103"/><trkpt lat="46.6295491" lon="12.2969735"/><trkpt lat="46.6295261" lon="12.2968102"/><trkpt lat="46.6294419" lon="12.2966142"/><trkpt lat="46.6294139" lon="12.2963899"/><trkpt lat="46.6293907" lon="12.2962519"/><trkpt lat="46.6293463" lon="12.2961363"/><trkpt lat="46.6292065" lon="12.2959059"/><trkpt lat="46.6291365" lon="12.2957638"/><trkpt lat="46.629032" lon="12.295622"/><trkpt lat="46.6289928" lon="12.2955063"/><trkpt lat="46.6290075" lon="12.2954097"/><trkpt lat="46.628993" lon="12.2953168"/><trkpt lat="46.628967" lon="12.2952247"/><trkpt lat="46.6289997" lon="12.2950903"/><trkpt lat="46.6289762" lon="12.2950047"/><trkpt lat="46.6289352" lon="12.2949456"/><trkpt lat="46.6287663" lon="12.2946656"/><trkpt lat="46.6285806" lon="12.2944732"/><trkpt lat="46.6284881" lon="12.2943744"/><trkpt lat="46.6283573" lon="12.2943288"/><trkpt lat="46.6281222" lon="12.2942675"/><trkpt lat="46.6279301" lon="12.2940306"/><trkpt lat="46.6278496" lon="12.2936986"/><trkpt lat="46.6277485" lon="12.2935817"/><trkpt lat="46.6277053" lon="12.2934625"/><trkpt lat="46.6277034" lon="12.2933552"/><trkpt lat="46.6276478" lon="12.2932386"/><trkpt lat="46.6276298" lon="12.293146"/><trkpt lat="46.627534" lon="12.2930199"/><trkpt lat="46.6274032" lon="12.2927597"/><trkpt lat="46.62737" lon="12.2926363"/><trkpt lat="46.6272898" lon="12.2925407"/><trkpt lat="46.6271858" lon="12.2924969"/><trkpt lat="46.6271269" lon="12.2925022"/><trkpt lat="46.6270479" lon="12.2924775"/><trkpt lat="46.627009" lon="12.2924352"/><trkpt lat="46.6269832" lon="12.2923413"/><trkpt lat="46.6269427" lon="12.2923252"/><trkpt lat="46.6268819" lon="12.2921535"/><trkpt lat="46.626869" lon="12.2920462"/><trkpt lat="46.6268409" lon="12.2919391"/><trkpt lat="46.6268082" lon="12.2918665"/><trkpt lat="46.6267438" lon="12.2918424"/><trkpt lat="46.6266756" lon="12.2916707"/><trkpt lat="46.6265688" lon="12.29155"/><trkpt lat="46.626484" lon="12.2914132"/><trkpt lat="46.6263783" lon="12.2913212"/><trkpt lat="46.6262962" lon="12.2911879"/><trkpt lat="46.6262151" lon="12.2911128"/><trkpt lat="46.6261138" lon="12.290968"/><trkpt lat="46.6260714" lon="12.2908688"/><trkpt lat="46.6260014" lon="12.2908017"/><trkpt lat="46.6259185" lon="12.2907561"/><trkpt lat="46.625913" lon="12.290689"/><trkpt lat="46.6258688" lon="12.2906542"/><trkpt lat="46.6258301" lon="12.2905791"/><trkpt lat="46.6257622" lon="12.290528"/><trkpt lat="46.6257539" lon="12.2905284"/><trkpt lat="46.6257452" lon="12.2905288"/><trkpt lat="46.6257184" lon="12.2905299"/><trkpt lat="46.6256993" lon="12.2905308"/><trkpt lat="46.6256257" lon="12.2905518"/><trkpt lat="46.6255483" lon="12.290504"/><trkpt lat="46.6255168" lon="12.2904529"/><trkpt lat="46.625517" lon="12.290394"/><trkpt lat="46.6254967" lon="12.2902921"/><trkpt lat="46.6255174" lon="12.2901038"/><trkpt lat="46.625545" lon="12.2899813"/><trkpt lat="46.6256037" lon="12.2899082"/><trkpt lat="46.625545" lon="12.2899813"/><trkpt lat="46.6253163" lon="12.2900756"/><trkpt lat="46.6251864" lon="12.2901148"/><trkpt lat="46.6250711" lon="12.2901907"/><trkpt lat="46.624914" lon="12.2901699"/><trkpt lat="46.6248574" lon="12.2901651"/><trkpt lat="46.6247772" lon="12.290194"/><trkpt lat="46.6246994" lon="12.2901827"/><trkpt lat="46.6246788" lon="12.2901419"/><trkpt lat="46.6246692" lon="12.2900888"/><trkpt lat="46.6246548" lon="12.2900096"/><trkpt lat="46.624577" lon="12.2899096"/><trkpt lat="46.6244302" lon="12.2898495"/><trkpt lat="46.6242674" lon="12.2898225"/><trkpt lat="46.624191" lon="12.2897796"/><trkpt lat="46.6241109" lon="12.2896368"/><trkpt lat="46.6240202" lon="12.2895751"/><trkpt lat="46.623957" lon="12.2894956"/><trkpt lat="46.6239571" lon="12.2893934"/><trkpt lat="46.6239239" lon="12.2892915"/><trkpt lat="46.6238806" lon="12.289097"/><trkpt lat="46.6238852" lon="12.2889937"/><trkpt lat="46.6239483" lon="12.2888489"/><trkpt lat="46.6239414" lon="12.2886826"/><trkpt lat="46.6239041" lon="12.2885706"/><trkpt lat="46.6238917" lon="12.2883647"/><trkpt lat="46.6238498" lon="12.2882762"/><trkpt lat="46.6238456" lon="12.288061"/><trkpt lat="46.6239023" lon="12.2879094"/><trkpt lat="46.6239199" lon="12.287752"/><trkpt lat="46.6239552" lon="12.2876473"/><trkpt lat="46.6239723" lon="12.2875983"/><trkpt lat="46.6240077" lon="12.2875527"/><trkpt lat="46.6241178" lon="12.2875145"/><trkpt lat="46.62415" lon="12.2874354"/><trkpt lat="46.6241279" lon="12.2873643"/><trkpt lat="46.6240446" lon="12.2872979"/><trkpt lat="46.6239713" lon="12.2871571"/><trkpt lat="46.6238978" lon="12.2870493"/><trkpt lat="46.6238558" lon="12.2869552"/><trkpt lat="46.6237259" lon="12.2868701"/><trkpt lat="46.6236476" lon="12.2867849"/><trkpt lat="46.6236043" lon="12.2866972"/><trkpt lat="46.6234775" lon="12.2864934"/><trkpt lat="46.6233335" lon="12.2863611"/><trkpt lat="46.6232095" lon="12.2862846"/><trkpt lat="46.6231323" lon="12.2861043"/><trkpt lat="46.6230596" lon="12.2860679"/><trkpt lat="46.6229478" lon="12.2860314"/><trkpt lat="46.6228936" lon="12.2859651"/><trkpt lat="46.6227855" lon="12.2858864"/><trkpt lat="46.6227321" lon="12.2858757"/><trkpt lat="46.6226146" lon="12.2857885"/><trkpt lat="46.6224284" lon="12.2857047"/><trkpt lat="46.6222639" lon="12.28572"/><trkpt lat="46.6221078" lon="12.2857005"/><trkpt lat="46.6220667" lon="12.2857122"/><trkpt lat="46.6220253" lon="12.2857364"/><trkpt lat="46.621907" lon="12.2858052"/><trkpt lat="46.6217564" lon="12.2858166"/><trkpt lat="46.6214523" lon="12.285815"/><trkpt lat="46.6212884" lon="12.2858141"/><trkpt lat="46.6211318" lon="12.2858231"/><trkpt lat="46.6210774" lon="12.2858117"/><trkpt lat="46.62103" lon="12.2857916"/><trkpt lat="46.6208766" lon="12.2856474"/><trkpt lat="46.62072" lon="12.2854911"/><trkpt lat="46.6205344" lon="12.2853456"/><trkpt lat="46.6204631" lon="12.285294"/><trkpt lat="46.6203659" lon="12.2851981"/><trkpt lat="46.620271" lon="12.2851592"/><trkpt lat="46.6201895" lon="12.285102"/><trkpt lat="46.620107" lon="12.2850694"/><trkpt lat="46.6200385" lon="12.2850054"/><trkpt lat="46.6199458" lon="12.284958"/><trkpt lat="46.6198294" lon="12.2849263"/><trkpt lat="46.6197066" lon="12.2849049"/><trkpt lat="46.6195346" lon="12.2848534"/><trkpt lat="46.6194913" lon="12.2848646"/><trkpt lat="46.6194508" lon="12.2848995"/><trkpt lat="46.6194075" lon="12.2849303"/><trkpt lat="46.6193587" lon="12.2849533"/><trkpt lat="46.6192563" lon="12.284953"/><trkpt lat="46.6191669" lon="12.2849256"/><trkpt lat="46.619091" lon="12.2849159"/><trkpt lat="46.6189883" lon="12.2849294"/><trkpt lat="46.6187796" lon="12.2849506"/><trkpt lat="46.618705" lon="12.2849922"/><trkpt lat="46.61851" lon="12.2849834"/><trkpt lat="46.6183694" lon="12.284984"/><trkpt lat="46.6182303" lon="12.2850031"/><trkpt lat="46.618131" lon="12.2850343"/><trkpt lat="46.6180214" lon="12.2850339"/><trkpt lat="46.6179668" lon="12.2850256"/><trkpt lat="46.6178782" lon="12.2850423"/><trkpt lat="46.6178232" lon="12.2850043"/><trkpt lat="46.6177242" lon="12.2849231"/><trkpt lat="46.617638" lon="12.2848465"/><trkpt lat="46.6175788" lon="12.2847671"/><trkpt lat="46.6175293" lon="12.2847258"/><trkpt lat="46.6174945" lon="12.2845729"/><trkpt lat="46.617503" lon="12.2844871"/><trkpt lat="46.6175051" lon="12.2843661"/><trkpt lat="46.6175203" lon="12.284247"/><trkpt lat="46.6174992" lon="12.2842934"/><trkpt lat="46.6172965" lon="12.2842936"/><trkpt lat="46.6170624" lon="12.2844047"/><trkpt lat="46.6166098" lon="12.2849454"/><trkpt lat="46.616371" lon="12.2854173"/><trkpt lat="46.6163336" lon="12.2855419"/><trkpt lat="46.6162526" lon="12.2857415"/><trkpt lat="46.6161614" lon="12.2859114"/><trkpt lat="46.6161204" lon="12.286073"/><trkpt lat="46.616055" lon="12.2862795"/><trkpt lat="46.6160311" lon="12.2863993"/><trkpt lat="46.6160158" lon="12.2864512"/><trkpt lat="46.615944" lon="12.2865343"/><trkpt lat="46.6159062" lon="12.2865947"/><trkpt lat="46.6158564" lon="12.2866765"/><trkpt lat="46.6158308" lon="12.286748"/><trkpt lat="46.6158251" lon="12.2868589"/><trkpt lat="46.6158546" lon="12.2870265"/><trkpt lat="46.6158443" lon="12.2870784"/><trkpt lat="46.6158238" lon="12.2871101"/><trkpt lat="46.6157669" lon="12.2871631"/><trkpt lat="46.6156662" lon="12.2872628"/><trkpt lat="46.6156198" lon="12.2872929"/><trkpt lat="46.6155859" lon="12.2873075"/><trkpt lat="46.6155589" lon="12.2872759"/><trkpt lat="46.6155432" lon="12.2872397"/><trkpt lat="46.615523" lon="12.2872277"/><trkpt lat="46.6155009" lon="12.287233"/><trkpt lat="46.6154525" lon="12.2872592"/><trkpt lat="46.6154105" lon="12.2873235"/><trkpt lat="46.6152837" lon="12.287529"/><trkpt lat="46.6151" lon="12.2878364"/><trkpt lat="46.6150386" lon="12.2880544"/><trkpt lat="46.6149997" lon="12.2882188"/><trkpt lat="46.6150089" lon="12.2883293"/><trkpt lat="46.6150025" lon="12.2885099"/><trkpt lat="46.6150127" lon="12.2887417"/><trkpt lat="46.6150062" lon="12.2889156"/><trkpt lat="46.6149765" lon="12.2891837"/><trkpt lat="46.6149543" lon="12.2893509"/><trkpt lat="46.6149328" lon="12.289414"/><trkpt lat="46.6148969" lon="12.2894924"/><trkpt lat="46.6148326" lon="12.2896005"/><trkpt lat="46.6147933" lon="12.2897174"/><trkpt lat="46.6147302" lon="12.2899261"/><trkpt lat="46.614672" lon="12.2900207"/><trkpt lat="46.6145704" lon="12.2901739"/><trkpt lat="46.6145044" lon="12.290297"/><trkpt lat="46.6144603" lon="12.2904228"/><trkpt lat="46.6144225" lon="12.2906129"/><trkpt lat="46.6143952" lon="12.2907253"/><trkpt lat="46.6143514" lon="12.2908183"/><trkpt lat="46.6143161" lon="12.2908983"/><trkpt lat="46.6142847" lon="12.2910287"/><trkpt lat="46.6142784" lon="12.2911199"/><trkpt lat="46.6142285" lon="12.2913604"/><trkpt lat="46.6141861" lon="12.291546"/><trkpt lat="46.6141543" lon="12.2916684"/><trkpt lat="46.6141098" lon="12.2917713"/><trkpt lat="46.614079" lon="12.2918584"/><trkpt lat="46.6140624" lon="12.2919242"/><trkpt lat="46.6140629" lon="12.2919685"/><trkpt lat="46.6140468" lon="12.2920134"/><trkpt lat="46.6140062" lon="12.2920771"/><trkpt lat="46.6139767" lon="12.2921495"/><trkpt lat="46.6139698" lon="12.2922213"/><trkpt lat="46.613962" lon="12.2922937"/><trkpt lat="46.6139302" lon="12.2923614"/><trkpt lat="46.6138837" lon="12.2924332"/><trkpt lat="46.6138201" lon="12.2925384"/><trkpt lat="46.6137095" lon="12.2926977"/><trkpt lat="46.6135483" lon="12.2930152"/><trkpt lat="46.6135342" lon="12.2930987"/><trkpt lat="46.6136135" lon="12.2932996"/><trkpt lat="46.6135667" lon="12.2933895"/><trkpt lat="46.6133922" lon="12.2936485"/><trkpt lat="46.613318" lon="12.2937018"/><trkpt lat="46.6132941" lon="12.2937407"/><trkpt lat="46.6132824" lon="12.2937846"/><trkpt lat="46.6132812" lon="12.2938319"/><trkpt lat="46.6132913" lon="12.2938769"/><trkpt lat="46.61328" lon="12.2939378"/><trkpt lat="46.6132688" lon="12.2939774"/><trkpt lat="46.6132363" lon="12.2940274"/><trkpt lat="46.6131533" lon="12.2941074"/><trkpt lat="46.6130446" lon="12.2941705"/><trkpt lat="46.6129041" lon="12.2943761"/><trkpt lat="46.6127834" lon="12.2944704"/><trkpt lat="46.6127487" lon="12.2945749"/><trkpt lat="46.6127028" lon="12.2946876"/><trkpt lat="46.6125872" lon="12.2949059"/><trkpt lat="46.6125355" lon="12.2950092"/><trkpt lat="46.6124938" lon="12.2951289"/><trkpt lat="46.6123933" lon="12.2954022"/><trkpt lat="46.6123257" lon="12.2955755"/><trkpt lat="46.6122902" lon="12.2956791"/><trkpt lat="46.6122867" lon="12.2957453"/><trkpt lat="46.6122981" lon="12.295818"/><trkpt lat="46.6123165" lon="12.2959221"/><trkpt lat="46.6123544" lon="12.2961473"/></trkseg></trk></gpx>