<?xml version="1.0" encoding="UTF-8"?><kml xmlns="http://www.opengis.net/kml/2.2"><Document><name>Lago di Braies · круг озера</name><description>Планировочная реконструкция по OpenStreetMap, 09.09.2026. Не запись GPS и не проверенный навигационный трек. Высоты не экспортированы. Данные © OpenStreetMap contributors, ODbL. Автопереезды и канатки в пеший трек не включены.</description><Style id="track"><LineStyle><color>ff9e6c16</color><width>4</width></LineStyle></Style><Placemark><name>Lago di Braies — северный берег</name><Point><coordinates>12.0850159,46.6993473</coordinates></Point></Placemark><Placemark><name>Круг вокруг Lago di Braies</name><description>Планировочная реконструкция по OpenStreetMap, 09.09.2026. Не запись GPS и не проверенный навигационный трек. Высоты не экспортированы. Данные © OpenStreetMap contributors, ODbL. Автопереезды и канатки в пеший трек не включены.</description><styleUrl>#track</styleUrl><LineString><tessellate>1</tessellate><altitudeMode>clampToGround</altitudeMode><coordinates>12.0851564,46.6993217,0 12.0852436,46.6991169,0 12.0852758,46.6990155,0 12.085361,46.6989788,0 12.0853717,46.6989757,0 12.08544,46.6989653,0 12.0854653,46.6989604,0 12.0854653,46.6988703,0 12.0854767,46.6987982,0 12.085512,46.6986881,0 12.0856643,46.69857,0 12.085731,46.6985495,0 12.0858055,46.6985312,0 12.0859262,46.6985132,0 12.0860659,46.6985104,0 12.0862247,46.6985207,0 12.086326,46.6985438,0 12.086559,46.6986179,0 12.0867511,46.6987628,0 12.0868136,46.6988681,0 12.0868316,46.6989609,0 12.0868357,46.6990943,0 12.0868117,46.6992145,0 12.0868453,46.6993413,0 12.0868934,46.6994401,0 12.0869654,46.6995207,0 12.0871646,46.6996492,0 12.0873156,46.699729,0 12.0874263,46.6998524,0 12.0875469,46.6999391,0 12.0876976,46.700018,0 12.08794,46.7001497,0 12.0880784,46.7002421,0 12.088213,46.7001518,0 12.0881057,46.7000608,0 12.0880769,46.7000114,0 12.087964,46.6999076,0 12.0877936,46.6997068,0 12.0877192,46.6995784,0 12.087712,46.6993775,0 12.0876856,46.69904,0 12.0875553,46.6988281,0 12.0875118,46.6985318,0 12.0875338,46.6984249,0 12.0875567,46.6983765,0 12.0877044,46.6982512,0 12.0877349,46.6981818,0 12.0877662,46.6980625,0 12.0878476,46.6979615,0 12.0879906,46.6979067,0 12.0881614,46.6978667,0 12.0883079,46.6977799,0 12.0884299,46.6975608,0 12.0884726,46.6974439,0 12.0884497,46.6973653,0 12.0883883,46.6973078,0 12.0883224,46.6971312,0 12.0881707,46.6970191,0 12.0878116,46.6968328,0 12.0877208,46.6967197,0 12.0876612,46.6965845,0 12.0877055,46.6964156,0 12.087875,46.6962117,0 12.0880768,46.6959703,0 12.0881272,46.6958439,0 12.0881347,46.6957329,0 12.0880278,46.6955244,0 12.0880115,46.6954342,0 12.0880849,46.6952091,0 12.0881903,46.6951114,0 12.0882857,46.6948644,0 12.0883266,46.6947686,0 12.0883168,46.6947189,0 12.0883733,46.694665,0 12.0884059,46.6945516,0 12.0884429,46.6945005,0 12.0885387,46.6942768,0 12.0885281,46.6941282,0 12.088586,46.6940907,0 12.0885584,46.6939446,0 12.0884958,46.6938938,0 12.0884419,46.6938388,0 12.0884268,46.6938706,0 12.0884331,46.6940142,0 12.0884068,46.6941559,0 12.0883754,46.6942575,0 12.0883467,46.6943059,0 12.0882401,46.6941397,0 12.0881333,46.6940429,0 12.0879715,46.6939,0 12.0879015,46.6938312,0 12.0878317,46.6936796,0 12.0876692,46.6936182,0 12.0876092,46.6936059,0 12.0875533,46.6935915,0 12.0874081,46.6934526,0 12.0871283,46.6932917,0 12.0869529,46.6931014,0 12.0869139,46.6929764,0 12.0868521,46.6927201,0 12.0868365,46.6925899,0 12.0867958,46.6924723,0 12.0867374,46.6922389,0 12.086786,46.6920421,0 12.087033,46.6916754,0 12.0870675,46.6915354,0 12.0870567,46.6914787,0 12.0869995,46.6913063,0 12.0869171,46.6910763,0 12.086608,46.6909139,0 12.0864905,46.6908556,0 12.0864575,46.6907889,0 12.0863577,46.6906632,0 12.0863112,46.6904635,0 12.0862968,46.6903406,0 12.0862329,46.6901786,0 12.0861713,46.6900742,0 12.0861583,46.6899158,0 12.0862011,46.6897104,0 12.0861781,46.6896079,0 12.0861153,46.6895073,0 12.0860843,46.6893608,0 12.0860371,46.6892676,0 12.0858457,46.6891956,0 12.0856437,46.6891709,0 12.0854589,46.6891658,0 12.0852149,46.6891356,0 12.0850113,46.6891185,0 12.0842539,46.6891364,0 12.0841498,46.6891312,0 12.0840036,46.689099,0 12.0838898,46.6890858,0 12.0837769,46.689095,0 12.0835768,46.6891507,0 12.0831695,46.6891544,0 12.0829159,46.6891317,0 12.0827241,46.6891118,0 12.08256,46.6891282,0 12.0824751,46.6891333,0 12.0821831,46.6891172,0 12.0817406,46.6891413,0 12.081598,46.689181,0 12.0814348,46.6892779,0 12.0813583,46.6893477,0 12.0813014,46.6894621,0 12.0812699,46.6895801,0 12.0812462,46.689697,0 12.0812224,46.6900077,0 12.0811507,46.6901202,0 12.0811083,46.6902224,0 12.0810725,46.6904026,0 12.0810366,46.6904673,0 12.0809834,46.6906982,0 12.080951,46.6907924,0 12.0808744,46.6908727,0 12.0808181,46.6909222,0 12.0806417,46.6910004,0 12.0805095,46.691087,0 12.0804811,46.6911363,0 12.0804528,46.691304,0 12.0804604,46.6914036,0 12.0804905,46.6914161,0 12.0805687,46.6914454,0 12.0807016,46.6914652,0 12.0808518,46.6915133,0 12.0809846,46.6915823,0 12.0811956,46.6917641,0 12.0813832,46.691962,0 12.0815157,46.6920898,0 12.0816084,46.6921848,0 12.0817446,46.6923136,0 12.0818551,46.6924616,0 12.081942,46.6926289,0 12.0819978,46.6927915,0 12.0820436,46.6929267,0 12.0820969,46.693019,0 12.0821644,46.6931441,0 12.0822603,46.6932039,0 12.0823712,46.6932654,0 12.0824484,46.6933841,0 12.0825753,46.6935466,0 12.0827298,46.6936224,0 12.0828195,46.6937437,0 12.0830166,46.6939184,0 12.0831012,46.6940881,0 12.0832173,46.69425,0 12.0832937,46.6943478,0 12.0833544,46.694426,0 12.0834016,46.6944938,0 12.0834166,46.6945576,0 12.0834339,46.6946216,0 12.0834771,46.6947415,0 12.0834945,46.6948448,0 12.0834372,46.6949405,0 12.0833479,46.6951165,0 12.0833133,46.6952158,0 12.0832962,46.6953224,0 12.0832942,46.6954127,0 12.0833259,46.6954922,0 12.0832906,46.6956339,0 12.0832664,46.6957673,0 12.0832782,46.695858,0 12.0832754,46.6959323,0 12.0832454,46.6960449,0 12.0832379,46.6960936,0 12.0832107,46.6961869,0 12.0832048,46.6962863,0 12.0832125,46.6963463,0 12.0832269,46.6964192,0 12.0832595,46.6965055,0 12.083247,46.6965798,0 12.0832685,46.6966673,0 12.0832691,46.6967387,0 12.083251,46.6967889,0 12.0832266,46.696827,0 12.0832041,46.6969098,0 12.0832115,46.6969659,0 12.0832641,46.6970954,0 12.0834177,46.6972777,0 12.0835493,46.697489,0 12.0837433,46.6977375,0 12.0838527,46.697883,0 12.0839737,46.6980175,0 12.0840916,46.6981451,0 12.0841389,46.6981805,0 12.0841761,46.6982357,0 12.0842039,46.6983167,0 12.0842162,46.6984036,0 12.0842206,46.6985535,0 12.0842194,46.6985747,0 12.0841797,46.6986528,0 12.0841242,46.6987119,0 12.0841536,46.6987793,0 12.0841923,46.6988127,0 12.0842626,46.6988468,0 12.0847615,46.6990928,0 12.0850121,46.6992262,0 12.0851564,46.6993217,0</coordinates></LineString></Placemark></Document></kml>