<?xml version="1.0" encoding="UTF-8"?><gpx version="1.1" creator="Dolomites Atlas" xmlns="http://www.topografix.com/GPX/1/1"><metadata><name>Prato Piazza + Braies</name><desc>Планировочная реконструкция по OpenStreetMap, 09.09.2026. Не запись GPS и не проверенный навигационный трек. Высоты не экспортированы. Данные © OpenStreetMap contributors, ODbL. Автопереезды и канатки в пеший трек не включены.</desc><link href="https://www.openstreetmap.org/copyright"><text>OpenStreetMap contributors · ODbL</text></link></metadata><wpt lat="46.6567725" lon="12.1749861"><name>Парковка Prato Piazza</name></wpt><wpt lat="46.6419402" lon="12.1958672"><name>Rifugio Vallandro</name></wpt><wpt lat="46.6444985" lon="12.2126758"><name>Strudelkopf / Monte Specie</name></wpt><wpt lat="46.6993473" lon="12.0850159"><name>Lago di Braies — северный берег</name></wpt><trk><name>Prato Piazza — Strudelkopf — обратно</name><desc>Планировочная реконструкция по OpenStreetMap, 09.09.2026. Не запись GPS и не проверенный навигационный трек. Высоты не экспортированы. Данные © OpenStreetMap contributors, ODbL. Автопереезды и канатки в пеший трек не включены.</desc><type>hiking</type><trkseg><trkpt lat="46.6568322" lon="12.1747557"/><trkpt lat="46.6566506" lon="12.1753978"/><trkpt lat="46.6565416" lon="12.1757318"/><trkpt lat="46.6564927" lon="12.1758395"/><trkpt lat="46.6564746" lon="12.1758697"/><trkpt lat="46.6564471" lon="12.1758875"/><trkpt lat="46.656421" lon="12.1758819"/><trkpt lat="46.6564107" lon="12.1759699"/><trkpt lat="46.6563977" lon="12.1760989"/><trkpt lat="46.6563894" lon="12.1762637"/><trkpt lat="46.6563489" lon="12.1764481"/><trkpt lat="46.6562143" lon="12.1768661"/><trkpt lat="46.6561595" lon="12.1769891"/><trkpt lat="46.6561361" lon="12.1770381"/><trkpt lat="46.65581" lon="12.1773401"/><trkpt lat="46.6556964" lon="12.1774379"/><trkpt lat="46.6554229" lon="12.1776468"/><trkpt lat="46.6547906" lon="12.1780671"/><trkpt lat="46.6544152" lon="12.1785584"/><trkpt lat="46.6542083" lon="12.1787593"/><trkpt lat="46.6540429" lon="12.1788598"/><trkpt lat="46.6537574" lon="12.1790738"/><trkpt lat="46.6535337" lon="12.1792375"/><trkpt lat="46.6531428" lon="12.1794887"/><trkpt lat="46.6530271" lon="12.1795777"/><trkpt lat="46.6529321" lon="12.179671"/><trkpt lat="46.6528273" lon="12.179795"/><trkpt lat="46.6527326" lon="12.1799527"/><trkpt lat="46.6526329" lon="12.1802588"/><trkpt lat="46.6525837" lon="12.1804802"/><trkpt lat="46.6525636" lon="12.1806756"/><trkpt lat="46.6525636" lon="12.1808157"/><trkpt lat="46.6525725" lon="12.1809252"/><trkpt lat="46.652589" lon="12.1810647"/><trkpt lat="46.6526374" lon="12.1812619"/><trkpt lat="46.6526831" lon="12.1813446"/><trkpt lat="46.6527357" lon="12.1814052"/><trkpt lat="46.6529049" lon="12.181567"/><trkpt lat="46.652966" lon="12.1816412"/><trkpt lat="46.6529977" lon="12.1817245"/><trkpt lat="46.6530207" lon="12.1817996"/><trkpt lat="46.6530399" lon="12.1818827"/><trkpt lat="46.6530409" lon="12.1819619"/><trkpt lat="46.6530256" lon="12.1820678"/><trkpt lat="46.6529701" lon="12.1821367"/><trkpt lat="46.6528776" lon="12.182207"/><trkpt lat="46.6528172" lon="12.1822599"/><trkpt lat="46.6527657" lon="12.1823389"/><trkpt lat="46.6526639" lon="12.1825772"/><trkpt lat="46.6526593" lon="12.1825875"/><trkpt lat="46.6526346" lon="12.1826182"/><trkpt lat="46.652596" lon="12.1826321"/><trkpt lat="46.6525427" lon="12.182631"/><trkpt lat="46.6524529" lon="12.182618"/><trkpt lat="46.6523692" lon="12.182604"/><trkpt lat="46.652306" lon="12.1826065"/><trkpt lat="46.6522513" lon="12.1826223"/><trkpt lat="46.6521724" lon="12.1826703"/><trkpt lat="46.6518724" lon="12.1830015"/><trkpt lat="46.6510724" lon="12.1837854"/><trkpt lat="46.6509209" lon="12.1839359"/><trkpt lat="46.6508361" lon="12.1840469"/><trkpt lat="46.6507411" lon="12.1841785"/><trkpt lat="46.6506842" lon="12.1842409"/><trkpt lat="46.6505608" lon="12.1843301"/><trkpt lat="46.650423" lon="12.1844212"/><trkpt lat="46.6503002" lon="12.1845072"/><trkpt lat="46.6502081" lon="12.1845894"/><trkpt lat="46.6499982" lon="12.1848154"/><trkpt lat="46.649483" lon="12.1854243"/><trkpt lat="46.6490798" lon="12.1860262"/><trkpt lat="46.6486959" lon="12.1866257"/><trkpt lat="46.6483177" lon="12.1872918"/><trkpt lat="46.648228" lon="12.1874653"/><trkpt lat="46.6478779" lon="12.188097"/><trkpt lat="46.6477295" lon="12.1883646"/><trkpt lat="46.6473226" lon="12.1888811"/><trkpt lat="46.6469563" lon="12.1893948"/><trkpt lat="46.6468551" lon="12.1895272"/><trkpt lat="46.6466876" lon="12.1897241"/><trkpt lat="46.6464836" lon="12.1900074"/><trkpt lat="46.6463942" lon="12.1901638"/><trkpt lat="46.6458249" lon="12.1908902"/><trkpt lat="46.6456585" lon="12.1911163"/><trkpt lat="46.6453257" lon="12.1914729"/><trkpt lat="46.6450322" lon="12.1917458"/><trkpt lat="46.644935" lon="12.1918804"/><trkpt lat="46.6447924" lon="12.1922078"/><trkpt lat="46.6447175" lon="12.1925025"/><trkpt lat="46.6445429" lon="12.1928123"/><trkpt lat="46.6444213" lon="12.1930094"/><trkpt lat="46.6443873" lon="12.1930737"/><trkpt lat="46.6443699" lon="12.1931474"/><trkpt lat="46.6443503" lon="12.1933691"/><trkpt lat="46.6443453" lon="12.1934695"/><trkpt lat="46.6443199" lon="12.1935776"/><trkpt lat="46.6442928" lon="12.1936376"/><trkpt lat="46.6441828" lon="12.1937353"/><trkpt lat="46.6441001" lon="12.1937667"/><trkpt lat="46.6440013" lon="12.1938163"/><trkpt lat="46.6438664" lon="12.19387"/><trkpt lat="46.6437302" lon="12.1939644"/><trkpt lat="46.6435427" lon="12.1940976"/><trkpt lat="46.6433063" lon="12.1943026"/><trkpt lat="46.6430877" lon="12.1944778"/><trkpt lat="46.6429556" lon="12.1946543"/><trkpt lat="46.6428952" lon="12.1947975"/><trkpt lat="46.6428616" lon="12.1949494"/><trkpt lat="46.6428045" lon="12.1950442"/><trkpt lat="46.6427134" lon="12.195103"/><trkpt lat="46.6426011" lon="12.1951001"/><trkpt lat="46.6425114" lon="12.195071"/><trkpt lat="46.6424006" lon="12.1950756"/><trkpt lat="46.6422858" lon="12.195136"/><trkpt lat="46.6420486" lon="12.1953495"/><trkpt lat="46.6419902" lon="12.195423"/><trkpt lat="46.6419655" lon="12.1954669"/><trkpt lat="46.6419691" lon="12.1955026"/><trkpt lat="46.6419865" lon="12.1955243"/><trkpt lat="46.6420387" lon="12.1955198"/><trkpt lat="46.6420896" lon="12.1957305"/><trkpt lat="46.6420779" lon="12.1959172"/><trkpt lat="46.6420896" lon="12.1957305"/><trkpt lat="46.642189" lon="12.1958414"/><trkpt lat="46.642195" lon="12.1958518"/><trkpt lat="46.6421904" lon="12.1958958"/><trkpt lat="46.6422803" lon="12.195888"/><trkpt lat="46.6423412" lon="12.1959776"/><trkpt lat="46.6423909" lon="12.1960158"/><trkpt lat="46.6424297" lon="12.1960228"/><trkpt lat="46.6424409" lon="12.1960634"/><trkpt lat="46.6424289" lon="12.196117"/><trkpt lat="46.6423909" lon="12.1961495"/><trkpt lat="46.6423083" lon="12.1961828"/><trkpt lat="46.6422411" lon="12.1962109"/><trkpt lat="46.6421907" lon="12.196225"/><trkpt lat="46.6420424" lon="12.1963936"/><trkpt lat="46.6420265" lon="12.1965278"/><trkpt lat="46.6420353" lon="12.1966786"/><trkpt lat="46.641955" lon="12.1968302"/><trkpt lat="46.6419504" lon="12.1969173"/><trkpt lat="46.6420166" lon="12.1972781"/><trkpt lat="46.6420058" lon="12.1973716"/><trkpt lat="46.6419478" lon="12.1975413"/><trkpt lat="46.6418921" lon="12.1975882"/><trkpt lat="46.6418557" lon="12.1977257"/><trkpt lat="46.6418571" lon="12.1978082"/><trkpt lat="46.6417982" lon="12.1979208"/><trkpt lat="46.641748" lon="12.1979637"/><trkpt lat="46.6417323" lon="12.1980458"/><trkpt lat="46.641757" lon="12.1981893"/><trkpt lat="46.6417356" lon="12.1986142"/><trkpt lat="46.6416982" lon="12.1989823"/><trkpt lat="46.6415193" lon="12.1992577"/><trkpt lat="46.6415297" lon="12.1994394"/><trkpt lat="46.6413707" lon="12.1999848"/><trkpt lat="46.6413828" lon="12.2001524"/><trkpt lat="46.6413668" lon="12.2003155"/><trkpt lat="46.6411939" lon="12.2005874"/><trkpt lat="46.641117" lon="12.2009421"/><trkpt lat="46.6409104" lon="12.2012061"/><trkpt lat="46.6408889" lon="12.2015387"/><trkpt lat="46.640805" lon="12.2019486"/><trkpt lat="46.6408904" lon="12.2018738"/><trkpt lat="46.6408717" lon="12.2020394"/><trkpt lat="46.6409401" lon="12.2019993"/><trkpt lat="46.6409548" lon="12.2020447"/><trkpt lat="46.6409106" lon="12.202211"/><trkpt lat="46.6409168" lon="12.2023198"/><trkpt lat="46.6408217" lon="12.202592"/><trkpt lat="46.6408514" lon="12.2028337"/><trkpt lat="46.640904" lon="12.2030122"/><trkpt lat="46.6409065" lon="12.2031831"/><trkpt lat="46.6409903" lon="12.2033719"/><trkpt lat="46.6410875" lon="12.2034715"/><trkpt lat="46.6412227" lon="12.203595"/><trkpt lat="46.6413664" lon="12.2036822"/><trkpt lat="46.6415163" lon="12.2038777"/><trkpt lat="46.6418091" lon="12.2043878"/><trkpt lat="46.6419418" lon="12.2044716"/><trkpt lat="46.642246" lon="12.204683"/><trkpt lat="46.642356" lon="12.204654"/><trkpt lat="46.6425234" lon="12.2048407"/><trkpt lat="46.6427042" lon="12.2049013"/><trkpt lat="46.6428472" lon="12.2049476"/><trkpt lat="46.6428909" lon="12.2049662"/><trkpt lat="46.6433244" lon="12.2051509"/><trkpt lat="46.6435077" lon="12.2051962"/><trkpt lat="46.643512" lon="12.205376"/><trkpt lat="46.6435587" lon="12.2055292"/><trkpt lat="46.64364" lon="12.20588"/><trkpt lat="46.6436908" lon="12.2060306"/><trkpt lat="46.643717" lon="12.2061649"/><trkpt lat="46.6437265" lon="12.2062614"/><trkpt lat="46.6437234" lon="12.2064706"/><trkpt lat="46.6437181" lon="12.2066847"/><trkpt lat="46.6437321" lon="12.2069742"/><trkpt lat="46.6437492" lon="12.2071628"/><trkpt lat="46.643781" lon="12.2073442"/><trkpt lat="46.6438007" lon="12.2075357"/><trkpt lat="46.6437971" lon="12.2075676"/><trkpt lat="46.6437816" lon="12.2075976"/><trkpt lat="46.6437731" lon="12.2076009"/><trkpt lat="46.6437738" lon="12.2076633"/><trkpt lat="46.6437553" lon="12.2077733"/><trkpt lat="46.6437438" lon="12.2078447"/><trkpt lat="46.6437253" lon="12.207885"/><trkpt lat="46.6437271" lon="12.2079278"/><trkpt lat="46.6436717" lon="12.2080319"/><trkpt lat="46.643659" lon="12.2080773"/><trkpt lat="46.6436619" lon="12.2081209"/><trkpt lat="46.643685" lon="12.2081822"/><trkpt lat="46.6436827" lon="12.2082259"/><trkpt lat="46.6436637" lon="12.2082897"/><trkpt lat="46.6436285" lon="12.2083309"/><trkpt lat="46.643621" lon="12.2083737"/><trkpt lat="46.6435795" lon="12.2084325"/><trkpt lat="46.6435178" lon="12.2085551"/><trkpt lat="46.6434999" lon="12.2086365"/><trkpt lat="46.6434705" lon="12.2086709"/><trkpt lat="46.6434198" lon="12.2086919"/><trkpt lat="46.643372" lon="12.2088305"/><trkpt lat="46.6433109" lon="12.2090076"/><trkpt lat="46.6432859" lon="12.2090802"/><trkpt lat="46.6433975" lon="12.209192"/><trkpt lat="46.6434257" lon="12.2092497"/><trkpt lat="46.6434593" lon="12.2093324"/><trkpt lat="46.643479" lon="12.2094544"/><trkpt lat="46.6434899" lon="12.2095482"/><trkpt lat="46.6435187" lon="12.2096499"/><trkpt lat="46.6435243" lon="12.2097248"/><trkpt lat="46.6435251" lon="12.2097714"/><trkpt lat="46.6435183" lon="12.209818"/><trkpt lat="46.6435193" lon="12.2098618"/><trkpt lat="46.6435639" lon="12.2099615"/><trkpt lat="46.6436124" lon="12.2100255"/><trkpt lat="46.6436473" lon="12.2100682"/><trkpt lat="46.6436735" lon="12.2101404"/><trkpt lat="46.6436821" lon="12.2102155"/><trkpt lat="46.643661" lon="12.2103319"/><trkpt lat="46.6436339" lon="12.2103816"/><trkpt lat="46.643599" lon="12.2104285"/><trkpt lat="46.6435842" lon="12.2104927"/><trkpt lat="46.643569" lon="12.210614"/><trkpt lat="46.6434867" lon="12.2108698"/><trkpt lat="46.6433985" lon="12.2110906"/><trkpt lat="46.6433821" lon="12.2111664"/><trkpt lat="46.6433701" lon="12.2112667"/><trkpt lat="46.6433683" lon="12.2113538"/><trkpt lat="46.6433877" lon="12.2114357"/><trkpt lat="46.6434095" lon="12.2115"/><trkpt lat="46.6434256" lon="12.2115577"/><trkpt lat="46.6434234" lon="12.2115994"/><trkpt lat="46.6434061" lon="12.2116456"/><trkpt lat="46.6433815" lon="12.2116837"/><trkpt lat="46.6433658" lon="12.2117209"/><trkpt lat="46.6433577" lon="12.2117873"/><trkpt lat="46.6433598" lon="12.2118538"/><trkpt lat="46.6433731" lon="12.2119569"/><trkpt lat="46.6434013" lon="12.2120329"/><trkpt lat="46.6434391" lon="12.2120846"/><trkpt lat="46.643513" lon="12.2121671"/><trkpt lat="46.643556" lon="12.2121975"/><trkpt lat="46.6437076" lon="12.2122647"/><trkpt lat="46.6437721" lon="12.2122614"/><trkpt lat="46.6438832" lon="12.2122385"/><trkpt lat="46.6439485" lon="12.212234"/><trkpt lat="46.6440175" lon="12.2122567"/><trkpt lat="46.6441173" lon="12.2122957"/><trkpt lat="46.6443007" lon="12.2124329"/><trkpt lat="46.6444694" lon="12.2125149"/><trkpt lat="46.6445779" lon="12.2125301"/><trkpt lat="46.6446191" lon="12.212563"/><trkpt lat="46.6445868" lon="12.2126556"/><trkpt lat="46.6444985" lon="12.2126758"/><trkpt lat="46.6445868" lon="12.2126556"/><trkpt lat="46.6446191" lon="12.212563"/><trkpt lat="46.6445779" lon="12.2125301"/><trkpt lat="46.6444694" lon="12.2125149"/><trkpt lat="46.6443007" lon="12.2124329"/><trkpt lat="46.6441173" lon="12.2122957"/><trkpt lat="46.6440175" lon="12.2122567"/><trkpt lat="46.6439485" lon="12.212234"/><trkpt lat="46.6438832" lon="12.2122385"/><trkpt lat="46.6437721" lon="12.2122614"/><trkpt lat="46.6437076" lon="12.2122647"/><trkpt lat="46.643556" lon="12.2121975"/><trkpt lat="46.643513" lon="12.2121671"/><trkpt lat="46.6434391" lon="12.2120846"/><trkpt lat="46.6434013" lon="12.2120329"/><trkpt lat="46.6433731" lon="12.2119569"/><trkpt lat="46.6433598" lon="12.2118538"/><trkpt lat="46.6433577" lon="12.2117873"/><trkpt lat="46.6433658" lon="12.2117209"/><trkpt lat="46.6433815" lon="12.2116837"/><trkpt lat="46.6434061" lon="12.2116456"/><trkpt lat="46.6434234" lon="12.2115994"/><trkpt lat="46.6434256" lon="12.2115577"/><trkpt lat="46.6434095" lon="12.2115"/><trkpt lat="46.6433877" lon="12.2114357"/><trkpt lat="46.6433683" lon="12.2113538"/><trkpt lat="46.6433701" lon="12.2112667"/><trkpt lat="46.6433821" lon="12.2111664"/><trkpt lat="46.6433985" lon="12.2110906"/><trkpt lat="46.6434867" lon="12.2108698"/><trkpt lat="46.643569" lon="12.210614"/><trkpt lat="46.6435842" lon="12.2104927"/><trkpt lat="46.643599" lon="12.2104285"/><trkpt lat="46.6436339" lon="12.2103816"/><trkpt lat="46.643661" lon="12.2103319"/><trkpt lat="46.6436821" lon="12.2102155"/><trkpt lat="46.6436735" lon="12.2101404"/><trkpt lat="46.6436473" lon="12.2100682"/><trkpt lat="46.6436124" lon="12.2100255"/><trkpt lat="46.6435639" lon="12.2099615"/><trkpt lat="46.6435193" lon="12.2098618"/><trkpt lat="46.6435183" lon="12.209818"/><trkpt lat="46.6435251" lon="12.2097714"/><trkpt lat="46.6435243" lon="12.2097248"/><trkpt lat="46.6435187" lon="12.2096499"/><trkpt lat="46.6434899" lon="12.2095482"/><trkpt lat="46.643479" lon="12.2094544"/><trkpt lat="46.6434593" lon="12.2093324"/><trkpt lat="46.6434257" lon="12.2092497"/><trkpt lat="46.6433975" lon="12.209192"/><trkpt lat="46.6432859" lon="12.2090802"/><trkpt lat="46.6433109" lon="12.2090076"/><trkpt lat="46.643372" lon="12.2088305"/><trkpt lat="46.6434198" lon="12.2086919"/><trkpt lat="46.6434705" lon="12.2086709"/><trkpt lat="46.6434999" lon="12.2086365"/><trkpt lat="46.6435178" lon="12.2085551"/><trkpt lat="46.6435795" lon="12.2084325"/><trkpt lat="46.643621" lon="12.2083737"/><trkpt lat="46.6436285" lon="12.2083309"/><trkpt lat="46.6436637" lon="12.2082897"/><trkpt lat="46.6436827" lon="12.2082259"/><trkpt lat="46.643685" lon="12.2081822"/><trkpt lat="46.6436619" lon="12.2081209"/><trkpt lat="46.643659" lon="12.2080773"/><trkpt lat="46.6436717" lon="12.2080319"/><trkpt lat="46.6437271" lon="12.2079278"/><trkpt lat="46.6437253" lon="12.207885"/><trkpt lat="46.6437438" lon="12.2078447"/><trkpt lat="46.6437553" lon="12.2077733"/><trkpt lat="46.6437738" lon="12.2076633"/><trkpt lat="46.6437731" lon="12.2076009"/><trkpt lat="46.6437816" lon="12.2075976"/><trkpt lat="46.6437971" lon="12.2075676"/><trkpt lat="46.6438007" lon="12.2075357"/><trkpt lat="46.643781" lon="12.2073442"/><trkpt lat="46.6437492" lon="12.2071628"/><trkpt lat="46.6437321" lon="12.2069742"/><trkpt lat="46.6437181" lon="12.2066847"/><trkpt lat="46.6437234" lon="12.2064706"/><trkpt lat="46.6437265" lon="12.2062614"/><trkpt lat="46.643717" lon="12.2061649"/><trkpt lat="46.6436908" lon="12.2060306"/><trkpt lat="46.64364" lon="12.20588"/><trkpt lat="46.6435587" lon="12.2055292"/><trkpt lat="46.643512" lon="12.205376"/><trkpt lat="46.6435077" lon="12.2051962"/><trkpt lat="46.6433244" lon="12.2051509"/><trkpt lat="46.6428909" lon="12.2049662"/><trkpt lat="46.6428472" lon="12.2049476"/><trkpt lat="46.6427042" lon="12.2049013"/><trkpt lat="46.6425234" lon="12.2048407"/><trkpt lat="46.642356" lon="12.204654"/><trkpt lat="46.642246" lon="12.204683"/><trkpt lat="46.6419418" lon="12.2044716"/><trkpt lat="46.6418091" lon="12.2043878"/><trkpt lat="46.6415163" lon="12.2038777"/><trkpt lat="46.6413664" lon="12.2036822"/><trkpt lat="46.6412227" lon="12.203595"/><trkpt lat="46.6410875" lon="12.2034715"/><trkpt lat="46.6409903" lon="12.2033719"/><trkpt lat="46.6409065" lon="12.2031831"/><trkpt lat="46.640904" lon="12.2030122"/><trkpt lat="46.6408514" lon="12.2028337"/><trkpt lat="46.6408217" lon="12.202592"/><trkpt lat="46.6409168" lon="12.2023198"/><trkpt lat="46.6409106" lon="12.202211"/><trkpt lat="46.6409548" lon="12.2020447"/><trkpt lat="46.6409401" lon="12.2019993"/><trkpt lat="46.6408717" lon="12.2020394"/><trkpt lat="46.6408904" lon="12.2018738"/><trkpt lat="46.640805" lon="12.2019486"/><trkpt lat="46.6408889" lon="12.2015387"/><trkpt lat="46.6409104" lon="12.2012061"/><trkpt lat="46.641117" lon="12.2009421"/><trkpt lat="46.6411939" lon="12.2005874"/><trkpt lat="46.6413668" lon="12.2003155"/><trkpt lat="46.6413828" lon="12.2001524"/><trkpt lat="46.6413707" lon="12.1999848"/><trkpt lat="46.6415297" lon="12.1994394"/><trkpt lat="46.6415193" lon="12.1992577"/><trkpt lat="46.6416982" lon="12.1989823"/><trkpt lat="46.6417356" lon="12.1986142"/><trkpt lat="46.641757" lon="12.1981893"/><trkpt lat="46.6417323" lon="12.1980458"/><trkpt lat="46.641748" lon="12.1979637"/><trkpt lat="46.6417982" lon="12.1979208"/><trkpt lat="46.6418571" lon="12.1978082"/><trkpt lat="46.6418557" lon="12.1977257"/><trkpt lat="46.6418921" lon="12.1975882"/><trkpt lat="46.6419478" lon="12.1975413"/><trkpt lat="46.6420058" lon="12.1973716"/><trkpt lat="46.6420166" lon="12.1972781"/><trkpt lat="46.6419504" lon="12.1969173"/><trkpt lat="46.641955" lon="12.1968302"/><trkpt lat="46.6420353" lon="12.1966786"/><trkpt lat="46.6420265" lon="12.1965278"/><trkpt lat="46.6420424" lon="12.1963936"/><trkpt lat="46.6421907" lon="12.196225"/><trkpt lat="46.6422411" lon="12.1962109"/><trkpt lat="46.6423083" lon="12.1961828"/><trkpt lat="46.6423909" lon="12.1961495"/><trkpt lat="46.6424289" lon="12.196117"/><trkpt lat="46.6424409" lon="12.1960634"/><trkpt lat="46.6424297" lon="12.1960228"/><trkpt lat="46.6423909" lon="12.1960158"/><trkpt lat="46.6423412" lon="12.1959776"/><trkpt lat="46.6422803" lon="12.195888"/><trkpt lat="46.6421904" lon="12.1958958"/><trkpt lat="46.642195" lon="12.1958518"/><trkpt lat="46.642189" lon="12.1958414"/><trkpt lat="46.6420896" lon="12.1957305"/><trkpt lat="46.6420779" lon="12.1959172"/><trkpt lat="46.6420896" lon="12.1957305"/><trkpt lat="46.6420387" lon="12.1955198"/><trkpt lat="46.6419865" lon="12.1955243"/><trkpt lat="46.6419691" lon="12.1955026"/><trkpt lat="46.6419655" lon="12.1954669"/><trkpt lat="46.6419902" lon="12.195423"/><trkpt lat="46.6420486" lon="12.1953495"/><trkpt lat="46.6422858" lon="12.195136"/><trkpt lat="46.6424006" lon="12.1950756"/><trkpt lat="46.6425114" lon="12.195071"/><trkpt lat="46.6426011" lon="12.1951001"/><trkpt lat="46.6427134" lon="12.195103"/><trkpt lat="46.6428045" lon="12.1950442"/><trkpt lat="46.6428616" lon="12.1949494"/><trkpt lat="46.6428952" lon="12.1947975"/><trkpt lat="46.6429556" lon="12.1946543"/><trkpt lat="46.6430877" lon="12.1944778"/><trkpt lat="46.6433063" lon="12.1943026"/><trkpt lat="46.6435427" lon="12.1940976"/><trkpt lat="46.6437302" lon="12.1939644"/><trkpt lat="46.6438664" lon="12.19387"/><trkpt lat="46.6440013" lon="12.1938163"/><trkpt lat="46.6441001" lon="12.1937667"/><trkpt lat="46.6441828" lon="12.1937353"/><trkpt lat="46.6442928" lon="12.1936376"/><trkpt lat="46.6443199" lon="12.1935776"/><trkpt lat="46.6443453" lon="12.1934695"/><trkpt lat="46.6443503" lon="12.1933691"/><trkpt lat="46.6443699" lon="12.1931474"/><trkpt lat="46.6443873" lon="12.1930737"/><trkpt lat="46.6444213" lon="12.1930094"/><trkpt lat="46.6445429" lon="12.1928123"/><trkpt lat="46.6447175" lon="12.1925025"/><trkpt lat="46.6447924" lon="12.1922078"/><trkpt lat="46.644935" lon="12.1918804"/><trkpt lat="46.6450322" lon="12.1917458"/><trkpt lat="46.6453257" lon="12.1914729"/><trkpt lat="46.6456585" lon="12.1911163"/><trkpt lat="46.6458249" lon="12.1908902"/><trkpt lat="46.6463942" lon="12.1901638"/><trkpt lat="46.6464836" lon="12.1900074"/><trkpt lat="46.6466876" lon="12.1897241"/><trkpt lat="46.6468551" lon="12.1895272"/><trkpt lat="46.6469563" lon="12.1893948"/><trkpt lat="46.6473226" lon="12.1888811"/><trkpt lat="46.6477295" lon="12.1883646"/><trkpt lat="46.6478779" lon="12.188097"/><trkpt lat="46.648228" lon="12.1874653"/><trkpt lat="46.6483177" lon="12.1872918"/><trkpt lat="46.6486959" lon="12.1866257"/><trkpt lat="46.6490798" lon="12.1860262"/><trkpt lat="46.649483" lon="12.1854243"/><trkpt lat="46.6499982" lon="12.1848154"/><trkpt lat="46.6502081" lon="12.1845894"/><trkpt lat="46.6503002" lon="12.1845072"/><trkpt lat="46.650423" lon="12.1844212"/><trkpt lat="46.6505608" lon="12.1843301"/><trkpt lat="46.6506842" lon="12.1842409"/><trkpt lat="46.6507411" lon="12.1841785"/><trkpt lat="46.6508361" lon="12.1840469"/><trkpt lat="46.6509209" lon="12.1839359"/><trkpt lat="46.6510724" lon="12.1837854"/><trkpt lat="46.6518724" lon="12.1830015"/><trkpt lat="46.6521724" lon="12.1826703"/><trkpt lat="46.6522513" lon="12.1826223"/><trkpt lat="46.652306" lon="12.1826065"/><trkpt lat="46.6523692" lon="12.182604"/><trkpt lat="46.6524529" lon="12.182618"/><trkpt lat="46.6525427" lon="12.182631"/><trkpt lat="46.652596" lon="12.1826321"/><trkpt lat="46.6526346" lon="12.1826182"/><trkpt lat="46.6526593" lon="12.1825875"/><trkpt lat="46.6526639" lon="12.1825772"/><trkpt lat="46.6527657" lon="12.1823389"/><trkpt lat="46.6528172" lon="12.1822599"/><trkpt lat="46.6528776" lon="12.182207"/><trkpt lat="46.6529701" lon="12.1821367"/><trkpt lat="46.6530256" lon="12.1820678"/><trkpt lat="46.6530409" lon="12.1819619"/><trkpt lat="46.6530399" lon="12.1818827"/><trkpt lat="46.6530207" lon="12.1817996"/><trkpt lat="46.6529977" lon="12.1817245"/><trkpt lat="46.652966" lon="12.1816412"/><trkpt lat="46.6529049" lon="12.181567"/><trkpt lat="46.6527357" lon="12.1814052"/><trkpt lat="46.6526831" lon="12.1813446"/><trkpt lat="46.6526374" lon="12.1812619"/><trkpt lat="46.652589" lon="12.1810647"/><trkpt lat="46.6525725" lon="12.1809252"/><trkpt lat="46.6525636" lon="12.1808157"/><trkpt lat="46.6525636" lon="12.1806756"/><trkpt lat="46.6525837" lon="12.1804802"/><trkpt lat="46.6526329" lon="12.1802588"/><trkpt lat="46.6527326" lon="12.1799527"/><trkpt lat="46.6528273" lon="12.179795"/><trkpt lat="46.6529321" lon="12.179671"/><trkpt lat="46.6530271" lon="12.1795777"/><trkpt lat="46.6531428" lon="12.1794887"/><trkpt lat="46.6535337" lon="12.1792375"/><trkpt lat="46.6537574" lon="12.1790738"/><trkpt lat="46.6540429" lon="12.1788598"/><trkpt lat="46.6542083" lon="12.1787593"/><trkpt lat="46.6544152" lon="12.1785584"/><trkpt lat="46.6547906" lon="12.1780671"/><trkpt lat="46.6554229" lon="12.1776468"/><trkpt lat="46.6556964" lon="12.1774379"/><trkpt lat="46.65581" lon="12.1773401"/><trkpt lat="46.6561361" lon="12.1770381"/><trkpt lat="46.6561595" lon="12.1769891"/><trkpt lat="46.6562143" lon="12.1768661"/><trkpt lat="46.6563489" lon="12.1764481"/><trkpt lat="46.6563894" lon="12.1762637"/><trkpt lat="46.6563977" lon="12.1760989"/><trkpt lat="46.6564107" lon="12.1759699"/><trkpt lat="46.656421" lon="12.1758819"/><trkpt lat="46.6564471" lon="12.1758875"/><trkpt lat="46.6564746" lon="12.1758697"/><trkpt lat="46.6564927" lon="12.1758395"/><trkpt lat="46.6565416" lon="12.1757318"/><trkpt lat="46.6566506" lon="12.1753978"/><trkpt lat="46.6568322" lon="12.1747557"/></trkseg></trk><trk><name>Круг вокруг Lago di Braies</name><desc>Планировочная реконструкция по OpenStreetMap, 09.09.2026. Не запись GPS и не проверенный навигационный трек. Высоты не экспортированы. Данные © OpenStreetMap contributors, ODbL. Автопереезды и канатки в пеший трек не включены.</desc><type>hiking</type><trkseg><trkpt lat="46.6993217" lon="12.0851564"/><trkpt lat="46.6991169" lon="12.0852436"/><trkpt lat="46.6990155" lon="12.0852758"/><trkpt lat="46.6989788" lon="12.085361"/><trkpt lat="46.6989757" lon="12.0853717"/><trkpt lat="46.6989653" lon="12.08544"/><trkpt lat="46.6989604" lon="12.0854653"/><trkpt lat="46.6988703" lon="12.0854653"/><trkpt lat="46.6987982" lon="12.0854767"/><trkpt lat="46.6986881" lon="12.085512"/><trkpt lat="46.69857" lon="12.0856643"/><trkpt lat="46.6985495" lon="12.085731"/><trkpt lat="46.6985312" lon="12.0858055"/><trkpt lat="46.6985132" lon="12.0859262"/><trkpt lat="46.6985104" lon="12.0860659"/><trkpt lat="46.6985207" lon="12.0862247"/><trkpt lat="46.6985438" lon="12.086326"/><trkpt lat="46.6986179" lon="12.086559"/><trkpt lat="46.6987628" lon="12.0867511"/><trkpt lat="46.6988681" lon="12.0868136"/><trkpt lat="46.6989609" lon="12.0868316"/><trkpt lat="46.6990943" lon="12.0868357"/><trkpt lat="46.6992145" lon="12.0868117"/><trkpt lat="46.6993413" lon="12.0868453"/><trkpt lat="46.6994401" lon="12.0868934"/><trkpt lat="46.6995207" lon="12.0869654"/><trkpt lat="46.6996492" lon="12.0871646"/><trkpt lat="46.699729" lon="12.0873156"/><trkpt lat="46.6998524" lon="12.0874263"/><trkpt lat="46.6999391" lon="12.0875469"/><trkpt lat="46.700018" lon="12.0876976"/><trkpt lat="46.7001497" lon="12.08794"/><trkpt lat="46.7002421" lon="12.0880784"/><trkpt lat="46.7001518" lon="12.088213"/><trkpt lat="46.7000608" lon="12.0881057"/><trkpt lat="46.7000114" lon="12.0880769"/><trkpt lat="46.6999076" lon="12.087964"/><trkpt lat="46.6997068" lon="12.0877936"/><trkpt lat="46.6995784" lon="12.0877192"/><trkpt lat="46.6993775" lon="12.087712"/><trkpt lat="46.69904" lon="12.0876856"/><trkpt lat="46.6988281" lon="12.0875553"/><trkpt lat="46.6985318" lon="12.0875118"/><trkpt lat="46.6984249" lon="12.0875338"/><trkpt lat="46.6983765" lon="12.0875567"/><trkpt lat="46.6982512" lon="12.0877044"/><trkpt lat="46.6981818" lon="12.0877349"/><trkpt lat="46.6980625" lon="12.0877662"/><trkpt lat="46.6979615" lon="12.0878476"/><trkpt lat="46.6979067" lon="12.0879906"/><trkpt lat="46.6978667" lon="12.0881614"/><trkpt lat="46.6977799" lon="12.0883079"/><trkpt lat="46.6975608" lon="12.0884299"/><trkpt lat="46.6974439" lon="12.0884726"/><trkpt lat="46.6973653" lon="12.0884497"/><trkpt lat="46.6973078" lon="12.0883883"/><trkpt lat="46.6971312" lon="12.0883224"/><trkpt lat="46.6970191" lon="12.0881707"/><trkpt lat="46.6968328" lon="12.0878116"/><trkpt lat="46.6967197" lon="12.0877208"/><trkpt lat="46.6965845" lon="12.0876612"/><trkpt lat="46.6964156" lon="12.0877055"/><trkpt lat="46.6962117" lon="12.087875"/><trkpt lat="46.6959703" lon="12.0880768"/><trkpt lat="46.6958439" lon="12.0881272"/><trkpt lat="46.6957329" lon="12.0881347"/><trkpt lat="46.6955244" lon="12.0880278"/><trkpt lat="46.6954342" lon="12.0880115"/><trkpt lat="46.6952091" lon="12.0880849"/><trkpt lat="46.6951114" lon="12.0881903"/><trkpt lat="46.6948644" lon="12.0882857"/><trkpt lat="46.6947686" lon="12.0883266"/><trkpt lat="46.6947189" lon="12.0883168"/><trkpt lat="46.694665" lon="12.0883733"/><trkpt lat="46.6945516" lon="12.0884059"/><trkpt lat="46.6945005" lon="12.0884429"/><trkpt lat="46.6942768" lon="12.0885387"/><trkpt lat="46.6941282" lon="12.0885281"/><trkpt lat="46.6940907" lon="12.088586"/><trkpt lat="46.6939446" lon="12.0885584"/><trkpt lat="46.6938938" lon="12.0884958"/><trkpt lat="46.6938388" lon="12.0884419"/><trkpt lat="46.6938706" lon="12.0884268"/><trkpt lat="46.6940142" lon="12.0884331"/><trkpt lat="46.6941559" lon="12.0884068"/><trkpt lat="46.6942575" lon="12.0883754"/><trkpt lat="46.6943059" lon="12.0883467"/><trkpt lat="46.6941397" lon="12.0882401"/><trkpt lat="46.6940429" lon="12.0881333"/><trkpt lat="46.6939" lon="12.0879715"/><trkpt lat="46.6938312" lon="12.0879015"/><trkpt lat="46.6936796" lon="12.0878317"/><trkpt lat="46.6936182" lon="12.0876692"/><trkpt lat="46.6936059" lon="12.0876092"/><trkpt lat="46.6935915" lon="12.0875533"/><trkpt lat="46.6934526" lon="12.0874081"/><trkpt lat="46.6932917" lon="12.0871283"/><trkpt lat="46.6931014" lon="12.0869529"/><trkpt lat="46.6929764" lon="12.0869139"/><trkpt lat="46.6927201" lon="12.0868521"/><trkpt lat="46.6925899" lon="12.0868365"/><trkpt lat="46.6924723" lon="12.0867958"/><trkpt lat="46.6922389" lon="12.0867374"/><trkpt lat="46.6920421" lon="12.086786"/><trkpt lat="46.6916754" lon="12.087033"/><trkpt lat="46.6915354" lon="12.0870675"/><trkpt lat="46.6914787" lon="12.0870567"/><trkpt lat="46.6913063" lon="12.0869995"/><trkpt lat="46.6910763" lon="12.0869171"/><trkpt lat="46.6909139" lon="12.086608"/><trkpt lat="46.6908556" lon="12.0864905"/><trkpt lat="46.6907889" lon="12.0864575"/><trkpt lat="46.6906632" lon="12.0863577"/><trkpt lat="46.6904635" lon="12.0863112"/><trkpt lat="46.6903406" lon="12.0862968"/><trkpt lat="46.6901786" lon="12.0862329"/><trkpt lat="46.6900742" lon="12.0861713"/><trkpt lat="46.6899158" lon="12.0861583"/><trkpt lat="46.6897104" lon="12.0862011"/><trkpt lat="46.6896079" lon="12.0861781"/><trkpt lat="46.6895073" lon="12.0861153"/><trkpt lat="46.6893608" lon="12.0860843"/><trkpt lat="46.6892676" lon="12.0860371"/><trkpt lat="46.6891956" lon="12.0858457"/><trkpt lat="46.6891709" lon="12.0856437"/><trkpt lat="46.6891658" lon="12.0854589"/><trkpt lat="46.6891356" lon="12.0852149"/><trkpt lat="46.6891185" lon="12.0850113"/><trkpt lat="46.6891364" lon="12.0842539"/><trkpt lat="46.6891312" lon="12.0841498"/><trkpt lat="46.689099" lon="12.0840036"/><trkpt lat="46.6890858" lon="12.0838898"/><trkpt lat="46.689095" lon="12.0837769"/><trkpt lat="46.6891507" lon="12.0835768"/><trkpt lat="46.6891544" lon="12.0831695"/><trkpt lat="46.6891317" lon="12.0829159"/><trkpt lat="46.6891118" lon="12.0827241"/><trkpt lat="46.6891282" lon="12.08256"/><trkpt lat="46.6891333" lon="12.0824751"/><trkpt lat="46.6891172" lon="12.0821831"/><trkpt lat="46.6891413" lon="12.0817406"/><trkpt lat="46.689181" lon="12.081598"/><trkpt lat="46.6892779" lon="12.0814348"/><trkpt lat="46.6893477" lon="12.0813583"/><trkpt lat="46.6894621" lon="12.0813014"/><trkpt lat="46.6895801" lon="12.0812699"/><trkpt lat="46.689697" lon="12.0812462"/><trkpt lat="46.6900077" lon="12.0812224"/><trkpt lat="46.6901202" lon="12.0811507"/><trkpt lat="46.6902224" lon="12.0811083"/><trkpt lat="46.6904026" lon="12.0810725"/><trkpt lat="46.6904673" lon="12.0810366"/><trkpt lat="46.6906982" lon="12.0809834"/><trkpt lat="46.6907924" lon="12.080951"/><trkpt lat="46.6908727" lon="12.0808744"/><trkpt lat="46.6909222" lon="12.0808181"/><trkpt lat="46.6910004" lon="12.0806417"/><trkpt lat="46.691087" lon="12.0805095"/><trkpt lat="46.6911363" lon="12.0804811"/><trkpt lat="46.691304" lon="12.0804528"/><trkpt lat="46.6914036" lon="12.0804604"/><trkpt lat="46.6914161" lon="12.0804905"/><trkpt lat="46.6914454" lon="12.0805687"/><trkpt lat="46.6914652" lon="12.0807016"/><trkpt lat="46.6915133" lon="12.0808518"/><trkpt lat="46.6915823" lon="12.0809846"/><trkpt lat="46.6917641" lon="12.0811956"/><trkpt lat="46.691962" lon="12.0813832"/><trkpt lat="46.6920898" lon="12.0815157"/><trkpt lat="46.6921848" lon="12.0816084"/><trkpt lat="46.6923136" lon="12.0817446"/><trkpt lat="46.6924616" lon="12.0818551"/><trkpt lat="46.6926289" lon="12.081942"/><trkpt lat="46.6927915" lon="12.0819978"/><trkpt lat="46.6929267" lon="12.0820436"/><trkpt lat="46.693019" lon="12.0820969"/><trkpt lat="46.6931441" lon="12.0821644"/><trkpt lat="46.6932039" lon="12.0822603"/><trkpt lat="46.6932654" lon="12.0823712"/><trkpt lat="46.6933841" lon="12.0824484"/><trkpt lat="46.6935466" lon="12.0825753"/><trkpt lat="46.6936224" lon="12.0827298"/><trkpt lat="46.6937437" lon="12.0828195"/><trkpt lat="46.6939184" lon="12.0830166"/><trkpt lat="46.6940881" lon="12.0831012"/><trkpt lat="46.69425" lon="12.0832173"/><trkpt lat="46.6943478" lon="12.0832937"/><trkpt lat="46.694426" lon="12.0833544"/><trkpt lat="46.6944938" lon="12.0834016"/><trkpt lat="46.6945576" lon="12.0834166"/><trkpt lat="46.6946216" lon="12.0834339"/><trkpt lat="46.6947415" lon="12.0834771"/><trkpt lat="46.6948448" lon="12.0834945"/><trkpt lat="46.6949405" lon="12.0834372"/><trkpt lat="46.6951165" lon="12.0833479"/><trkpt lat="46.6952158" lon="12.0833133"/><trkpt lat="46.6953224" lon="12.0832962"/><trkpt lat="46.6954127" lon="12.0832942"/><trkpt lat="46.6954922" lon="12.0833259"/><trkpt lat="46.6956339" lon="12.0832906"/><trkpt lat="46.6957673" lon="12.0832664"/><trkpt lat="46.695858" lon="12.0832782"/><trkpt lat="46.6959323" lon="12.0832754"/><trkpt lat="46.6960449" lon="12.0832454"/><trkpt lat="46.6960936" lon="12.0832379"/><trkpt lat="46.6961869" lon="12.0832107"/><trkpt lat="46.6962863" lon="12.0832048"/><trkpt lat="46.6963463" lon="12.0832125"/><trkpt lat="46.6964192" lon="12.0832269"/><trkpt lat="46.6965055" lon="12.0832595"/><trkpt lat="46.6965798" lon="12.083247"/><trkpt lat="46.6966673" lon="12.0832685"/><trkpt lat="46.6967387" lon="12.0832691"/><trkpt lat="46.6967889" lon="12.083251"/><trkpt lat="46.696827" lon="12.0832266"/><trkpt lat="46.6969098" lon="12.0832041"/><trkpt lat="46.6969659" lon="12.0832115"/><trkpt lat="46.6970954" lon="12.0832641"/><trkpt lat="46.6972777" lon="12.0834177"/><trkpt lat="46.697489" lon="12.0835493"/><trkpt lat="46.6977375" lon="12.0837433"/><trkpt lat="46.697883" lon="12.0838527"/><trkpt lat="46.6980175" lon="12.0839737"/><trkpt lat="46.6981451" lon="12.0840916"/><trkpt lat="46.6981805" lon="12.0841389"/><trkpt lat="46.6982357" lon="12.0841761"/><trkpt lat="46.6983167" lon="12.0842039"/><trkpt lat="46.6984036" lon="12.0842162"/><trkpt lat="46.6985535" lon="12.0842206"/><trkpt lat="46.6985747" lon="12.0842194"/><trkpt lat="46.6986528" lon="12.0841797"/><trkpt lat="46.6987119" lon="12.0841242"/><trkpt lat="46.6987793" lon="12.0841536"/><trkpt lat="46.6988127" lon="12.0841923"/><trkpt lat="46.6988468" lon="12.0842626"/><trkpt lat="46.6990928" lon="12.0847615"/><trkpt lat="46.6992262" lon="12.0850121"/><trkpt lat="46.6993217" lon="12.0851564"/></trkseg></trk></gpx>