<?xml version="1.0" encoding="UTF-8"?><kml xmlns="http://www.opengis.net/kml/2.2"><Document><name>Prato Piazza + Braies</name><description>Планировочная реконструкция по OpenStreetMap, 09.09.2026. Не запись GPS и не проверенный навигационный трек. Высоты не экспортированы. Данные © OpenStreetMap contributors, ODbL. Автопереезды и канатки в пеший трек не включены.</description><Style id="track"><LineStyle><color>ff9e6c16</color><width>4</width></LineStyle></Style><Placemark><name>Парковка Prato Piazza</name><Point><coordinates>12.1749861,46.6567725</coordinates></Point></Placemark><Placemark><name>Rifugio Vallandro</name><Point><coordinates>12.1958672,46.6419402</coordinates></Point></Placemark><Placemark><name>Strudelkopf / Monte Specie</name><Point><coordinates>12.2126758,46.6444985</coordinates></Point></Placemark><Placemark><name>Lago di Braies — северный берег</name><Point><coordinates>12.0850159,46.6993473</coordinates></Point></Placemark><Placemark><name>Prato Piazza — Strudelkopf — обратно</name><description>Планировочная реконструкция по OpenStreetMap, 09.09.2026. Не запись GPS и не проверенный навигационный трек. Высоты не экспортированы. Данные © OpenStreetMap contributors, ODbL. Автопереезды и канатки в пеший трек не включены.</description><styleUrl>#track</styleUrl><LineString><tessellate>1</tessellate><altitudeMode>clampToGround</altitudeMode><coordinates>12.1747557,46.6568322,0 12.1753978,46.6566506,0 12.1757318,46.6565416,0 12.1758395,46.6564927,0 12.1758697,46.6564746,0 12.1758875,46.6564471,0 12.1758819,46.656421,0 12.1759699,46.6564107,0 12.1760989,46.6563977,0 12.1762637,46.6563894,0 12.1764481,46.6563489,0 12.1768661,46.6562143,0 12.1769891,46.6561595,0 12.1770381,46.6561361,0 12.1773401,46.65581,0 12.1774379,46.6556964,0 12.1776468,46.6554229,0 12.1780671,46.6547906,0 12.1785584,46.6544152,0 12.1787593,46.6542083,0 12.1788598,46.6540429,0 12.1790738,46.6537574,0 12.1792375,46.6535337,0 12.1794887,46.6531428,0 12.1795777,46.6530271,0 12.179671,46.6529321,0 12.179795,46.6528273,0 12.1799527,46.6527326,0 12.1802588,46.6526329,0 12.1804802,46.6525837,0 12.1806756,46.6525636,0 12.1808157,46.6525636,0 12.1809252,46.6525725,0 12.1810647,46.652589,0 12.1812619,46.6526374,0 12.1813446,46.6526831,0 12.1814052,46.6527357,0 12.181567,46.6529049,0 12.1816412,46.652966,0 12.1817245,46.6529977,0 12.1817996,46.6530207,0 12.1818827,46.6530399,0 12.1819619,46.6530409,0 12.1820678,46.6530256,0 12.1821367,46.6529701,0 12.182207,46.6528776,0 12.1822599,46.6528172,0 12.1823389,46.6527657,0 12.1825772,46.6526639,0 12.1825875,46.6526593,0 12.1826182,46.6526346,0 12.1826321,46.652596,0 12.182631,46.6525427,0 12.182618,46.6524529,0 12.182604,46.6523692,0 12.1826065,46.652306,0 12.1826223,46.6522513,0 12.1826703,46.6521724,0 12.1830015,46.6518724,0 12.1837854,46.6510724,0 12.1839359,46.6509209,0 12.1840469,46.6508361,0 12.1841785,46.6507411,0 12.1842409,46.6506842,0 12.1843301,46.6505608,0 12.1844212,46.650423,0 12.1845072,46.6503002,0 12.1845894,46.6502081,0 12.1848154,46.6499982,0 12.1854243,46.649483,0 12.1860262,46.6490798,0 12.1866257,46.6486959,0 12.1872918,46.6483177,0 12.1874653,46.648228,0 12.188097,46.6478779,0 12.1883646,46.6477295,0 12.1888811,46.6473226,0 12.1893948,46.6469563,0 12.1895272,46.6468551,0 12.1897241,46.6466876,0 12.1900074,46.6464836,0 12.1901638,46.6463942,0 12.1908902,46.6458249,0 12.1911163,46.6456585,0 12.1914729,46.6453257,0 12.1917458,46.6450322,0 12.1918804,46.644935,0 12.1922078,46.6447924,0 12.1925025,46.6447175,0 12.1928123,46.6445429,0 12.1930094,46.6444213,0 12.1930737,46.6443873,0 12.1931474,46.6443699,0 12.1933691,46.6443503,0 12.1934695,46.6443453,0 12.1935776,46.6443199,0 12.1936376,46.6442928,0 12.1937353,46.6441828,0 12.1937667,46.6441001,0 12.1938163,46.6440013,0 12.19387,46.6438664,0 12.1939644,46.6437302,0 12.1940976,46.6435427,0 12.1943026,46.6433063,0 12.1944778,46.6430877,0 12.1946543,46.6429556,0 12.1947975,46.6428952,0 12.1949494,46.6428616,0 12.1950442,46.6428045,0 12.195103,46.6427134,0 12.1951001,46.6426011,0 12.195071,46.6425114,0 12.1950756,46.6424006,0 12.195136,46.6422858,0 12.1953495,46.6420486,0 12.195423,46.6419902,0 12.1954669,46.6419655,0 12.1955026,46.6419691,0 12.1955243,46.6419865,0 12.1955198,46.6420387,0 12.1957305,46.6420896,0 12.1959172,46.6420779,0 12.1957305,46.6420896,0 12.1958414,46.642189,0 12.1958518,46.642195,0 12.1958958,46.6421904,0 12.195888,46.6422803,0 12.1959776,46.6423412,0 12.1960158,46.6423909,0 12.1960228,46.6424297,0 12.1960634,46.6424409,0 12.196117,46.6424289,0 12.1961495,46.6423909,0 12.1961828,46.6423083,0 12.1962109,46.6422411,0 12.196225,46.6421907,0 12.1963936,46.6420424,0 12.1965278,46.6420265,0 12.1966786,46.6420353,0 12.1968302,46.641955,0 12.1969173,46.6419504,0 12.1972781,46.6420166,0 12.1973716,46.6420058,0 12.1975413,46.6419478,0 12.1975882,46.6418921,0 12.1977257,46.6418557,0 12.1978082,46.6418571,0 12.1979208,46.6417982,0 12.1979637,46.641748,0 12.1980458,46.6417323,0 12.1981893,46.641757,0 12.1986142,46.6417356,0 12.1989823,46.6416982,0 12.1992577,46.6415193,0 12.1994394,46.6415297,0 12.1999848,46.6413707,0 12.2001524,46.6413828,0 12.2003155,46.6413668,0 12.2005874,46.6411939,0 12.2009421,46.641117,0 12.2012061,46.6409104,0 12.2015387,46.6408889,0 12.2019486,46.640805,0 12.2018738,46.6408904,0 12.2020394,46.6408717,0 12.2019993,46.6409401,0 12.2020447,46.6409548,0 12.202211,46.6409106,0 12.2023198,46.6409168,0 12.202592,46.6408217,0 12.2028337,46.6408514,0 12.2030122,46.640904,0 12.2031831,46.6409065,0 12.2033719,46.6409903,0 12.2034715,46.6410875,0 12.203595,46.6412227,0 12.2036822,46.6413664,0 12.2038777,46.6415163,0 12.2043878,46.6418091,0 12.2044716,46.6419418,0 12.204683,46.642246,0 12.204654,46.642356,0 12.2048407,46.6425234,0 12.2049013,46.6427042,0 12.2049476,46.6428472,0 12.2049662,46.6428909,0 12.2051509,46.6433244,0 12.2051962,46.6435077,0 12.205376,46.643512,0 12.2055292,46.6435587,0 12.20588,46.64364,0 12.2060306,46.6436908,0 12.2061649,46.643717,0 12.2062614,46.6437265,0 12.2064706,46.6437234,0 12.2066847,46.6437181,0 12.2069742,46.6437321,0 12.2071628,46.6437492,0 12.2073442,46.643781,0 12.2075357,46.6438007,0 12.2075676,46.6437971,0 12.2075976,46.6437816,0 12.2076009,46.6437731,0 12.2076633,46.6437738,0 12.2077733,46.6437553,0 12.2078447,46.6437438,0 12.207885,46.6437253,0 12.2079278,46.6437271,0 12.2080319,46.6436717,0 12.2080773,46.643659,0 12.2081209,46.6436619,0 12.2081822,46.643685,0 12.2082259,46.6436827,0 12.2082897,46.6436637,0 12.2083309,46.6436285,0 12.2083737,46.643621,0 12.2084325,46.6435795,0 12.2085551,46.6435178,0 12.2086365,46.6434999,0 12.2086709,46.6434705,0 12.2086919,46.6434198,0 12.2088305,46.643372,0 12.2090076,46.6433109,0 12.2090802,46.6432859,0 12.209192,46.6433975,0 12.2092497,46.6434257,0 12.2093324,46.6434593,0 12.2094544,46.643479,0 12.2095482,46.6434899,0 12.2096499,46.6435187,0 12.2097248,46.6435243,0 12.2097714,46.6435251,0 12.209818,46.6435183,0 12.2098618,46.6435193,0 12.2099615,46.6435639,0 12.2100255,46.6436124,0 12.2100682,46.6436473,0 12.2101404,46.6436735,0 12.2102155,46.6436821,0 12.2103319,46.643661,0 12.2103816,46.6436339,0 12.2104285,46.643599,0 12.2104927,46.6435842,0 12.210614,46.643569,0 12.2108698,46.6434867,0 12.2110906,46.6433985,0 12.2111664,46.6433821,0 12.2112667,46.6433701,0 12.2113538,46.6433683,0 12.2114357,46.6433877,0 12.2115,46.6434095,0 12.2115577,46.6434256,0 12.2115994,46.6434234,0 12.2116456,46.6434061,0 12.2116837,46.6433815,0 12.2117209,46.6433658,0 12.2117873,46.6433577,0 12.2118538,46.6433598,0 12.2119569,46.6433731,0 12.2120329,46.6434013,0 12.2120846,46.6434391,0 12.2121671,46.643513,0 12.2121975,46.643556,0 12.2122647,46.6437076,0 12.2122614,46.6437721,0 12.2122385,46.6438832,0 12.212234,46.6439485,0 12.2122567,46.6440175,0 12.2122957,46.6441173,0 12.2124329,46.6443007,0 12.2125149,46.6444694,0 12.2125301,46.6445779,0 12.212563,46.6446191,0 12.2126556,46.6445868,0 12.2126758,46.6444985,0 12.2126556,46.6445868,0 12.212563,46.6446191,0 12.2125301,46.6445779,0 12.2125149,46.6444694,0 12.2124329,46.6443007,0 12.2122957,46.6441173,0 12.2122567,46.6440175,0 12.212234,46.6439485,0 12.2122385,46.6438832,0 12.2122614,46.6437721,0 12.2122647,46.6437076,0 12.2121975,46.643556,0 12.2121671,46.643513,0 12.2120846,46.6434391,0 12.2120329,46.6434013,0 12.2119569,46.6433731,0 12.2118538,46.6433598,0 12.2117873,46.6433577,0 12.2117209,46.6433658,0 12.2116837,46.6433815,0 12.2116456,46.6434061,0 12.2115994,46.6434234,0 12.2115577,46.6434256,0 12.2115,46.6434095,0 12.2114357,46.6433877,0 12.2113538,46.6433683,0 12.2112667,46.6433701,0 12.2111664,46.6433821,0 12.2110906,46.6433985,0 12.2108698,46.6434867,0 12.210614,46.643569,0 12.2104927,46.6435842,0 12.2104285,46.643599,0 12.2103816,46.6436339,0 12.2103319,46.643661,0 12.2102155,46.6436821,0 12.2101404,46.6436735,0 12.2100682,46.6436473,0 12.2100255,46.6436124,0 12.2099615,46.6435639,0 12.2098618,46.6435193,0 12.209818,46.6435183,0 12.2097714,46.6435251,0 12.2097248,46.6435243,0 12.2096499,46.6435187,0 12.2095482,46.6434899,0 12.2094544,46.643479,0 12.2093324,46.6434593,0 12.2092497,46.6434257,0 12.209192,46.6433975,0 12.2090802,46.6432859,0 12.2090076,46.6433109,0 12.2088305,46.643372,0 12.2086919,46.6434198,0 12.2086709,46.6434705,0 12.2086365,46.6434999,0 12.2085551,46.6435178,0 12.2084325,46.6435795,0 12.2083737,46.643621,0 12.2083309,46.6436285,0 12.2082897,46.6436637,0 12.2082259,46.6436827,0 12.2081822,46.643685,0 12.2081209,46.6436619,0 12.2080773,46.643659,0 12.2080319,46.6436717,0 12.2079278,46.6437271,0 12.207885,46.6437253,0 12.2078447,46.6437438,0 12.2077733,46.6437553,0 12.2076633,46.6437738,0 12.2076009,46.6437731,0 12.2075976,46.6437816,0 12.2075676,46.6437971,0 12.2075357,46.6438007,0 12.2073442,46.643781,0 12.2071628,46.6437492,0 12.2069742,46.6437321,0 12.2066847,46.6437181,0 12.2064706,46.6437234,0 12.2062614,46.6437265,0 12.2061649,46.643717,0 12.2060306,46.6436908,0 12.20588,46.64364,0 12.2055292,46.6435587,0 12.205376,46.643512,0 12.2051962,46.6435077,0 12.2051509,46.6433244,0 12.2049662,46.6428909,0 12.2049476,46.6428472,0 12.2049013,46.6427042,0 12.2048407,46.6425234,0 12.204654,46.642356,0 12.204683,46.642246,0 12.2044716,46.6419418,0 12.2043878,46.6418091,0 12.2038777,46.6415163,0 12.2036822,46.6413664,0 12.203595,46.6412227,0 12.2034715,46.6410875,0 12.2033719,46.6409903,0 12.2031831,46.6409065,0 12.2030122,46.640904,0 12.2028337,46.6408514,0 12.202592,46.6408217,0 12.2023198,46.6409168,0 12.202211,46.6409106,0 12.2020447,46.6409548,0 12.2019993,46.6409401,0 12.2020394,46.6408717,0 12.2018738,46.6408904,0 12.2019486,46.640805,0 12.2015387,46.6408889,0 12.2012061,46.6409104,0 12.2009421,46.641117,0 12.2005874,46.6411939,0 12.2003155,46.6413668,0 12.2001524,46.6413828,0 12.1999848,46.6413707,0 12.1994394,46.6415297,0 12.1992577,46.6415193,0 12.1989823,46.6416982,0 12.1986142,46.6417356,0 12.1981893,46.641757,0 12.1980458,46.6417323,0 12.1979637,46.641748,0 12.1979208,46.6417982,0 12.1978082,46.6418571,0 12.1977257,46.6418557,0 12.1975882,46.6418921,0 12.1975413,46.6419478,0 12.1973716,46.6420058,0 12.1972781,46.6420166,0 12.1969173,46.6419504,0 12.1968302,46.641955,0 12.1966786,46.6420353,0 12.1965278,46.6420265,0 12.1963936,46.6420424,0 12.196225,46.6421907,0 12.1962109,46.6422411,0 12.1961828,46.6423083,0 12.1961495,46.6423909,0 12.196117,46.6424289,0 12.1960634,46.6424409,0 12.1960228,46.6424297,0 12.1960158,46.6423909,0 12.1959776,46.6423412,0 12.195888,46.6422803,0 12.1958958,46.6421904,0 12.1958518,46.642195,0 12.1958414,46.642189,0 12.1957305,46.6420896,0 12.1959172,46.6420779,0 12.1957305,46.6420896,0 12.1955198,46.6420387,0 12.1955243,46.6419865,0 12.1955026,46.6419691,0 12.1954669,46.6419655,0 12.195423,46.6419902,0 12.1953495,46.6420486,0 12.195136,46.6422858,0 12.1950756,46.6424006,0 12.195071,46.6425114,0 12.1951001,46.6426011,0 12.195103,46.6427134,0 12.1950442,46.6428045,0 12.1949494,46.6428616,0 12.1947975,46.6428952,0 12.1946543,46.6429556,0 12.1944778,46.6430877,0 12.1943026,46.6433063,0 12.1940976,46.6435427,0 12.1939644,46.6437302,0 12.19387,46.6438664,0 12.1938163,46.6440013,0 12.1937667,46.6441001,0 12.1937353,46.6441828,0 12.1936376,46.6442928,0 12.1935776,46.6443199,0 12.1934695,46.6443453,0 12.1933691,46.6443503,0 12.1931474,46.6443699,0 12.1930737,46.6443873,0 12.1930094,46.6444213,0 12.1928123,46.6445429,0 12.1925025,46.6447175,0 12.1922078,46.6447924,0 12.1918804,46.644935,0 12.1917458,46.6450322,0 12.1914729,46.6453257,0 12.1911163,46.6456585,0 12.1908902,46.6458249,0 12.1901638,46.6463942,0 12.1900074,46.6464836,0 12.1897241,46.6466876,0 12.1895272,46.6468551,0 12.1893948,46.6469563,0 12.1888811,46.6473226,0 12.1883646,46.6477295,0 12.188097,46.6478779,0 12.1874653,46.648228,0 12.1872918,46.6483177,0 12.1866257,46.6486959,0 12.1860262,46.6490798,0 12.1854243,46.649483,0 12.1848154,46.6499982,0 12.1845894,46.6502081,0 12.1845072,46.6503002,0 12.1844212,46.650423,0 12.1843301,46.6505608,0 12.1842409,46.6506842,0 12.1841785,46.6507411,0 12.1840469,46.6508361,0 12.1839359,46.6509209,0 12.1837854,46.6510724,0 12.1830015,46.6518724,0 12.1826703,46.6521724,0 12.1826223,46.6522513,0 12.1826065,46.652306,0 12.182604,46.6523692,0 12.182618,46.6524529,0 12.182631,46.6525427,0 12.1826321,46.652596,0 12.1826182,46.6526346,0 12.1825875,46.6526593,0 12.1825772,46.6526639,0 12.1823389,46.6527657,0 12.1822599,46.6528172,0 12.182207,46.6528776,0 12.1821367,46.6529701,0 12.1820678,46.6530256,0 12.1819619,46.6530409,0 12.1818827,46.6530399,0 12.1817996,46.6530207,0 12.1817245,46.6529977,0 12.1816412,46.652966,0 12.181567,46.6529049,0 12.1814052,46.6527357,0 12.1813446,46.6526831,0 12.1812619,46.6526374,0 12.1810647,46.652589,0 12.1809252,46.6525725,0 12.1808157,46.6525636,0 12.1806756,46.6525636,0 12.1804802,46.6525837,0 12.1802588,46.6526329,0 12.1799527,46.6527326,0 12.179795,46.6528273,0 12.179671,46.6529321,0 12.1795777,46.6530271,0 12.1794887,46.6531428,0 12.1792375,46.6535337,0 12.1790738,46.6537574,0 12.1788598,46.6540429,0 12.1787593,46.6542083,0 12.1785584,46.6544152,0 12.1780671,46.6547906,0 12.1776468,46.6554229,0 12.1774379,46.6556964,0 12.1773401,46.65581,0 12.1770381,46.6561361,0 12.1769891,46.6561595,0 12.1768661,46.6562143,0 12.1764481,46.6563489,0 12.1762637,46.6563894,0 12.1760989,46.6563977,0 12.1759699,46.6564107,0 12.1758819,46.656421,0 12.1758875,46.6564471,0 12.1758697,46.6564746,0 12.1758395,46.6564927,0 12.1757318,46.6565416,0 12.1753978,46.6566506,0 12.1747557,46.6568322,0</coordinates></LineString></Placemark><Placemark><name>Круг вокруг Lago di Braies</name><description>Планировочная реконструкция по OpenStreetMap, 09.09.2026. Не запись GPS и не проверенный навигационный трек. Высоты не экспортированы. Данные © OpenStreetMap contributors, ODbL. Автопереезды и канатки в пеший трек не включены.</description><styleUrl>#track</styleUrl><LineString><tessellate>1</tessellate><altitudeMode>clampToGround</altitudeMode><coordinates>12.0851564,46.6993217,0 12.0852436,46.6991169,0 12.0852758,46.6990155,0 12.085361,46.6989788,0 12.0853717,46.6989757,0 12.08544,46.6989653,0 12.0854653,46.6989604,0 12.0854653,46.6988703,0 12.0854767,46.6987982,0 12.085512,46.6986881,0 12.0856643,46.69857,0 12.085731,46.6985495,0 12.0858055,46.6985312,0 12.0859262,46.6985132,0 12.0860659,46.6985104,0 12.0862247,46.6985207,0 12.086326,46.6985438,0 12.086559,46.6986179,0 12.0867511,46.6987628,0 12.0868136,46.6988681,0 12.0868316,46.6989609,0 12.0868357,46.6990943,0 12.0868117,46.6992145,0 12.0868453,46.6993413,0 12.0868934,46.6994401,0 12.0869654,46.6995207,0 12.0871646,46.6996492,0 12.0873156,46.699729,0 12.0874263,46.6998524,0 12.0875469,46.6999391,0 12.0876976,46.700018,0 12.08794,46.7001497,0 12.0880784,46.7002421,0 12.088213,46.7001518,0 12.0881057,46.7000608,0 12.0880769,46.7000114,0 12.087964,46.6999076,0 12.0877936,46.6997068,0 12.0877192,46.6995784,0 12.087712,46.6993775,0 12.0876856,46.69904,0 12.0875553,46.6988281,0 12.0875118,46.6985318,0 12.0875338,46.6984249,0 12.0875567,46.6983765,0 12.0877044,46.6982512,0 12.0877349,46.6981818,0 12.0877662,46.6980625,0 12.0878476,46.6979615,0 12.0879906,46.6979067,0 12.0881614,46.6978667,0 12.0883079,46.6977799,0 12.0884299,46.6975608,0 12.0884726,46.6974439,0 12.0884497,46.6973653,0 12.0883883,46.6973078,0 12.0883224,46.6971312,0 12.0881707,46.6970191,0 12.0878116,46.6968328,0 12.0877208,46.6967197,0 12.0876612,46.6965845,0 12.0877055,46.6964156,0 12.087875,46.6962117,0 12.0880768,46.6959703,0 12.0881272,46.6958439,0 12.0881347,46.6957329,0 12.0880278,46.6955244,0 12.0880115,46.6954342,0 12.0880849,46.6952091,0 12.0881903,46.6951114,0 12.0882857,46.6948644,0 12.0883266,46.6947686,0 12.0883168,46.6947189,0 12.0883733,46.694665,0 12.0884059,46.6945516,0 12.0884429,46.6945005,0 12.0885387,46.6942768,0 12.0885281,46.6941282,0 12.088586,46.6940907,0 12.0885584,46.6939446,0 12.0884958,46.6938938,0 12.0884419,46.6938388,0 12.0884268,46.6938706,0 12.0884331,46.6940142,0 12.0884068,46.6941559,0 12.0883754,46.6942575,0 12.0883467,46.6943059,0 12.0882401,46.6941397,0 12.0881333,46.6940429,0 12.0879715,46.6939,0 12.0879015,46.6938312,0 12.0878317,46.6936796,0 12.0876692,46.6936182,0 12.0876092,46.6936059,0 12.0875533,46.6935915,0 12.0874081,46.6934526,0 12.0871283,46.6932917,0 12.0869529,46.6931014,0 12.0869139,46.6929764,0 12.0868521,46.6927201,0 12.0868365,46.6925899,0 12.0867958,46.6924723,0 12.0867374,46.6922389,0 12.086786,46.6920421,0 12.087033,46.6916754,0 12.0870675,46.6915354,0 12.0870567,46.6914787,0 12.0869995,46.6913063,0 12.0869171,46.6910763,0 12.086608,46.6909139,0 12.0864905,46.6908556,0 12.0864575,46.6907889,0 12.0863577,46.6906632,0 12.0863112,46.6904635,0 12.0862968,46.6903406,0 12.0862329,46.6901786,0 12.0861713,46.6900742,0 12.0861583,46.6899158,0 12.0862011,46.6897104,0 12.0861781,46.6896079,0 12.0861153,46.6895073,0 12.0860843,46.6893608,0 12.0860371,46.6892676,0 12.0858457,46.6891956,0 12.0856437,46.6891709,0 12.0854589,46.6891658,0 12.0852149,46.6891356,0 12.0850113,46.6891185,0 12.0842539,46.6891364,0 12.0841498,46.6891312,0 12.0840036,46.689099,0 12.0838898,46.6890858,0 12.0837769,46.689095,0 12.0835768,46.6891507,0 12.0831695,46.6891544,0 12.0829159,46.6891317,0 12.0827241,46.6891118,0 12.08256,46.6891282,0 12.0824751,46.6891333,0 12.0821831,46.6891172,0 12.0817406,46.6891413,0 12.081598,46.689181,0 12.0814348,46.6892779,0 12.0813583,46.6893477,0 12.0813014,46.6894621,0 12.0812699,46.6895801,0 12.0812462,46.689697,0 12.0812224,46.6900077,0 12.0811507,46.6901202,0 12.0811083,46.6902224,0 12.0810725,46.6904026,0 12.0810366,46.6904673,0 12.0809834,46.6906982,0 12.080951,46.6907924,0 12.0808744,46.6908727,0 12.0808181,46.6909222,0 12.0806417,46.6910004,0 12.0805095,46.691087,0 12.0804811,46.6911363,0 12.0804528,46.691304,0 12.0804604,46.6914036,0 12.0804905,46.6914161,0 12.0805687,46.6914454,0 12.0807016,46.6914652,0 12.0808518,46.6915133,0 12.0809846,46.6915823,0 12.0811956,46.6917641,0 12.0813832,46.691962,0 12.0815157,46.6920898,0 12.0816084,46.6921848,0 12.0817446,46.6923136,0 12.0818551,46.6924616,0 12.081942,46.6926289,0 12.0819978,46.6927915,0 12.0820436,46.6929267,0 12.0820969,46.693019,0 12.0821644,46.6931441,0 12.0822603,46.6932039,0 12.0823712,46.6932654,0 12.0824484,46.6933841,0 12.0825753,46.6935466,0 12.0827298,46.6936224,0 12.0828195,46.6937437,0 12.0830166,46.6939184,0 12.0831012,46.6940881,0 12.0832173,46.69425,0 12.0832937,46.6943478,0 12.0833544,46.694426,0 12.0834016,46.6944938,0 12.0834166,46.6945576,0 12.0834339,46.6946216,0 12.0834771,46.6947415,0 12.0834945,46.6948448,0 12.0834372,46.6949405,0 12.0833479,46.6951165,0 12.0833133,46.6952158,0 12.0832962,46.6953224,0 12.0832942,46.6954127,0 12.0833259,46.6954922,0 12.0832906,46.6956339,0 12.0832664,46.6957673,0 12.0832782,46.695858,0 12.0832754,46.6959323,0 12.0832454,46.6960449,0 12.0832379,46.6960936,0 12.0832107,46.6961869,0 12.0832048,46.6962863,0 12.0832125,46.6963463,0 12.0832269,46.6964192,0 12.0832595,46.6965055,0 12.083247,46.6965798,0 12.0832685,46.6966673,0 12.0832691,46.6967387,0 12.083251,46.6967889,0 12.0832266,46.696827,0 12.0832041,46.6969098,0 12.0832115,46.6969659,0 12.0832641,46.6970954,0 12.0834177,46.6972777,0 12.0835493,46.697489,0 12.0837433,46.6977375,0 12.0838527,46.697883,0 12.0839737,46.6980175,0 12.0840916,46.6981451,0 12.0841389,46.6981805,0 12.0841761,46.6982357,0 12.0842039,46.6983167,0 12.0842162,46.6984036,0 12.0842206,46.6985535,0 12.0842194,46.6985747,0 12.0841797,46.6986528,0 12.0841242,46.6987119,0 12.0841536,46.6987793,0 12.0841923,46.6988127,0 12.0842626,46.6988468,0 12.0847615,46.6990928,0 12.0850121,46.6992262,0 12.0851564,46.6993217,0</coordinates></LineString></Placemark></Document></kml>