<?xml version="1.0" encoding="UTF-8"?><gpx version="1.1" creator="Dolomites Atlas" xmlns="http://www.topografix.com/GPX/1/1"><metadata><name>Lago di Braies · круг озера</name><desc>Планировочная реконструкция по OpenStreetMap, 09.09.2026. Не запись GPS и не проверенный навигационный трек. Высоты не экспортированы. Данные © OpenStreetMap contributors, ODbL. Автопереезды и канатки в пеший трек не включены.</desc><link href="https://www.openstreetmap.org/copyright"><text>OpenStreetMap contributors · ODbL</text></link></metadata><wpt lat="46.6993473" lon="12.0850159"><name>Lago di Braies — северный берег</name></wpt><trk><name>Круг вокруг Lago di Braies</name><desc>Планировочная реконструкция по OpenStreetMap, 09.09.2026. Не запись GPS и не проверенный навигационный трек. Высоты не экспортированы. Данные © OpenStreetMap contributors, ODbL. Автопереезды и канатки в пеший трек не включены.</desc><type>hiking</type><trkseg><trkpt lat="46.6993217" lon="12.0851564"/><trkpt lat="46.6991169" lon="12.0852436"/><trkpt lat="46.6990155" lon="12.0852758"/><trkpt lat="46.6989788" lon="12.085361"/><trkpt lat="46.6989757" lon="12.0853717"/><trkpt lat="46.6989653" lon="12.08544"/><trkpt lat="46.6989604" lon="12.0854653"/><trkpt lat="46.6988703" lon="12.0854653"/><trkpt lat="46.6987982" lon="12.0854767"/><trkpt lat="46.6986881" lon="12.085512"/><trkpt lat="46.69857" lon="12.0856643"/><trkpt lat="46.6985495" lon="12.085731"/><trkpt lat="46.6985312" lon="12.0858055"/><trkpt lat="46.6985132" lon="12.0859262"/><trkpt lat="46.6985104" lon="12.0860659"/><trkpt lat="46.6985207" lon="12.0862247"/><trkpt lat="46.6985438" lon="12.086326"/><trkpt lat="46.6986179" lon="12.086559"/><trkpt lat="46.6987628" lon="12.0867511"/><trkpt lat="46.6988681" lon="12.0868136"/><trkpt lat="46.6989609" lon="12.0868316"/><trkpt lat="46.6990943" lon="12.0868357"/><trkpt lat="46.6992145" lon="12.0868117"/><trkpt lat="46.6993413" lon="12.0868453"/><trkpt lat="46.6994401" lon="12.0868934"/><trkpt lat="46.6995207" lon="12.0869654"/><trkpt lat="46.6996492" lon="12.0871646"/><trkpt lat="46.699729" lon="12.0873156"/><trkpt lat="46.6998524" lon="12.0874263"/><trkpt lat="46.6999391" lon="12.0875469"/><trkpt lat="46.700018" lon="12.0876976"/><trkpt lat="46.7001497" lon="12.08794"/><trkpt lat="46.7002421" lon="12.0880784"/><trkpt lat="46.7001518" lon="12.088213"/><trkpt lat="46.7000608" lon="12.0881057"/><trkpt lat="46.7000114" lon="12.0880769"/><trkpt lat="46.6999076" lon="12.087964"/><trkpt lat="46.6997068" lon="12.0877936"/><trkpt lat="46.6995784" lon="12.0877192"/><trkpt lat="46.6993775" lon="12.087712"/><trkpt lat="46.69904" lon="12.0876856"/><trkpt lat="46.6988281" lon="12.0875553"/><trkpt lat="46.6985318" lon="12.0875118"/><trkpt lat="46.6984249" lon="12.0875338"/><trkpt lat="46.6983765" lon="12.0875567"/><trkpt lat="46.6982512" lon="12.0877044"/><trkpt lat="46.6981818" lon="12.0877349"/><trkpt lat="46.6980625" lon="12.0877662"/><trkpt lat="46.6979615" lon="12.0878476"/><trkpt lat="46.6979067" lon="12.0879906"/><trkpt lat="46.6978667" lon="12.0881614"/><trkpt lat="46.6977799" lon="12.0883079"/><trkpt lat="46.6975608" lon="12.0884299"/><trkpt lat="46.6974439" lon="12.0884726"/><trkpt lat="46.6973653" lon="12.0884497"/><trkpt lat="46.6973078" lon="12.0883883"/><trkpt lat="46.6971312" lon="12.0883224"/><trkpt lat="46.6970191" lon="12.0881707"/><trkpt lat="46.6968328" lon="12.0878116"/><trkpt lat="46.6967197" lon="12.0877208"/><trkpt lat="46.6965845" lon="12.0876612"/><trkpt lat="46.6964156" lon="12.0877055"/><trkpt lat="46.6962117" lon="12.087875"/><trkpt lat="46.6959703" lon="12.0880768"/><trkpt lat="46.6958439" lon="12.0881272"/><trkpt lat="46.6957329" lon="12.0881347"/><trkpt lat="46.6955244" lon="12.0880278"/><trkpt lat="46.6954342" lon="12.0880115"/><trkpt lat="46.6952091" lon="12.0880849"/><trkpt lat="46.6951114" lon="12.0881903"/><trkpt lat="46.6948644" lon="12.0882857"/><trkpt lat="46.6947686" lon="12.0883266"/><trkpt lat="46.6947189" lon="12.0883168"/><trkpt lat="46.694665" lon="12.0883733"/><trkpt lat="46.6945516" lon="12.0884059"/><trkpt lat="46.6945005" lon="12.0884429"/><trkpt lat="46.6942768" lon="12.0885387"/><trkpt lat="46.6941282" lon="12.0885281"/><trkpt lat="46.6940907" lon="12.088586"/><trkpt lat="46.6939446" lon="12.0885584"/><trkpt lat="46.6938938" lon="12.0884958"/><trkpt lat="46.6938388" lon="12.0884419"/><trkpt lat="46.6938706" lon="12.0884268"/><trkpt lat="46.6940142" lon="12.0884331"/><trkpt lat="46.6941559" lon="12.0884068"/><trkpt lat="46.6942575" lon="12.0883754"/><trkpt lat="46.6943059" lon="12.0883467"/><trkpt lat="46.6941397" lon="12.0882401"/><trkpt lat="46.6940429" lon="12.0881333"/><trkpt lat="46.6939" lon="12.0879715"/><trkpt lat="46.6938312" lon="12.0879015"/><trkpt lat="46.6936796" lon="12.0878317"/><trkpt lat="46.6936182" lon="12.0876692"/><trkpt lat="46.6936059" lon="12.0876092"/><trkpt lat="46.6935915" lon="12.0875533"/><trkpt lat="46.6934526" lon="12.0874081"/><trkpt lat="46.6932917" lon="12.0871283"/><trkpt lat="46.6931014" lon="12.0869529"/><trkpt lat="46.6929764" lon="12.0869139"/><trkpt lat="46.6927201" lon="12.0868521"/><trkpt lat="46.6925899" lon="12.0868365"/><trkpt lat="46.6924723" lon="12.0867958"/><trkpt lat="46.6922389" lon="12.0867374"/><trkpt lat="46.6920421" lon="12.086786"/><trkpt lat="46.6916754" lon="12.087033"/><trkpt lat="46.6915354" lon="12.0870675"/><trkpt lat="46.6914787" lon="12.0870567"/><trkpt lat="46.6913063" lon="12.0869995"/><trkpt lat="46.6910763" lon="12.0869171"/><trkpt lat="46.6909139" lon="12.086608"/><trkpt lat="46.6908556" lon="12.0864905"/><trkpt lat="46.6907889" lon="12.0864575"/><trkpt lat="46.6906632" lon="12.0863577"/><trkpt lat="46.6904635" lon="12.0863112"/><trkpt lat="46.6903406" lon="12.0862968"/><trkpt lat="46.6901786" lon="12.0862329"/><trkpt lat="46.6900742" lon="12.0861713"/><trkpt lat="46.6899158" lon="12.0861583"/><trkpt lat="46.6897104" lon="12.0862011"/><trkpt lat="46.6896079" lon="12.0861781"/><trkpt lat="46.6895073" lon="12.0861153"/><trkpt lat="46.6893608" lon="12.0860843"/><trkpt lat="46.6892676" lon="12.0860371"/><trkpt lat="46.6891956" lon="12.0858457"/><trkpt lat="46.6891709" lon="12.0856437"/><trkpt lat="46.6891658" lon="12.0854589"/><trkpt lat="46.6891356" lon="12.0852149"/><trkpt lat="46.6891185" lon="12.0850113"/><trkpt lat="46.6891364" lon="12.0842539"/><trkpt lat="46.6891312" lon="12.0841498"/><trkpt lat="46.689099" lon="12.0840036"/><trkpt lat="46.6890858" lon="12.0838898"/><trkpt lat="46.689095" lon="12.0837769"/><trkpt lat="46.6891507" lon="12.0835768"/><trkpt lat="46.6891544" lon="12.0831695"/><trkpt lat="46.6891317" lon="12.0829159"/><trkpt lat="46.6891118" lon="12.0827241"/><trkpt lat="46.6891282" lon="12.08256"/><trkpt lat="46.6891333" lon="12.0824751"/><trkpt lat="46.6891172" lon="12.0821831"/><trkpt lat="46.6891413" lon="12.0817406"/><trkpt lat="46.689181" lon="12.081598"/><trkpt lat="46.6892779" lon="12.0814348"/><trkpt lat="46.6893477" lon="12.0813583"/><trkpt lat="46.6894621" lon="12.0813014"/><trkpt lat="46.6895801" lon="12.0812699"/><trkpt lat="46.689697" lon="12.0812462"/><trkpt lat="46.6900077" lon="12.0812224"/><trkpt lat="46.6901202" lon="12.0811507"/><trkpt lat="46.6902224" lon="12.0811083"/><trkpt lat="46.6904026" lon="12.0810725"/><trkpt lat="46.6904673" lon="12.0810366"/><trkpt lat="46.6906982" lon="12.0809834"/><trkpt lat="46.6907924" lon="12.080951"/><trkpt lat="46.6908727" lon="12.0808744"/><trkpt lat="46.6909222" lon="12.0808181"/><trkpt lat="46.6910004" lon="12.0806417"/><trkpt lat="46.691087" lon="12.0805095"/><trkpt lat="46.6911363" lon="12.0804811"/><trkpt lat="46.691304" lon="12.0804528"/><trkpt lat="46.6914036" lon="12.0804604"/><trkpt lat="46.6914161" lon="12.0804905"/><trkpt lat="46.6914454" lon="12.0805687"/><trkpt lat="46.6914652" lon="12.0807016"/><trkpt lat="46.6915133" lon="12.0808518"/><trkpt lat="46.6915823" lon="12.0809846"/><trkpt lat="46.6917641" lon="12.0811956"/><trkpt lat="46.691962" lon="12.0813832"/><trkpt lat="46.6920898" lon="12.0815157"/><trkpt lat="46.6921848" lon="12.0816084"/><trkpt lat="46.6923136" lon="12.0817446"/><trkpt lat="46.6924616" lon="12.0818551"/><trkpt lat="46.6926289" lon="12.081942"/><trkpt lat="46.6927915" lon="12.0819978"/><trkpt lat="46.6929267" lon="12.0820436"/><trkpt lat="46.693019" lon="12.0820969"/><trkpt lat="46.6931441" lon="12.0821644"/><trkpt lat="46.6932039" lon="12.0822603"/><trkpt lat="46.6932654" lon="12.0823712"/><trkpt lat="46.6933841" lon="12.0824484"/><trkpt lat="46.6935466" lon="12.0825753"/><trkpt lat="46.6936224" lon="12.0827298"/><trkpt lat="46.6937437" lon="12.0828195"/><trkpt lat="46.6939184" lon="12.0830166"/><trkpt lat="46.6940881" lon="12.0831012"/><trkpt lat="46.69425" lon="12.0832173"/><trkpt lat="46.6943478" lon="12.0832937"/><trkpt lat="46.694426" lon="12.0833544"/><trkpt lat="46.6944938" lon="12.0834016"/><trkpt lat="46.6945576" lon="12.0834166"/><trkpt lat="46.6946216" lon="12.0834339"/><trkpt lat="46.6947415" lon="12.0834771"/><trkpt lat="46.6948448" lon="12.0834945"/><trkpt lat="46.6949405" lon="12.0834372"/><trkpt lat="46.6951165" lon="12.0833479"/><trkpt lat="46.6952158" lon="12.0833133"/><trkpt lat="46.6953224" lon="12.0832962"/><trkpt lat="46.6954127" lon="12.0832942"/><trkpt lat="46.6954922" lon="12.0833259"/><trkpt lat="46.6956339" lon="12.0832906"/><trkpt lat="46.6957673" lon="12.0832664"/><trkpt lat="46.695858" lon="12.0832782"/><trkpt lat="46.6959323" lon="12.0832754"/><trkpt lat="46.6960449" lon="12.0832454"/><trkpt lat="46.6960936" lon="12.0832379"/><trkpt lat="46.6961869" lon="12.0832107"/><trkpt lat="46.6962863" lon="12.0832048"/><trkpt lat="46.6963463" lon="12.0832125"/><trkpt lat="46.6964192" lon="12.0832269"/><trkpt lat="46.6965055" lon="12.0832595"/><trkpt lat="46.6965798" lon="12.083247"/><trkpt lat="46.6966673" lon="12.0832685"/><trkpt lat="46.6967387" lon="12.0832691"/><trkpt lat="46.6967889" lon="12.083251"/><trkpt lat="46.696827" lon="12.0832266"/><trkpt lat="46.6969098" lon="12.0832041"/><trkpt lat="46.6969659" lon="12.0832115"/><trkpt lat="46.6970954" lon="12.0832641"/><trkpt lat="46.6972777" lon="12.0834177"/><trkpt lat="46.697489" lon="12.0835493"/><trkpt lat="46.6977375" lon="12.0837433"/><trkpt lat="46.697883" lon="12.0838527"/><trkpt lat="46.6980175" lon="12.0839737"/><trkpt lat="46.6981451" lon="12.0840916"/><trkpt lat="46.6981805" lon="12.0841389"/><trkpt lat="46.6982357" lon="12.0841761"/><trkpt lat="46.6983167" lon="12.0842039"/><trkpt lat="46.6984036" lon="12.0842162"/><trkpt lat="46.6985535" lon="12.0842206"/><trkpt lat="46.6985747" lon="12.0842194"/><trkpt lat="46.6986528" lon="12.0841797"/><trkpt lat="46.6987119" lon="12.0841242"/><trkpt lat="46.6987793" lon="12.0841536"/><trkpt lat="46.6988127" lon="12.0841923"/><trkpt lat="46.6988468" lon="12.0842626"/><trkpt lat="46.6990928" lon="12.0847615"/><trkpt lat="46.6992262" lon="12.0850121"/><trkpt lat="46.6993217" lon="12.0851564"/></trkseg></trk></gpx>