<?xml version="1.0" encoding="UTF-8"?><gpx version="1.1" creator="Dolomites Atlas" xmlns="http://www.topografix.com/GPX/1/1"><metadata><name>Seceda · Pieralongia · Mastlé</name><desc>Планировочная реконструкция по OpenStreetMap, 09.09.2026. Не запись GPS и не проверенный навигационный трек. Высоты не экспортированы. Данные © OpenStreetMap contributors, ODbL. Автопереезды и канатки в пеший трек не включены.</desc><link href="https://www.openstreetmap.org/copyright"><text>OpenStreetMap contributors · ODbL</text></link></metadata><wpt lat="46.5647447" lon="11.7362434"><name>Col Raiser — парковка P1</name></wpt><wpt lat="46.5650691" lon="11.7366984"><name>Col Raiser — нижняя станция</name></wpt><wpt lat="46.5847839" lon="11.7453183"><name>Col Raiser — верхняя станция</name></wpt><wpt lat="46.5905179" lon="11.7475766"><name>Mastlé UNESCO viewpoint</name></wpt><wpt lat="46.5975408" lon="11.7506407"><name>Pieralongia</name></wpt><wpt lat="46.6005922" lon="11.7257836"><name>Seceda — вершина / Ridge Line</name></wpt><wpt lat="46.59111378" lon="11.73677728"><name>Baita Fermeda</name></wpt><trk><name>Петля Mastlé — Pieralongia — Seceda</name><desc>Планировочная реконструкция по OpenStreetMap, 09.09.2026. Не запись GPS и не проверенный навигационный трек. Высоты не экспортированы. Данные © OpenStreetMap contributors, ODbL. Автопереезды и канатки в пеший трек не включены.</desc><type>hiking</type><trkseg><trkpt lat="46.5847839" lon="11.7453183"/><trkpt lat="46.5848228" lon="11.7453353"/><trkpt lat="46.5847908" lon="11.7454837"/><trkpt lat="46.5849011" lon="11.7455325"/><trkpt lat="46.5849874" lon="11.7457528"/><trkpt lat="46.5850253" lon="11.7457884"/><trkpt lat="46.5850664" lon="11.7457945"/><trkpt lat="46.5851257" lon="11.7457714"/><trkpt lat="46.5851993" lon="11.7457367"/><trkpt lat="46.5852825" lon="11.7456849"/><trkpt lat="46.5853376" lon="11.7456239"/><trkpt lat="46.5854276" lon="11.7455172"/><trkpt lat="46.5854473" lon="11.7454369"/><trkpt lat="46.5854885" lon="11.7453393"/><trkpt lat="46.5855211" lon="11.7452673"/><trkpt lat="46.5856378" lon="11.745198"/><trkpt lat="46.5858954" lon="11.7449991"/><trkpt lat="46.5859668" lon="11.7449881"/><trkpt lat="46.5861001" lon="11.7450277"/><trkpt lat="46.5862091" lon="11.7450214"/><trkpt lat="46.5866032" lon="11.7451361"/><trkpt lat="46.5868485" lon="11.745134"/><trkpt lat="46.5870605" lon="11.7451814"/><trkpt lat="46.5871826" lon="11.7452567"/><trkpt lat="46.5873331" lon="11.7452357"/><trkpt lat="46.5874396" lon="11.7453799"/><trkpt lat="46.5874318" lon="11.7457635"/><trkpt lat="46.587564" lon="11.7458653"/><trkpt lat="46.5876543" lon="11.7461684"/><trkpt lat="46.5877981" lon="11.7464192"/><trkpt lat="46.5881834" lon="11.7465104"/><trkpt lat="46.5883613" lon="11.7464326"/><trkpt lat="46.5885725" lon="11.7461388"/><trkpt lat="46.5886829" lon="11.7461537"/><trkpt lat="46.588816" lon="11.7462804"/><trkpt lat="46.5889399" lon="11.7465875"/><trkpt lat="46.5888931" lon="11.7472649"/><trkpt lat="46.5888809" lon="11.7474686"/><trkpt lat="46.5890442" lon="11.7477027"/><trkpt lat="46.58922" lon="11.747822"/><trkpt lat="46.5894009" lon="11.7482789"/><trkpt lat="46.5894728" lon="11.7484376"/><trkpt lat="46.5895746" lon="11.7484514"/><trkpt lat="46.5896365" lon="11.7484675"/><trkpt lat="46.58967" lon="11.7484832"/><trkpt lat="46.5897009" lon="11.7484939"/><trkpt lat="46.589731" lon="11.7485087"/><trkpt lat="46.58982" lon="11.7485645"/><trkpt lat="46.589891" lon="11.7485741"/><trkpt lat="46.5899588" lon="11.7485789"/><trkpt lat="46.5900782" lon="11.7485458"/><trkpt lat="46.5901725" lon="11.7484621"/><trkpt lat="46.5902527" lon="11.7484723"/><trkpt lat="46.5902955" lon="11.748487"/><trkpt lat="46.590391" lon="11.7485111"/><trkpt lat="46.5904499" lon="11.7485257"/><trkpt lat="46.5905321" lon="11.748534"/><trkpt lat="46.5905279" lon="11.7485096"/><trkpt lat="46.5904276" lon="11.748345"/><trkpt lat="46.5903999" lon="11.7481948"/><trkpt lat="46.590391" lon="11.7481062"/><trkpt lat="46.5904464" lon="11.748137"/><trkpt lat="46.5904812" lon="11.7481429"/><trkpt lat="46.5904816" lon="11.7480684"/><trkpt lat="46.5904313" lon="11.7479025"/><trkpt lat="46.5904232" lon="11.747826"/><trkpt lat="46.5904755" lon="11.7478569"/><trkpt lat="46.5905225" lon="11.7478944"/><trkpt lat="46.5905637" lon="11.7479026"/><trkpt lat="46.5905658" lon="11.7478582"/><trkpt lat="46.5905013" lon="11.7477563"/><trkpt lat="46.5904455" lon="11.7476266"/><trkpt lat="46.5904405" lon="11.7475614"/><trkpt lat="46.5904482" lon="11.7475182"/><trkpt lat="46.5904645" lon="11.7474868"/><trkpt lat="46.5904948" lon="11.7474747"/><trkpt lat="46.5905266" lon="11.747482"/><trkpt lat="46.5905575" lon="11.7475283"/><trkpt lat="46.5905713" lon="11.7476115"/><trkpt lat="46.5906548" lon="11.7476476"/><trkpt lat="46.5906858" lon="11.7476358"/><trkpt lat="46.5907095" lon="11.7476119"/><trkpt lat="46.5906893" lon="11.747472"/><trkpt lat="46.5906495" lon="11.7473192"/><trkpt lat="46.5908529" lon="11.7476242"/><trkpt lat="46.5911248" lon="11.747763"/><trkpt lat="46.5913828" lon="11.7480453"/><trkpt lat="46.5917252" lon="11.7482498"/><trkpt lat="46.591833" lon="11.7482572"/><trkpt lat="46.5920247" lon="11.7484664"/><trkpt lat="46.5921591" lon="11.7485958"/><trkpt lat="46.5922247" lon="11.7486602"/><trkpt lat="46.5923076" lon="11.7486387"/><trkpt lat="46.5926818" lon="11.7488614"/><trkpt lat="46.5928716" lon="11.7488211"/><trkpt lat="46.5931573" lon="11.7489177"/><trkpt lat="46.5932403" lon="11.7490679"/><trkpt lat="46.5937822" lon="11.7493254"/><trkpt lat="46.5939628" lon="11.7489874"/><trkpt lat="46.5942245" lon="11.7488641"/><trkpt lat="46.5945729" lon="11.7489713"/><trkpt lat="46.5948106" lon="11.7488909"/><trkpt lat="46.5949415" lon="11.7487112"/><trkpt lat="46.5950087" lon="11.7486562"/><trkpt lat="46.5950963" lon="11.7486709"/><trkpt lat="46.5951571" lon="11.7486468"/><trkpt lat="46.5951704" lon="11.7486797"/><trkpt lat="46.5951791" lon="11.7487013"/><trkpt lat="46.5952362" lon="11.7487818"/><trkpt lat="46.5953966" lon="11.7489213"/><trkpt lat="46.5954242" lon="11.7489722"/><trkpt lat="46.5954795" lon="11.7492382"/><trkpt lat="46.5955338" lon="11.7496229"/><trkpt lat="46.5955689" lon="11.7498128"/><trkpt lat="46.595662" lon="11.7501363"/><trkpt lat="46.5957305" lon="11.750169"/><trkpt lat="46.5959515" lon="11.7501451"/><trkpt lat="46.5960109" lon="11.7501683"/><trkpt lat="46.5960433" lon="11.7501683"/><trkpt lat="46.5960955" lon="11.7501775"/><trkpt lat="46.5961288" lon="11.7501624"/><trkpt lat="46.5961673" lon="11.7501618"/><trkpt lat="46.5961954" lon="11.7501555"/><trkpt lat="46.5962223" lon="11.7501621"/><trkpt lat="46.5963" lon="11.7501644"/><trkpt lat="46.5964057" lon="11.7502116"/><trkpt lat="46.5964779" lon="11.7502324"/><trkpt lat="46.5965247" lon="11.7502604"/><trkpt lat="46.5965884" lon="11.7502765"/><trkpt lat="46.5967416" lon="11.7503481"/><trkpt lat="46.5969185" lon="11.7505316"/><trkpt lat="46.5969407" lon="11.7505345"/><trkpt lat="46.5969639" lon="11.7505667"/><trkpt lat="46.596996" lon="11.7506417"/><trkpt lat="46.5970473" lon="11.7508132"/><trkpt lat="46.5971058" lon="11.7509151"/><trkpt lat="46.5971374" lon="11.7509457"/><trkpt lat="46.5971661" lon="11.7509414"/><trkpt lat="46.5972123" lon="11.7509582"/><trkpt lat="46.5971661" lon="11.7509414"/><trkpt lat="46.5971374" lon="11.7509457"/><trkpt lat="46.5971058" lon="11.7509151"/><trkpt lat="46.5970473" lon="11.7508132"/><trkpt lat="46.596996" lon="11.7506417"/><trkpt lat="46.5969639" lon="11.7505667"/><trkpt lat="46.5969407" lon="11.7505345"/><trkpt lat="46.5969185" lon="11.7505316"/><trkpt lat="46.5967416" lon="11.7503481"/><trkpt lat="46.5965884" lon="11.7502765"/><trkpt lat="46.5965247" lon="11.7502604"/><trkpt lat="46.5964779" lon="11.7502324"/><trkpt lat="46.5964057" lon="11.7502116"/><trkpt lat="46.5963" lon="11.7501644"/><trkpt lat="46.5962223" lon="11.7501621"/><trkpt lat="46.5961954" lon="11.7501555"/><trkpt lat="46.5961673" lon="11.7501618"/><trkpt lat="46.5961288" lon="11.7501624"/><trkpt lat="46.5960955" lon="11.7501775"/><trkpt lat="46.5960433" lon="11.7501683"/><trkpt lat="46.5960109" lon="11.7501683"/><trkpt lat="46.5959515" lon="11.7501451"/><trkpt lat="46.5957305" lon="11.750169"/><trkpt lat="46.5960472" lon="11.7499351"/><trkpt lat="46.5961135" lon="11.7498252"/><trkpt lat="46.5962038" lon="11.7497393"/><trkpt lat="46.5963236" lon="11.7496669"/><trkpt lat="46.59639" lon="11.7495757"/><trkpt lat="46.5964711" lon="11.7495408"/><trkpt lat="46.5965909" lon="11.749573"/><trkpt lat="46.5966406" lon="11.7496159"/><trkpt lat="46.5967346" lon="11.7497635"/><trkpt lat="46.5968301" lon="11.7498805"/><trkpt lat="46.596941" lon="11.7500163"/><trkpt lat="46.597059" lon="11.7500371"/><trkpt lat="46.5970885" lon="11.7500075"/><trkpt lat="46.5971051" lon="11.7499324"/><trkpt lat="46.5971396" lon="11.7497051"/><trkpt lat="46.5971769" lon="11.7491573"/><trkpt lat="46.5974361" lon="11.7484017"/><trkpt lat="46.5974456" lon="11.7479512"/><trkpt lat="46.5974181" lon="11.747879"/><trkpt lat="46.5973672" lon="11.7477778"/><trkpt lat="46.5972959" lon="11.7476853"/><trkpt lat="46.5972642" lon="11.7476442"/><trkpt lat="46.5972379" lon="11.7475891"/><trkpt lat="46.5972171" lon="11.7475304"/><trkpt lat="46.5971774" lon="11.7474401"/><trkpt lat="46.5971786" lon="11.7473769"/><trkpt lat="46.5971612" lon="11.7473245"/><trkpt lat="46.5971085" lon="11.7472565"/><trkpt lat="46.5970843" lon="11.7471854"/><trkpt lat="46.5970557" lon="11.7470373"/><trkpt lat="46.5970272" lon="11.7469561"/><trkpt lat="46.5970272" lon="11.7468937"/><trkpt lat="46.596995" lon="11.7468133"/><trkpt lat="46.5969818" lon="11.7467173"/><trkpt lat="46.5969475" lon="11.7466111"/><trkpt lat="46.5969403" lon="11.7465226"/><trkpt lat="46.5969428" lon="11.7464503"/><trkpt lat="46.5969582" lon="11.7463635"/><trkpt lat="46.596966" lon="11.7462732"/><trkpt lat="46.5969937" lon="11.7462065"/><trkpt lat="46.597083" lon="11.7460747"/><trkpt lat="46.5971165" lon="11.7460114"/><trkpt lat="46.5971572" lon="11.7460084"/><trkpt lat="46.5973002" lon="11.745932"/><trkpt lat="46.5973995" lon="11.745867"/><trkpt lat="46.5974727" lon="11.7458471"/><trkpt lat="46.5975153" lon="11.7458197"/><trkpt lat="46.5976117" lon="11.7457514"/><trkpt lat="46.597675" lon="11.7456647"/><trkpt lat="46.5977681" lon="11.7455671"/><trkpt lat="46.5977954" lon="11.7455455"/><trkpt lat="46.5978041" lon="11.7455111"/><trkpt lat="46.5978947" lon="11.7454949"/><trkpt lat="46.5979791" lon="11.7454154"/><trkpt lat="46.5980761" lon="11.7453853"/><trkpt lat="46.5981774" lon="11.7453389"/><trkpt lat="46.5982692" lon="11.7452645"/><trkpt lat="46.5983067" lon="11.7452131"/><trkpt lat="46.5983558" lon="11.7451804"/><trkpt lat="46.598396" lon="11.7451228"/><trkpt lat="46.5984259" lon="11.7450837"/><trkpt lat="46.5984444" lon="11.7450596"/><trkpt lat="46.5985189" lon="11.7449765"/><trkpt lat="46.5985935" lon="11.7449077"/><trkpt lat="46.5986591" lon="11.7448646"/><trkpt lat="46.598732" lon="11.7447719"/><trkpt lat="46.598753" lon="11.7447529"/><trkpt lat="46.5988055" lon="11.7446869"/><trkpt lat="46.5988438" lon="11.7446366"/><trkpt lat="46.5988675" lon="11.7446193"/><trkpt lat="46.5988719" lon="11.7446096"/><trkpt lat="46.5988861" lon="11.7445787"/><trkpt lat="46.598901" lon="11.7445045"/><trkpt lat="46.5989108" lon="11.7444306"/><trkpt lat="46.5989284" lon="11.744364"/><trkpt lat="46.5989507" lon="11.7443442"/><trkpt lat="46.5989806" lon="11.7443083"/><trkpt lat="46.5989944" lon="11.7442353"/><trkpt lat="46.5989892" lon="11.7441688"/><trkpt lat="46.5989969" lon="11.7440816"/><trkpt lat="46.5990229" lon="11.743985"/><trkpt lat="46.5990319" lon="11.7439303"/><trkpt lat="46.5990515" lon="11.7439076"/><trkpt lat="46.5990589" lon="11.7438895"/><trkpt lat="46.5990408" lon="11.7438371"/><trkpt lat="46.5990329" lon="11.7437706"/><trkpt lat="46.5990279" lon="11.743699"/><trkpt lat="46.599024" lon="11.7435946"/><trkpt lat="46.5990381" lon="11.7435252"/><trkpt lat="46.5990749" lon="11.7434738"/><trkpt lat="46.5991454" lon="11.7433898"/><trkpt lat="46.5991969" lon="11.7433132"/><trkpt lat="46.5992254" lon="11.7432885"/><trkpt lat="46.5992725" lon="11.7432245"/><trkpt lat="46.5992974" lon="11.7432001"/><trkpt lat="46.599333" lon="11.7431668"/><trkpt lat="46.5993623" lon="11.7430956"/><trkpt lat="46.5993603" lon="11.743053"/><trkpt lat="46.599338" lon="11.7428436"/><trkpt lat="46.5993554" lon="11.742787"/><trkpt lat="46.599357" lon="11.7427388"/><trkpt lat="46.5993406" lon="11.7427064"/><trkpt lat="46.5993392" lon="11.7426556"/><trkpt lat="46.5992838" lon="11.7424739"/><trkpt lat="46.5992721" lon="11.7423942"/><trkpt lat="46.5992858" lon="11.7423384"/><trkpt lat="46.599291" lon="11.7422808"/><trkpt lat="46.5993231" lon="11.7421813"/><trkpt lat="46.5993396" lon="11.7420542"/><trkpt lat="46.5993379" lon="11.7419639"/><trkpt lat="46.5993488" lon="11.7418886"/><trkpt lat="46.5993287" lon="11.7417509"/><trkpt lat="46.5993628" lon="11.741655"/><trkpt lat="46.5993888" lon="11.7416099"/><trkpt lat="46.5994075" lon="11.7415647"/><trkpt lat="46.5994583" lon="11.7415358"/><trkpt lat="46.5994832" lon="11.7414889"/><trkpt lat="46.5994869" lon="11.7414203"/><trkpt lat="46.5994633" lon="11.7413823"/><trkpt lat="46.5994497" lon="11.7413354"/><trkpt lat="46.5994658" lon="11.741236"/><trkpt lat="46.5994993" lon="11.7411873"/><trkpt lat="46.5995053" lon="11.741138"/><trkpt lat="46.5994956" lon="11.7410464"/><trkpt lat="46.5994794" lon="11.7409741"/><trkpt lat="46.5994529" lon="11.7409231"/><trkpt lat="46.5994397" lon="11.7408423"/><trkpt lat="46.5994699" lon="11.7407566"/><trkpt lat="46.5994919" lon="11.7406576"/><trkpt lat="46.5994856" lon="11.7405533"/><trkpt lat="46.5994822" lon="11.7404953"/><trkpt lat="46.5994628" lon="11.7404004"/><trkpt lat="46.5994583" lon="11.7403474"/><trkpt lat="46.5994972" lon="11.7402902"/><trkpt lat="46.5995365" lon="11.7402318"/><trkpt lat="46.5995573" lon="11.740183"/><trkpt lat="46.5995711" lon="11.7401417"/><trkpt lat="46.5995758" lon="11.7400706"/><trkpt lat="46.5995828" lon="11.7400186"/><trkpt lat="46.5995931" lon="11.7400081"/><trkpt lat="46.5995987" lon="11.7399849"/><trkpt lat="46.5995919" lon="11.7399529"/><trkpt lat="46.5995909" lon="11.739866"/><trkpt lat="46.5995797" lon="11.7397902"/><trkpt lat="46.59958" lon="11.7397116"/><trkpt lat="46.5995838" lon="11.7396401"/><trkpt lat="46.599575" lon="11.7395978"/><trkpt lat="46.5995824" lon="11.7395581"/><trkpt lat="46.5996104" lon="11.7394203"/><trkpt lat="46.5996395" lon="11.7393378"/><trkpt lat="46.5996682" lon="11.7392827"/><trkpt lat="46.5997001" lon="11.739244"/><trkpt lat="46.599733" lon="11.7391777"/><trkpt lat="46.5997427" lon="11.7391405"/><trkpt lat="46.5997446" lon="11.739088"/><trkpt lat="46.5997605" lon="11.739035"/><trkpt lat="46.5997744" lon="11.7389925"/><trkpt lat="46.5997698" lon="11.7389603"/><trkpt lat="46.5997561" lon="11.7389369"/><trkpt lat="46.5997485" lon="11.7388834"/><trkpt lat="46.5997597" lon="11.7388383"/><trkpt lat="46.5997715" lon="11.7387991"/><trkpt lat="46.5997872" lon="11.7387454"/><trkpt lat="46.599782" lon="11.738684"/><trkpt lat="46.599796" lon="11.7386317"/><trkpt lat="46.5998211" lon="11.7385931"/><trkpt lat="46.5998383" lon="11.7385389"/><trkpt lat="46.5998294" lon="11.7384831"/><trkpt lat="46.5998042" lon="11.7384437"/><trkpt lat="46.599762" lon="11.7384141"/><trkpt lat="46.5997471" lon="11.7383619"/><trkpt lat="46.5997301" lon="11.738276"/><trkpt lat="46.5997328" lon="11.7381419"/><trkpt lat="46.5997066" lon="11.7379441"/><trkpt lat="46.5997489" lon="11.7379515"/><trkpt lat="46.5998134" lon="11.7380132"/><trkpt lat="46.5998148" lon="11.7379569"/><trkpt lat="46.5997743" lon="11.7378844"/><trkpt lat="46.5997605" lon="11.737641"/><trkpt lat="46.5997096" lon="11.7375248"/><trkpt lat="46.5996973" lon="11.7374412"/><trkpt lat="46.5997084" lon="11.7373715"/><trkpt lat="46.5996909" lon="11.7372085"/><trkpt lat="46.5996946" lon="11.7371502"/><trkpt lat="46.599749" lon="11.7370189"/><trkpt lat="46.5997397" lon="11.7368934"/><trkpt lat="46.5997499" lon="11.7367666"/><trkpt lat="46.5997287" lon="11.7367083"/><trkpt lat="46.5997239" lon="11.736659"/><trkpt lat="46.5997535" lon="11.7365433"/><trkpt lat="46.5997896" lon="11.736455"/><trkpt lat="46.5997945" lon="11.7364177"/><trkpt lat="46.599799" lon="11.7363838"/><trkpt lat="46.599799" lon="11.7363358"/><trkpt lat="46.5997826" lon="11.7363053"/><trkpt lat="46.5997591" lon="11.7362751"/><trkpt lat="46.5997397" lon="11.736261"/><trkpt lat="46.599737" lon="11.7362181"/><trkpt lat="46.5997523" lon="11.7361656"/><trkpt lat="46.5997664" lon="11.7360055"/><trkpt lat="46.5997982" lon="11.7358371"/><trkpt lat="46.5997907" lon="11.7357072"/><trkpt lat="46.5997994" lon="11.7356146"/><trkpt lat="46.5998441" lon="11.7355278"/><trkpt lat="46.5998721" lon="11.7354325"/><trkpt lat="46.5998736" lon="11.735282"/><trkpt lat="46.5998902" lon="11.7350588"/><trkpt lat="46.5998779" lon="11.7349367"/><trkpt lat="46.5998488" lon="11.7348216"/><trkpt lat="46.5998623" lon="11.7347311"/><trkpt lat="46.5999074" lon="11.7346644"/><trkpt lat="46.5999627" lon="11.7346376"/><trkpt lat="46.6000074" lon="11.7346301"/><trkpt lat="46.6000674" lon="11.7346378"/><trkpt lat="46.6001137" lon="11.7346896"/><trkpt lat="46.6001747" lon="11.7347066"/><trkpt lat="46.6002406" lon="11.7347337"/><trkpt lat="46.6003175" lon="11.7347878"/><trkpt lat="46.6003875" lon="11.7348577"/><trkpt lat="46.6005053" lon="11.7349957"/><trkpt lat="46.6005947" lon="11.7351115"/><trkpt lat="46.6006216" lon="11.7350949"/><trkpt lat="46.6006308" lon="11.7350637"/><trkpt lat="46.6006281" lon="11.7350203"/><trkpt lat="46.6006476" lon="11.7349945"/><trkpt lat="46.6006768" lon="11.7349944"/><trkpt lat="46.6007061" lon="11.7350479"/><trkpt lat="46.6007303" lon="11.735103"/><trkpt lat="46.6007485" lon="11.7351611"/><trkpt lat="46.6008079" lon="11.7353016"/><trkpt lat="46.6008298" lon="11.7353578"/><trkpt lat="46.6008581" lon="11.7353846"/><trkpt lat="46.6008786" lon="11.7353551"/><trkpt lat="46.6008956" lon="11.7353411"/><trkpt lat="46.6009275" lon="11.7353632"/><trkpt lat="46.6009533" lon="11.7353863"/><trkpt lat="46.6009906" lon="11.7354106"/><trkpt lat="46.6010222" lon="11.7354081"/><trkpt lat="46.6010417" lon="11.7354584"/><trkpt lat="46.6010436" lon="11.7356047"/><trkpt lat="46.601062" lon="11.735681"/><trkpt lat="46.6010751" lon="11.7357596"/><trkpt lat="46.601085" lon="11.7358607"/><trkpt lat="46.6010979" lon="11.7358956"/><trkpt lat="46.6011117" lon="11.7358719"/><trkpt lat="46.6011339" lon="11.7358191"/><trkpt lat="46.6011618" lon="11.7357628"/><trkpt lat="46.6011892" lon="11.7357159"/><trkpt lat="46.6011947" lon="11.7356662"/><trkpt lat="46.6012195" lon="11.735626"/><trkpt lat="46.6012458" lon="11.7354644"/><trkpt lat="46.6012835" lon="11.7353092"/><trkpt lat="46.6012681" lon="11.73509"/><trkpt lat="46.6012301" lon="11.7345417"/><trkpt lat="46.6011403" lon="11.7341692"/><trkpt lat="46.6010929" lon="11.7339443"/><trkpt lat="46.6010617" lon="11.7337182"/><trkpt lat="46.6010348" lon="11.7331136"/><trkpt lat="46.6009697" lon="11.7325776"/><trkpt lat="46.6009045" lon="11.7321364"/><trkpt lat="46.6007957" lon="11.7317484"/><trkpt lat="46.6007825" lon="11.7314761"/><trkpt lat="46.6007361" lon="11.7311985"/><trkpt lat="46.6007005" lon="11.7309791"/><trkpt lat="46.6006704" lon="11.7309241"/><trkpt lat="46.6006363" lon="11.7308785"/><trkpt lat="46.6006142" lon="11.7308356"/><trkpt lat="46.6005939" lon="11.7307283"/><trkpt lat="46.6005653" lon="11.7306056"/><trkpt lat="46.6005515" lon="11.7304909"/><trkpt lat="46.6005414" lon="11.7304044"/><trkpt lat="46.6005344" lon="11.730362"/><trkpt lat="46.6005306" lon="11.7303179"/><trkpt lat="46.6005262" lon="11.7302951"/><trkpt lat="46.6005124" lon="11.730271"/><trkpt lat="46.6005022" lon="11.7302267"/><trkpt lat="46.600499" lon="11.7301617"/><trkpt lat="46.6004903" lon="11.7300846"/><trkpt lat="46.6004475" lon="11.7298662"/><trkpt lat="46.6003672" lon="11.7296581"/><trkpt lat="46.600319" lon="11.7294424"/><trkpt lat="46.6003216" lon="11.7293195"/><trkpt lat="46.6003268" lon="11.7291938"/><trkpt lat="46.6002567" lon="11.7291022"/><trkpt lat="46.6002118" lon="11.7288561"/><trkpt lat="46.6001975" lon="11.7286765"/><trkpt lat="46.600242" lon="11.7286479"/><trkpt lat="46.6003429" lon="11.7287237"/><trkpt lat="46.6003989" lon="11.7286987"/><trkpt lat="46.600464" lon="11.7285646"/><trkpt lat="46.6004596" lon="11.7284818"/><trkpt lat="46.6004094" lon="11.7284262"/><trkpt lat="46.6003619" lon="11.72832"/><trkpt lat="46.6003633" lon="11.728061"/><trkpt lat="46.6003621" lon="11.7278781"/><trkpt lat="46.6003892" lon="11.7278667"/><trkpt lat="46.60054" lon="11.7279837"/><trkpt lat="46.6006214" lon="11.72796"/><trkpt lat="46.600667" lon="11.7278695"/><trkpt lat="46.6006999" lon="11.7277212"/><trkpt lat="46.6007345" lon="11.7275489"/><trkpt lat="46.6007478" lon="11.7271996"/><trkpt lat="46.6007807" lon="11.7271102"/><trkpt lat="46.6007949" lon="11.7269686"/><trkpt lat="46.6007817" lon="11.7268477"/><trkpt lat="46.600727" lon="11.726684"/><trkpt lat="46.6006557" lon="11.7265003"/><trkpt lat="46.6006314" lon="11.726403"/><trkpt lat="46.6006078" lon="11.7262766"/><trkpt lat="46.6005924" lon="11.7261645"/><trkpt lat="46.6005865" lon="11.72613"/><trkpt lat="46.6005689" lon="11.7260533"/><trkpt lat="46.6005592" lon="11.7259896"/><trkpt lat="46.6005587" lon="11.7258995"/><trkpt lat="46.6005922" lon="11.7257836"/><trkpt lat="46.6005587" lon="11.7258995"/><trkpt lat="46.6005386" lon="11.7258611"/><trkpt lat="46.6005345" lon="11.7257947"/><trkpt lat="46.6005487" lon="11.7256959"/><trkpt lat="46.6005404" lon="11.7256166"/><trkpt lat="46.6004026" lon="11.7255762"/><trkpt lat="46.6003232" lon="11.7255383"/><trkpt lat="46.6001159" lon="11.7252936"/><trkpt lat="46.5998696" lon="11.7250184"/><trkpt lat="46.5997102" lon="11.7248606"/><trkpt lat="46.5995388" lon="11.7246534"/><trkpt lat="46.5994019" lon="11.7244792"/><trkpt lat="46.5992113" lon="11.7243453"/><trkpt lat="46.5990656" lon="11.7242382"/><trkpt lat="46.5989595" lon="11.7241778"/><trkpt lat="46.5988933" lon="11.7241465"/><trkpt lat="46.5988347" lon="11.7241339"/><trkpt lat="46.5987674" lon="11.7241389"/><trkpt lat="46.5986533" lon="11.7241708"/><trkpt lat="46.5986093" lon="11.7241929"/><trkpt lat="46.598574" lon="11.7242177"/><trkpt lat="46.5985207" lon="11.7242655"/><trkpt lat="46.5984769" lon="11.7243193"/><trkpt lat="46.5984179" lon="11.7244418"/><trkpt lat="46.5983566" lon="11.7245362"/><trkpt lat="46.5982917" lon="11.7246121"/><trkpt lat="46.5982374" lon="11.7246522"/><trkpt lat="46.5980011" lon="11.7247601"/><trkpt lat="46.597928" lon="11.7247784"/><trkpt lat="46.5979582" lon="11.7248822"/><trkpt lat="46.5980282" lon="11.7250118"/><trkpt lat="46.5980544" lon="11.7250724"/><trkpt lat="46.5980679" lon="11.7251349"/><trkpt lat="46.5980744" lon="11.7252212"/><trkpt lat="46.5980826" lon="11.72527"/><trkpt lat="46.5980991" lon="11.7253228"/><trkpt lat="46.5981141" lon="11.7253602"/><trkpt lat="46.5981281" lon="11.725406"/><trkpt lat="46.5981346" lon="11.7254567"/><trkpt lat="46.5981364" lon="11.7255008"/><trkpt lat="46.5981319" lon="11.7255509"/><trkpt lat="46.598096" lon="11.7256602"/><trkpt lat="46.5980629" lon="11.72577"/><trkpt lat="46.5980477" lon="11.7258591"/><trkpt lat="46.598047" lon="11.7259202"/><trkpt lat="46.5980664" lon="11.7261007"/><trkpt lat="46.5980723" lon="11.7261322"/><trkpt lat="46.5980822" lon="11.7261619"/><trkpt lat="46.5980949" lon="11.7261817"/><trkpt lat="46.5980965" lon="11.7261931"/><trkpt lat="46.598095" lon="11.7262054"/><trkpt lat="46.5980878" lon="11.7262246"/><trkpt lat="46.598068" lon="11.7262432"/><trkpt lat="46.5980065" lon="11.7262629"/><trkpt lat="46.5978433" lon="11.7262885"/><trkpt lat="46.5977811" lon="11.7263048"/><trkpt lat="46.5977485" lon="11.7263182"/><trkpt lat="46.5977369" lon="11.7263264"/><trkpt lat="46.597729" lon="11.7263383"/><trkpt lat="46.597726" lon="11.726354"/><trkpt lat="46.5977279" lon="11.7263727"/><trkpt lat="46.5977411" lon="11.7264307"/><trkpt lat="46.5977452" lon="11.7264611"/><trkpt lat="46.5977412" lon="11.7264862"/><trkpt lat="46.5977312" lon="11.7265117"/><trkpt lat="46.5977173" lon="11.7265343"/><trkpt lat="46.5976822" lon="11.7265682"/><trkpt lat="46.5976702" lon="11.7265877"/><trkpt lat="46.5976538" lon="11.7266302"/><trkpt lat="46.5975907" lon="11.7268464"/><trkpt lat="46.5975662" lon="11.727035"/><trkpt lat="46.5975527" lon="11.727172"/><trkpt lat="46.5975687" lon="11.7273183"/><trkpt lat="46.5975828" lon="11.727393"/><trkpt lat="46.5976368" lon="11.727519"/><trkpt lat="46.5976662" lon="11.727597"/><trkpt lat="46.5977137" lon="11.7277783"/><trkpt lat="46.5977606" lon="11.7279947"/><trkpt lat="46.5978301" lon="11.7283101"/><trkpt lat="46.5978866" lon="11.7286992"/><trkpt lat="46.597903" lon="11.72918"/><trkpt lat="46.5978995" lon="11.7293349"/><trkpt lat="46.5978663" lon="11.7294243"/><trkpt lat="46.5978221" lon="11.7294502"/><trkpt lat="46.5977079" lon="11.729461"/><trkpt lat="46.5974973" lon="11.7294499"/><trkpt lat="46.5973994" lon="11.7294436"/><trkpt lat="46.597346" lon="11.7294135"/><trkpt lat="46.5973051" lon="11.7293799"/><trkpt lat="46.5972623" lon="11.7293402"/><trkpt lat="46.5972298" lon="11.7292863"/><trkpt lat="46.5971413" lon="11.7291076"/><trkpt lat="46.597096" lon="11.7290946"/><trkpt lat="46.5970715" lon="11.7290766"/><trkpt lat="46.5970616" lon="11.7290756"/><trkpt lat="46.5970551" lon="11.7290934"/><trkpt lat="46.5970283" lon="11.7292113"/><trkpt lat="46.5970197" lon="11.7292815"/><trkpt lat="46.5970073" lon="11.7293857"/><trkpt lat="46.5969927" lon="11.7294388"/><trkpt lat="46.5969292" lon="11.7295496"/><trkpt lat="46.5968232" lon="11.7294882"/><trkpt lat="46.5967476" lon="11.7295155"/><trkpt lat="46.5965763" lon="11.7294852"/><trkpt lat="46.5964795" lon="11.7293862"/><trkpt lat="46.5963533" lon="11.7294939"/><trkpt lat="46.5961081" lon="11.7295179"/><trkpt lat="46.595987" lon="11.7294958"/><trkpt lat="46.595929" lon="11.729507"/><trkpt lat="46.5957932" lon="11.7294749"/><trkpt lat="46.5956358" lon="11.7295699"/><trkpt lat="46.5954276" lon="11.7294739"/><trkpt lat="46.5954333" lon="11.7296026"/><trkpt lat="46.5954195" lon="11.7296378"/><trkpt lat="46.5953149" lon="11.7295653"/><trkpt lat="46.5952043" lon="11.7294209"/><trkpt lat="46.595149" lon="11.7294116"/><trkpt lat="46.5947695" lon="11.7296482"/><trkpt lat="46.5946738" lon="11.7296861"/><trkpt lat="46.5946171" lon="11.7296896"/><trkpt lat="46.594555" lon="11.7297387"/><trkpt lat="46.5948376" lon="11.7301559"/><trkpt lat="46.5949461" lon="11.7303242"/><trkpt lat="46.5950049" lon="11.730474"/><trkpt lat="46.594969" lon="11.7308707"/><trkpt lat="46.5949655" lon="11.7312159"/><trkpt lat="46.5950106" lon="11.7314567"/><trkpt lat="46.5949933" lon="11.731804"/><trkpt lat="46.5950349" lon="11.7322221"/><trkpt lat="46.5950144" lon="11.7325865"/><trkpt lat="46.5950354" lon="11.7327061"/><trkpt lat="46.5950911" lon="11.7329324"/><trkpt lat="46.5951313" lon="11.7331681"/><trkpt lat="46.5951544" lon="11.7334032"/><trkpt lat="46.5951882" lon="11.7335601"/><trkpt lat="46.5951252" lon="11.7335778"/><trkpt lat="46.5950154" lon="11.7336137"/><trkpt lat="46.5949661" lon="11.733643"/><trkpt lat="46.5949075" lon="11.7336833"/><trkpt lat="46.5948755" lon="11.7336979"/><trkpt lat="46.5948235" lon="11.7337125"/><trkpt lat="46.5948103" lon="11.7337284"/><trkpt lat="46.5948023" lon="11.7337491"/><trkpt lat="46.59479" lon="11.7337668"/><trkpt lat="46.5947574" lon="11.7337924"/><trkpt lat="46.5946659" lon="11.7338554"/><trkpt lat="46.5946225" lon="11.7338763"/><trkpt lat="46.5946027" lon="11.7338737"/><trkpt lat="46.5945828" lon="11.7338677"/><trkpt lat="46.594563" lon="11.7338535"/><trkpt lat="46.5945446" lon="11.733846"/><trkpt lat="46.5945206" lon="11.7338444"/><trkpt lat="46.5944895" lon="11.7338578"/><trkpt lat="46.5943571" lon="11.7339261"/><trkpt lat="46.5943284" lon="11.7339448"/><trkpt lat="46.5940733" lon="11.7340199"/><trkpt lat="46.5939773" lon="11.734047"/><trkpt lat="46.5938784" lon="11.7341471"/><trkpt lat="46.5936835" lon="11.7342034"/><trkpt lat="46.5934972" lon="11.7342744"/><trkpt lat="46.5933524" lon="11.7342535"/><trkpt lat="46.5930199" lon="11.7341325"/><trkpt lat="46.5927662" lon="11.7338864"/><trkpt lat="46.5927132" lon="11.7338614"/><trkpt lat="46.5925197" lon="11.7337509"/><trkpt lat="46.5924209" lon="11.7336821"/><trkpt lat="46.5923549" lon="11.733607"/><trkpt lat="46.5922818" lon="11.7334651"/><trkpt lat="46.5922502" lon="11.7333636"/><trkpt lat="46.5921325" lon="11.7333689"/><trkpt lat="46.5920017" lon="11.7333998"/><trkpt lat="46.591851" lon="11.7335319"/><trkpt lat="46.5917879" lon="11.7335962"/><trkpt lat="46.5917254" lon="11.733605"/><trkpt lat="46.5916595" lon="11.7336433"/><trkpt lat="46.591575" lon="11.7336646"/><trkpt lat="46.5915164" lon="11.7337505"/><trkpt lat="46.5914247" lon="11.73379"/><trkpt lat="46.5913542" lon="11.7338544"/><trkpt lat="46.5912788" lon="11.7340926"/><trkpt lat="46.5912642" lon="11.7341639"/><trkpt lat="46.5911699" lon="11.7343613"/><trkpt lat="46.5911446" lon="11.7344432"/><trkpt lat="46.591163" lon="11.734596"/><trkpt lat="46.5911156" lon="11.7347013"/><trkpt lat="46.5911248" lon="11.7348555"/><trkpt lat="46.5911455" lon="11.7349347"/><trkpt lat="46.5911469" lon="11.7349762"/><trkpt lat="46.5911188" lon="11.7350567"/><trkpt lat="46.5910801" lon="11.735272"/><trkpt lat="46.5910764" lon="11.7353806"/><trkpt lat="46.5910838" lon="11.7354812"/><trkpt lat="46.5910852" lon="11.7358964"/><trkpt lat="46.5910765" lon="11.7361701"/><trkpt lat="46.5910587" lon="11.7362781"/><trkpt lat="46.5910329" lon="11.736523"/><trkpt lat="46.5910017" lon="11.7366734"/><trkpt lat="46.5910286" lon="11.7370075"/><trkpt lat="46.5910414" lon="11.7370838"/><trkpt lat="46.5910566" lon="11.737173"/><trkpt lat="46.5910828" lon="11.737242"/><trkpt lat="46.5911026" lon="11.7372655"/><trkpt lat="46.5911077" lon="11.7373901"/><trkpt lat="46.5909292" lon="11.737556"/><trkpt lat="46.5907207" lon="11.7377426"/><trkpt lat="46.5904929" lon="11.7378824"/><trkpt lat="46.5904506" lon="11.7379354"/><trkpt lat="46.5904519" lon="11.7379991"/><trkpt lat="46.5904779" lon="11.7380792"/><trkpt lat="46.5905309" lon="11.7382221"/><trkpt lat="46.5905234" lon="11.7383572"/><trkpt lat="46.590482" lon="11.7384539"/><trkpt lat="46.5905341" lon="11.7386582"/><trkpt lat="46.5905059" lon="11.7388836"/><trkpt lat="46.5905041" lon="11.7391464"/><trkpt lat="46.5905179" lon="11.739361"/><trkpt lat="46.5905465" lon="11.7398022"/><trkpt lat="46.5905686" lon="11.7399672"/><trkpt lat="46.5905686" lon="11.740116"/><trkpt lat="46.5905621" lon="11.7408738"/><trkpt lat="46.5905262" lon="11.7411634"/><trkpt lat="46.5905667" lon="11.7413592"/><trkpt lat="46.5905971" lon="11.741602"/><trkpt lat="46.5906451" lon="11.7417616"/><trkpt lat="46.5907022" lon="11.7418286"/><trkpt lat="46.5907437" lon="11.7419426"/><trkpt lat="46.590752" lon="11.7420767"/><trkpt lat="46.5907409" lon="11.7421116"/><trkpt lat="46.5907345" lon="11.742133"/><trkpt lat="46.5906726" lon="11.7421929"/><trkpt lat="46.5906173" lon="11.7422466"/><trkpt lat="46.5904758" lon="11.7424781"/><trkpt lat="46.5903796" lon="11.7426195"/><trkpt lat="46.5903279" lon="11.742834"/><trkpt lat="46.5902671" lon="11.7429949"/><trkpt lat="46.5902265" lon="11.7430646"/><trkpt lat="46.5901684" lon="11.7430943"/><trkpt lat="46.5900689" lon="11.743064"/><trkpt lat="46.5899253" lon="11.7430678"/><trkpt lat="46.5898302" lon="11.7430815"/><trkpt lat="46.5897741" lon="11.7431067"/><trkpt lat="46.5897237" lon="11.7431554"/><trkpt lat="46.5896921" lon="11.7432227"/><trkpt lat="46.58968" lon="11.7433013"/><trkpt lat="46.5896827" lon="11.7434784"/><trkpt lat="46.5897046" lon="11.7436914"/><trkpt lat="46.5897083" lon="11.7438282"/><trkpt lat="46.5896864" lon="11.7439753"/><trkpt lat="46.5896122" lon="11.7441198"/><trkpt lat="46.5895496" lon="11.7441905"/><trkpt lat="46.5895076" lon="11.7443043"/><trkpt lat="46.5894763" lon="11.7443694"/><trkpt lat="46.5894211" lon="11.7444162"/><trkpt lat="46.5893336" lon="11.7444076"/><trkpt lat="46.5892434" lon="11.7443679"/><trkpt lat="46.5891869" lon="11.7443724"/><trkpt lat="46.5890933" lon="11.744418"/><trkpt lat="46.588828" lon="11.7446804"/><trkpt lat="46.5884284" lon="11.7448399"/><trkpt lat="46.5879784" lon="11.744886"/><trkpt lat="46.5878811" lon="11.7449199"/><trkpt lat="46.5877974" lon="11.7449893"/><trkpt lat="46.5877223" lon="11.7451216"/><trkpt lat="46.5876626" lon="11.7451599"/><trkpt lat="46.5874189" lon="11.7451889"/><trkpt lat="46.5873331" lon="11.7452357"/><trkpt lat="46.5871826" lon="11.7452567"/><trkpt lat="46.5870605" lon="11.7451814"/><trkpt lat="46.5868485" lon="11.745134"/><trkpt lat="46.5866032" lon="11.7451361"/><trkpt lat="46.5862091" lon="11.7450214"/><trkpt lat="46.5861001" lon="11.7450277"/><trkpt lat="46.5859668" lon="11.7449881"/><trkpt lat="46.5858954" lon="11.7449991"/><trkpt lat="46.5856378" lon="11.745198"/><trkpt lat="46.5855211" lon="11.7452673"/><trkpt lat="46.5854885" lon="11.7453393"/><trkpt lat="46.5854473" lon="11.7454369"/><trkpt lat="46.5854276" lon="11.7455172"/><trkpt lat="46.5853376" lon="11.7456239"/><trkpt lat="46.5852825" lon="11.7456849"/><trkpt lat="46.5851993" lon="11.7457367"/><trkpt lat="46.5851257" lon="11.7457714"/><trkpt lat="46.5850664" lon="11.7457945"/><trkpt lat="46.5850253" lon="11.7457884"/><trkpt lat="46.5849874" lon="11.7457528"/><trkpt lat="46.5849011" lon="11.7455325"/><trkpt lat="46.5847908" lon="11.7454837"/><trkpt lat="46.5848228" lon="11.7453353"/><trkpt lat="46.5847839" lon="11.7453183"/></trkseg></trk></gpx>