<?xml version="1.0" encoding="UTF-8"?><kml xmlns="http://www.opengis.net/kml/2.2"><Document><name>Seceda · Pieralongia · Mastlé</name><description>Планировочная реконструкция по OpenStreetMap, 09.09.2026. Не запись GPS и не проверенный навигационный трек. Высоты не экспортированы. Данные © OpenStreetMap contributors, ODbL. Автопереезды и канатки в пеший трек не включены.</description><Style id="track"><LineStyle><color>ffa54c7b</color><width>4</width></LineStyle></Style><Placemark><name>Col Raiser — парковка P1</name><Point><coordinates>11.7362434,46.5647447</coordinates></Point></Placemark><Placemark><name>Col Raiser — нижняя станция</name><Point><coordinates>11.7366984,46.5650691</coordinates></Point></Placemark><Placemark><name>Col Raiser — верхняя станция</name><Point><coordinates>11.7453183,46.5847839</coordinates></Point></Placemark><Placemark><name>Mastlé UNESCO viewpoint</name><Point><coordinates>11.7475766,46.5905179</coordinates></Point></Placemark><Placemark><name>Pieralongia</name><Point><coordinates>11.7506407,46.5975408</coordinates></Point></Placemark><Placemark><name>Seceda — вершина / Ridge Line</name><Point><coordinates>11.7257836,46.6005922</coordinates></Point></Placemark><Placemark><name>Baita Fermeda</name><Point><coordinates>11.73677728,46.59111378</coordinates></Point></Placemark><Placemark><name>Петля Mastlé — Pieralongia — Seceda</name><description>Планировочная реконструкция по OpenStreetMap, 09.09.2026. Не запись GPS и не проверенный навигационный трек. Высоты не экспортированы. Данные © OpenStreetMap contributors, ODbL. Автопереезды и канатки в пеший трек не включены.</description><styleUrl>#track</styleUrl><LineString><tessellate>1</tessellate><altitudeMode>clampToGround</altitudeMode><coordinates>11.7453183,46.5847839,0 11.7453353,46.5848228,0 11.7454837,46.5847908,0 11.7455325,46.5849011,0 11.7457528,46.5849874,0 11.7457884,46.5850253,0 11.7457945,46.5850664,0 11.7457714,46.5851257,0 11.7457367,46.5851993,0 11.7456849,46.5852825,0 11.7456239,46.5853376,0 11.7455172,46.5854276,0 11.7454369,46.5854473,0 11.7453393,46.5854885,0 11.7452673,46.5855211,0 11.745198,46.5856378,0 11.7449991,46.5858954,0 11.7449881,46.5859668,0 11.7450277,46.5861001,0 11.7450214,46.5862091,0 11.7451361,46.5866032,0 11.745134,46.5868485,0 11.7451814,46.5870605,0 11.7452567,46.5871826,0 11.7452357,46.5873331,0 11.7453799,46.5874396,0 11.7457635,46.5874318,0 11.7458653,46.587564,0 11.7461684,46.5876543,0 11.7464192,46.5877981,0 11.7465104,46.5881834,0 11.7464326,46.5883613,0 11.7461388,46.5885725,0 11.7461537,46.5886829,0 11.7462804,46.588816,0 11.7465875,46.5889399,0 11.7472649,46.5888931,0 11.7474686,46.5888809,0 11.7477027,46.5890442,0 11.747822,46.58922,0 11.7482789,46.5894009,0 11.7484376,46.5894728,0 11.7484514,46.5895746,0 11.7484675,46.5896365,0 11.7484832,46.58967,0 11.7484939,46.5897009,0 11.7485087,46.589731,0 11.7485645,46.58982,0 11.7485741,46.589891,0 11.7485789,46.5899588,0 11.7485458,46.5900782,0 11.7484621,46.5901725,0 11.7484723,46.5902527,0 11.748487,46.5902955,0 11.7485111,46.590391,0 11.7485257,46.5904499,0 11.748534,46.5905321,0 11.7485096,46.5905279,0 11.748345,46.5904276,0 11.7481948,46.5903999,0 11.7481062,46.590391,0 11.748137,46.5904464,0 11.7481429,46.5904812,0 11.7480684,46.5904816,0 11.7479025,46.5904313,0 11.747826,46.5904232,0 11.7478569,46.5904755,0 11.7478944,46.5905225,0 11.7479026,46.5905637,0 11.7478582,46.5905658,0 11.7477563,46.5905013,0 11.7476266,46.5904455,0 11.7475614,46.5904405,0 11.7475182,46.5904482,0 11.7474868,46.5904645,0 11.7474747,46.5904948,0 11.747482,46.5905266,0 11.7475283,46.5905575,0 11.7476115,46.5905713,0 11.7476476,46.5906548,0 11.7476358,46.5906858,0 11.7476119,46.5907095,0 11.747472,46.5906893,0 11.7473192,46.5906495,0 11.7476242,46.5908529,0 11.747763,46.5911248,0 11.7480453,46.5913828,0 11.7482498,46.5917252,0 11.7482572,46.591833,0 11.7484664,46.5920247,0 11.7485958,46.5921591,0 11.7486602,46.5922247,0 11.7486387,46.5923076,0 11.7488614,46.5926818,0 11.7488211,46.5928716,0 11.7489177,46.5931573,0 11.7490679,46.5932403,0 11.7493254,46.5937822,0 11.7489874,46.5939628,0 11.7488641,46.5942245,0 11.7489713,46.5945729,0 11.7488909,46.5948106,0 11.7487112,46.5949415,0 11.7486562,46.5950087,0 11.7486709,46.5950963,0 11.7486468,46.5951571,0 11.7486797,46.5951704,0 11.7487013,46.5951791,0 11.7487818,46.5952362,0 11.7489213,46.5953966,0 11.7489722,46.5954242,0 11.7492382,46.5954795,0 11.7496229,46.5955338,0 11.7498128,46.5955689,0 11.7501363,46.595662,0 11.750169,46.5957305,0 11.7501451,46.5959515,0 11.7501683,46.5960109,0 11.7501683,46.5960433,0 11.7501775,46.5960955,0 11.7501624,46.5961288,0 11.7501618,46.5961673,0 11.7501555,46.5961954,0 11.7501621,46.5962223,0 11.7501644,46.5963,0 11.7502116,46.5964057,0 11.7502324,46.5964779,0 11.7502604,46.5965247,0 11.7502765,46.5965884,0 11.7503481,46.5967416,0 11.7505316,46.5969185,0 11.7505345,46.5969407,0 11.7505667,46.5969639,0 11.7506417,46.596996,0 11.7508132,46.5970473,0 11.7509151,46.5971058,0 11.7509457,46.5971374,0 11.7509414,46.5971661,0 11.7509582,46.5972123,0 11.7509414,46.5971661,0 11.7509457,46.5971374,0 11.7509151,46.5971058,0 11.7508132,46.5970473,0 11.7506417,46.596996,0 11.7505667,46.5969639,0 11.7505345,46.5969407,0 11.7505316,46.5969185,0 11.7503481,46.5967416,0 11.7502765,46.5965884,0 11.7502604,46.5965247,0 11.7502324,46.5964779,0 11.7502116,46.5964057,0 11.7501644,46.5963,0 11.7501621,46.5962223,0 11.7501555,46.5961954,0 11.7501618,46.5961673,0 11.7501624,46.5961288,0 11.7501775,46.5960955,0 11.7501683,46.5960433,0 11.7501683,46.5960109,0 11.7501451,46.5959515,0 11.750169,46.5957305,0 11.7499351,46.5960472,0 11.7498252,46.5961135,0 11.7497393,46.5962038,0 11.7496669,46.5963236,0 11.7495757,46.59639,0 11.7495408,46.5964711,0 11.749573,46.5965909,0 11.7496159,46.5966406,0 11.7497635,46.5967346,0 11.7498805,46.5968301,0 11.7500163,46.596941,0 11.7500371,46.597059,0 11.7500075,46.5970885,0 11.7499324,46.5971051,0 11.7497051,46.5971396,0 11.7491573,46.5971769,0 11.7484017,46.5974361,0 11.7479512,46.5974456,0 11.747879,46.5974181,0 11.7477778,46.5973672,0 11.7476853,46.5972959,0 11.7476442,46.5972642,0 11.7475891,46.5972379,0 11.7475304,46.5972171,0 11.7474401,46.5971774,0 11.7473769,46.5971786,0 11.7473245,46.5971612,0 11.7472565,46.5971085,0 11.7471854,46.5970843,0 11.7470373,46.5970557,0 11.7469561,46.5970272,0 11.7468937,46.5970272,0 11.7468133,46.596995,0 11.7467173,46.5969818,0 11.7466111,46.5969475,0 11.7465226,46.5969403,0 11.7464503,46.5969428,0 11.7463635,46.5969582,0 11.7462732,46.596966,0 11.7462065,46.5969937,0 11.7460747,46.597083,0 11.7460114,46.5971165,0 11.7460084,46.5971572,0 11.745932,46.5973002,0 11.745867,46.5973995,0 11.7458471,46.5974727,0 11.7458197,46.5975153,0 11.7457514,46.5976117,0 11.7456647,46.597675,0 11.7455671,46.5977681,0 11.7455455,46.5977954,0 11.7455111,46.5978041,0 11.7454949,46.5978947,0 11.7454154,46.5979791,0 11.7453853,46.5980761,0 11.7453389,46.5981774,0 11.7452645,46.5982692,0 11.7452131,46.5983067,0 11.7451804,46.5983558,0 11.7451228,46.598396,0 11.7450837,46.5984259,0 11.7450596,46.5984444,0 11.7449765,46.5985189,0 11.7449077,46.5985935,0 11.7448646,46.5986591,0 11.7447719,46.598732,0 11.7447529,46.598753,0 11.7446869,46.5988055,0 11.7446366,46.5988438,0 11.7446193,46.5988675,0 11.7446096,46.5988719,0 11.7445787,46.5988861,0 11.7445045,46.598901,0 11.7444306,46.5989108,0 11.744364,46.5989284,0 11.7443442,46.5989507,0 11.7443083,46.5989806,0 11.7442353,46.5989944,0 11.7441688,46.5989892,0 11.7440816,46.5989969,0 11.743985,46.5990229,0 11.7439303,46.5990319,0 11.7439076,46.5990515,0 11.7438895,46.5990589,0 11.7438371,46.5990408,0 11.7437706,46.5990329,0 11.743699,46.5990279,0 11.7435946,46.599024,0 11.7435252,46.5990381,0 11.7434738,46.5990749,0 11.7433898,46.5991454,0 11.7433132,46.5991969,0 11.7432885,46.5992254,0 11.7432245,46.5992725,0 11.7432001,46.5992974,0 11.7431668,46.599333,0 11.7430956,46.5993623,0 11.743053,46.5993603,0 11.7428436,46.599338,0 11.742787,46.5993554,0 11.7427388,46.599357,0 11.7427064,46.5993406,0 11.7426556,46.5993392,0 11.7424739,46.5992838,0 11.7423942,46.5992721,0 11.7423384,46.5992858,0 11.7422808,46.599291,0 11.7421813,46.5993231,0 11.7420542,46.5993396,0 11.7419639,46.5993379,0 11.7418886,46.5993488,0 11.7417509,46.5993287,0 11.741655,46.5993628,0 11.7416099,46.5993888,0 11.7415647,46.5994075,0 11.7415358,46.5994583,0 11.7414889,46.5994832,0 11.7414203,46.5994869,0 11.7413823,46.5994633,0 11.7413354,46.5994497,0 11.741236,46.5994658,0 11.7411873,46.5994993,0 11.741138,46.5995053,0 11.7410464,46.5994956,0 11.7409741,46.5994794,0 11.7409231,46.5994529,0 11.7408423,46.5994397,0 11.7407566,46.5994699,0 11.7406576,46.5994919,0 11.7405533,46.5994856,0 11.7404953,46.5994822,0 11.7404004,46.5994628,0 11.7403474,46.5994583,0 11.7402902,46.5994972,0 11.7402318,46.5995365,0 11.740183,46.5995573,0 11.7401417,46.5995711,0 11.7400706,46.5995758,0 11.7400186,46.5995828,0 11.7400081,46.5995931,0 11.7399849,46.5995987,0 11.7399529,46.5995919,0 11.739866,46.5995909,0 11.7397902,46.5995797,0 11.7397116,46.59958,0 11.7396401,46.5995838,0 11.7395978,46.599575,0 11.7395581,46.5995824,0 11.7394203,46.5996104,0 11.7393378,46.5996395,0 11.7392827,46.5996682,0 11.739244,46.5997001,0 11.7391777,46.599733,0 11.7391405,46.5997427,0 11.739088,46.5997446,0 11.739035,46.5997605,0 11.7389925,46.5997744,0 11.7389603,46.5997698,0 11.7389369,46.5997561,0 11.7388834,46.5997485,0 11.7388383,46.5997597,0 11.7387991,46.5997715,0 11.7387454,46.5997872,0 11.738684,46.599782,0 11.7386317,46.599796,0 11.7385931,46.5998211,0 11.7385389,46.5998383,0 11.7384831,46.5998294,0 11.7384437,46.5998042,0 11.7384141,46.599762,0 11.7383619,46.5997471,0 11.738276,46.5997301,0 11.7381419,46.5997328,0 11.7379441,46.5997066,0 11.7379515,46.5997489,0 11.7380132,46.5998134,0 11.7379569,46.5998148,0 11.7378844,46.5997743,0 11.737641,46.5997605,0 11.7375248,46.5997096,0 11.7374412,46.5996973,0 11.7373715,46.5997084,0 11.7372085,46.5996909,0 11.7371502,46.5996946,0 11.7370189,46.599749,0 11.7368934,46.5997397,0 11.7367666,46.5997499,0 11.7367083,46.5997287,0 11.736659,46.5997239,0 11.7365433,46.5997535,0 11.736455,46.5997896,0 11.7364177,46.5997945,0 11.7363838,46.599799,0 11.7363358,46.599799,0 11.7363053,46.5997826,0 11.7362751,46.5997591,0 11.736261,46.5997397,0 11.7362181,46.599737,0 11.7361656,46.5997523,0 11.7360055,46.5997664,0 11.7358371,46.5997982,0 11.7357072,46.5997907,0 11.7356146,46.5997994,0 11.7355278,46.5998441,0 11.7354325,46.5998721,0 11.735282,46.5998736,0 11.7350588,46.5998902,0 11.7349367,46.5998779,0 11.7348216,46.5998488,0 11.7347311,46.5998623,0 11.7346644,46.5999074,0 11.7346376,46.5999627,0 11.7346301,46.6000074,0 11.7346378,46.6000674,0 11.7346896,46.6001137,0 11.7347066,46.6001747,0 11.7347337,46.6002406,0 11.7347878,46.6003175,0 11.7348577,46.6003875,0 11.7349957,46.6005053,0 11.7351115,46.6005947,0 11.7350949,46.6006216,0 11.7350637,46.6006308,0 11.7350203,46.6006281,0 11.7349945,46.6006476,0 11.7349944,46.6006768,0 11.7350479,46.6007061,0 11.735103,46.6007303,0 11.7351611,46.6007485,0 11.7353016,46.6008079,0 11.7353578,46.6008298,0 11.7353846,46.6008581,0 11.7353551,46.6008786,0 11.7353411,46.6008956,0 11.7353632,46.6009275,0 11.7353863,46.6009533,0 11.7354106,46.6009906,0 11.7354081,46.6010222,0 11.7354584,46.6010417,0 11.7356047,46.6010436,0 11.735681,46.601062,0 11.7357596,46.6010751,0 11.7358607,46.601085,0 11.7358956,46.6010979,0 11.7358719,46.6011117,0 11.7358191,46.6011339,0 11.7357628,46.6011618,0 11.7357159,46.6011892,0 11.7356662,46.6011947,0 11.735626,46.6012195,0 11.7354644,46.6012458,0 11.7353092,46.6012835,0 11.73509,46.6012681,0 11.7345417,46.6012301,0 11.7341692,46.6011403,0 11.7339443,46.6010929,0 11.7337182,46.6010617,0 11.7331136,46.6010348,0 11.7325776,46.6009697,0 11.7321364,46.6009045,0 11.7317484,46.6007957,0 11.7314761,46.6007825,0 11.7311985,46.6007361,0 11.7309791,46.6007005,0 11.7309241,46.6006704,0 11.7308785,46.6006363,0 11.7308356,46.6006142,0 11.7307283,46.6005939,0 11.7306056,46.6005653,0 11.7304909,46.6005515,0 11.7304044,46.6005414,0 11.730362,46.6005344,0 11.7303179,46.6005306,0 11.7302951,46.6005262,0 11.730271,46.6005124,0 11.7302267,46.6005022,0 11.7301617,46.600499,0 11.7300846,46.6004903,0 11.7298662,46.6004475,0 11.7296581,46.6003672,0 11.7294424,46.600319,0 11.7293195,46.6003216,0 11.7291938,46.6003268,0 11.7291022,46.6002567,0 11.7288561,46.6002118,0 11.7286765,46.6001975,0 11.7286479,46.600242,0 11.7287237,46.6003429,0 11.7286987,46.6003989,0 11.7285646,46.600464,0 11.7284818,46.6004596,0 11.7284262,46.6004094,0 11.72832,46.6003619,0 11.728061,46.6003633,0 11.7278781,46.6003621,0 11.7278667,46.6003892,0 11.7279837,46.60054,0 11.72796,46.6006214,0 11.7278695,46.600667,0 11.7277212,46.6006999,0 11.7275489,46.6007345,0 11.7271996,46.6007478,0 11.7271102,46.6007807,0 11.7269686,46.6007949,0 11.7268477,46.6007817,0 11.726684,46.600727,0 11.7265003,46.6006557,0 11.726403,46.6006314,0 11.7262766,46.6006078,0 11.7261645,46.6005924,0 11.72613,46.6005865,0 11.7260533,46.6005689,0 11.7259896,46.6005592,0 11.7258995,46.6005587,0 11.7257836,46.6005922,0 11.7258995,46.6005587,0 11.7258611,46.6005386,0 11.7257947,46.6005345,0 11.7256959,46.6005487,0 11.7256166,46.6005404,0 11.7255762,46.6004026,0 11.7255383,46.6003232,0 11.7252936,46.6001159,0 11.7250184,46.5998696,0 11.7248606,46.5997102,0 11.7246534,46.5995388,0 11.7244792,46.5994019,0 11.7243453,46.5992113,0 11.7242382,46.5990656,0 11.7241778,46.5989595,0 11.7241465,46.5988933,0 11.7241339,46.5988347,0 11.7241389,46.5987674,0 11.7241708,46.5986533,0 11.7241929,46.5986093,0 11.7242177,46.598574,0 11.7242655,46.5985207,0 11.7243193,46.5984769,0 11.7244418,46.5984179,0 11.7245362,46.5983566,0 11.7246121,46.5982917,0 11.7246522,46.5982374,0 11.7247601,46.5980011,0 11.7247784,46.597928,0 11.7248822,46.5979582,0 11.7250118,46.5980282,0 11.7250724,46.5980544,0 11.7251349,46.5980679,0 11.7252212,46.5980744,0 11.72527,46.5980826,0 11.7253228,46.5980991,0 11.7253602,46.5981141,0 11.725406,46.5981281,0 11.7254567,46.5981346,0 11.7255008,46.5981364,0 11.7255509,46.5981319,0 11.7256602,46.598096,0 11.72577,46.5980629,0 11.7258591,46.5980477,0 11.7259202,46.598047,0 11.7261007,46.5980664,0 11.7261322,46.5980723,0 11.7261619,46.5980822,0 11.7261817,46.5980949,0 11.7261931,46.5980965,0 11.7262054,46.598095,0 11.7262246,46.5980878,0 11.7262432,46.598068,0 11.7262629,46.5980065,0 11.7262885,46.5978433,0 11.7263048,46.5977811,0 11.7263182,46.5977485,0 11.7263264,46.5977369,0 11.7263383,46.597729,0 11.726354,46.597726,0 11.7263727,46.5977279,0 11.7264307,46.5977411,0 11.7264611,46.5977452,0 11.7264862,46.5977412,0 11.7265117,46.5977312,0 11.7265343,46.5977173,0 11.7265682,46.5976822,0 11.7265877,46.5976702,0 11.7266302,46.5976538,0 11.7268464,46.5975907,0 11.727035,46.5975662,0 11.727172,46.5975527,0 11.7273183,46.5975687,0 11.727393,46.5975828,0 11.727519,46.5976368,0 11.727597,46.5976662,0 11.7277783,46.5977137,0 11.7279947,46.5977606,0 11.7283101,46.5978301,0 11.7286992,46.5978866,0 11.72918,46.597903,0 11.7293349,46.5978995,0 11.7294243,46.5978663,0 11.7294502,46.5978221,0 11.729461,46.5977079,0 11.7294499,46.5974973,0 11.7294436,46.5973994,0 11.7294135,46.597346,0 11.7293799,46.5973051,0 11.7293402,46.5972623,0 11.7292863,46.5972298,0 11.7291076,46.5971413,0 11.7290946,46.597096,0 11.7290766,46.5970715,0 11.7290756,46.5970616,0 11.7290934,46.5970551,0 11.7292113,46.5970283,0 11.7292815,46.5970197,0 11.7293857,46.5970073,0 11.7294388,46.5969927,0 11.7295496,46.5969292,0 11.7294882,46.5968232,0 11.7295155,46.5967476,0 11.7294852,46.5965763,0 11.7293862,46.5964795,0 11.7294939,46.5963533,0 11.7295179,46.5961081,0 11.7294958,46.595987,0 11.729507,46.595929,0 11.7294749,46.5957932,0 11.7295699,46.5956358,0 11.7294739,46.5954276,0 11.7296026,46.5954333,0 11.7296378,46.5954195,0 11.7295653,46.5953149,0 11.7294209,46.5952043,0 11.7294116,46.595149,0 11.7296482,46.5947695,0 11.7296861,46.5946738,0 11.7296896,46.5946171,0 11.7297387,46.594555,0 11.7301559,46.5948376,0 11.7303242,46.5949461,0 11.730474,46.5950049,0 11.7308707,46.594969,0 11.7312159,46.5949655,0 11.7314567,46.5950106,0 11.731804,46.5949933,0 11.7322221,46.5950349,0 11.7325865,46.5950144,0 11.7327061,46.5950354,0 11.7329324,46.5950911,0 11.7331681,46.5951313,0 11.7334032,46.5951544,0 11.7335601,46.5951882,0 11.7335778,46.5951252,0 11.7336137,46.5950154,0 11.733643,46.5949661,0 11.7336833,46.5949075,0 11.7336979,46.5948755,0 11.7337125,46.5948235,0 11.7337284,46.5948103,0 11.7337491,46.5948023,0 11.7337668,46.59479,0 11.7337924,46.5947574,0 11.7338554,46.5946659,0 11.7338763,46.5946225,0 11.7338737,46.5946027,0 11.7338677,46.5945828,0 11.7338535,46.594563,0 11.733846,46.5945446,0 11.7338444,46.5945206,0 11.7338578,46.5944895,0 11.7339261,46.5943571,0 11.7339448,46.5943284,0 11.7340199,46.5940733,0 11.734047,46.5939773,0 11.7341471,46.5938784,0 11.7342034,46.5936835,0 11.7342744,46.5934972,0 11.7342535,46.5933524,0 11.7341325,46.5930199,0 11.7338864,46.5927662,0 11.7338614,46.5927132,0 11.7337509,46.5925197,0 11.7336821,46.5924209,0 11.733607,46.5923549,0 11.7334651,46.5922818,0 11.7333636,46.5922502,0 11.7333689,46.5921325,0 11.7333998,46.5920017,0 11.7335319,46.591851,0 11.7335962,46.5917879,0 11.733605,46.5917254,0 11.7336433,46.5916595,0 11.7336646,46.591575,0 11.7337505,46.5915164,0 11.73379,46.5914247,0 11.7338544,46.5913542,0 11.7340926,46.5912788,0 11.7341639,46.5912642,0 11.7343613,46.5911699,0 11.7344432,46.5911446,0 11.734596,46.591163,0 11.7347013,46.5911156,0 11.7348555,46.5911248,0 11.7349347,46.5911455,0 11.7349762,46.5911469,0 11.7350567,46.5911188,0 11.735272,46.5910801,0 11.7353806,46.5910764,0 11.7354812,46.5910838,0 11.7358964,46.5910852,0 11.7361701,46.5910765,0 11.7362781,46.5910587,0 11.736523,46.5910329,0 11.7366734,46.5910017,0 11.7370075,46.5910286,0 11.7370838,46.5910414,0 11.737173,46.5910566,0 11.737242,46.5910828,0 11.7372655,46.5911026,0 11.7373901,46.5911077,0 11.737556,46.5909292,0 11.7377426,46.5907207,0 11.7378824,46.5904929,0 11.7379354,46.5904506,0 11.7379991,46.5904519,0 11.7380792,46.5904779,0 11.7382221,46.5905309,0 11.7383572,46.5905234,0 11.7384539,46.590482,0 11.7386582,46.5905341,0 11.7388836,46.5905059,0 11.7391464,46.5905041,0 11.739361,46.5905179,0 11.7398022,46.5905465,0 11.7399672,46.5905686,0 11.740116,46.5905686,0 11.7408738,46.5905621,0 11.7411634,46.5905262,0 11.7413592,46.5905667,0 11.741602,46.5905971,0 11.7417616,46.5906451,0 11.7418286,46.5907022,0 11.7419426,46.5907437,0 11.7420767,46.590752,0 11.7421116,46.5907409,0 11.742133,46.5907345,0 11.7421929,46.5906726,0 11.7422466,46.5906173,0 11.7424781,46.5904758,0 11.7426195,46.5903796,0 11.742834,46.5903279,0 11.7429949,46.5902671,0 11.7430646,46.5902265,0 11.7430943,46.5901684,0 11.743064,46.5900689,0 11.7430678,46.5899253,0 11.7430815,46.5898302,0 11.7431067,46.5897741,0 11.7431554,46.5897237,0 11.7432227,46.5896921,0 11.7433013,46.58968,0 11.7434784,46.5896827,0 11.7436914,46.5897046,0 11.7438282,46.5897083,0 11.7439753,46.5896864,0 11.7441198,46.5896122,0 11.7441905,46.5895496,0 11.7443043,46.5895076,0 11.7443694,46.5894763,0 11.7444162,46.5894211,0 11.7444076,46.5893336,0 11.7443679,46.5892434,0 11.7443724,46.5891869,0 11.744418,46.5890933,0 11.7446804,46.588828,0 11.7448399,46.5884284,0 11.744886,46.5879784,0 11.7449199,46.5878811,0 11.7449893,46.5877974,0 11.7451216,46.5877223,0 11.7451599,46.5876626,0 11.7451889,46.5874189,0 11.7452357,46.5873331,0 11.7452567,46.5871826,0 11.7451814,46.5870605,0 11.745134,46.5868485,0 11.7451361,46.5866032,0 11.7450214,46.5862091,0 11.7450277,46.5861001,0 11.7449881,46.5859668,0 11.7449991,46.5858954,0 11.745198,46.5856378,0 11.7452673,46.5855211,0 11.7453393,46.5854885,0 11.7454369,46.5854473,0 11.7455172,46.5854276,0 11.7456239,46.5853376,0 11.7456849,46.5852825,0 11.7457367,46.5851993,0 11.7457714,46.5851257,0 11.7457945,46.5850664,0 11.7457884,46.5850253,0 11.7457528,46.5849874,0 11.7455325,46.5849011,0 11.7454837,46.5847908,0 11.7453353,46.5848228,0 11.7453183,46.5847839,0</coordinates></LineString></Placemark></Document></kml>