<?xml version="1.0" encoding="UTF-8"?><kml xmlns="http://www.opengis.net/kml/2.2"><Document><name>Giau · Cinque Torri · Nuvolau</name><description>Планировочная реконструкция по OpenStreetMap, 09.09.2026. Не запись GPS и не проверенный навигационный трек. Высоты не экспортированы. Данные © OpenStreetMap contributors, ODbL. Автопереезды и канатки в пеший трек не включены.</description><Style id="track"><LineStyle><color>ff1775ba</color><width>4</width></LineStyle></Style><Placemark><name>Passo Giau</name><Point><coordinates>12.053666,46.4825196</coordinates></Point></Placemark><Placemark><name>Rifugio Cinque Torri</name><Point><coordinates>12.054734842857144,46.50819142857143</coordinates></Point></Placemark><Placemark><name>Rifugio Scoiattoli — вид на башни</name><Point><coordinates>12.04673854,46.50808874</coordinates></Point></Placemark><Placemark><name>Rifugio Averau (не вершина)</name><Point><coordinates>12.0405205,46.49958088571429</coordinates></Point></Placemark><Placemark><name>Rifugio Nuvolau</name><Point><coordinates>12.045709714285715,46.4952642</coordinates></Point></Placemark><Placemark><name>Giau — Cinque Torri — Nuvolau — Giau</name><description>Планировочная реконструкция по OpenStreetMap, 09.09.2026. Не запись GPS и не проверенный навигационный трек. Высоты не экспортированы. Данные © OpenStreetMap contributors, ODbL. Автопереезды и канатки в пеший трек не включены.</description><styleUrl>#track</styleUrl><LineString><tessellate>1</tessellate><altitudeMode>clampToGround</altitudeMode><coordinates>12.053666,46.4825196,0 12.0537717,46.482522,0 12.0537081,46.4826231,0 12.0536688,46.482912,0 12.0536221,46.483167,0 12.0536412,46.4835521,0 12.053633,46.4836409,0 12.053584,46.4838221,0 12.0535688,46.4840343,0 12.0535421,46.4844282,0 12.053524,46.4845228,0 12.0534919,46.4846214,0 12.0534788,46.4846562,0 12.0533746,46.4850753,0 12.0533706,46.4853349,0 12.0532743,46.4855935,0 12.0532697,46.485708,0 12.053386,46.4861162,0 12.0534235,46.4863157,0 12.0536113,46.4865484,0 12.0536381,46.4867146,0 12.0538473,46.4868586,0 12.0539308,46.4871087,0 12.0539376,46.4871893,0 12.0539197,46.4873111,0 12.0539868,46.4874274,0 12.0539204,46.487467,0 12.0538151,46.4875345,0 12.0538741,46.4878485,0 12.0537853,46.487958,0 12.053848,46.4880642,0 12.0540995,46.4882705,0 12.0542586,46.4883119,0 12.0544971,46.4883173,0 12.0547803,46.4884027,0 12.0548269,46.4885069,0 12.0548113,46.4886298,0 12.0548236,46.4887423,0 12.0550704,46.4888937,0 12.0550328,46.4890932,0 12.0550972,46.4892409,0 12.0555693,46.4896213,0 12.0555387,46.489721,0 12.0555961,46.4897801,0 12.0555639,46.4898466,0 12.055639,46.4901051,0 12.0555988,46.490275,0 12.0554754,46.4903858,0 12.0554352,46.4905151,0 12.055521,46.4906296,0 12.0554781,46.4906961,0 12.0556337,46.4908179,0 12.0560043,46.4910556,0 12.0560745,46.4911312,0 12.056103,46.4912093,0 12.0560462,46.4913248,0 12.0559484,46.491421,0 12.0557328,46.4915225,0 12.0557082,46.4915783,0 12.0557539,46.4916448,0 12.0558212,46.4916965,0 12.0559391,46.491719,0 12.0560776,46.4918486,0 12.0561757,46.4918191,0 12.0563552,46.4919924,0 12.0566556,46.4920903,0 12.056677,46.4922454,0 12.0568487,46.4925039,0 12.0571759,46.4926018,0 12.0571545,46.4930283,0 12.0570204,46.4932222,0 12.0570171,46.493364,0 12.0569614,46.493501,0 12.0570257,46.4936155,0 12.057003,46.4939691,0 12.0570088,46.4939959,0 12.0569772,46.4941258,0 12.057042,46.4942412,0 12.0570331,46.4943437,0 12.0569774,46.4943873,0 12.056846,46.4944114,0 12.0568066,46.4944764,0 12.0567289,46.4945006,0 12.0566422,46.4945461,0 12.0566188,46.4946436,0 12.0567538,46.4949078,0 12.056791,46.4951406,0 12.0567863,46.4952859,0 12.0564512,46.495616,0 12.0563119,46.4956785,0 12.05613,46.4957089,0 12.0559321,46.4958473,0 12.0558872,46.4960107,0 12.0557996,46.4960887,0 12.0556005,46.4961944,0 12.0553898,46.4964043,0 12.0553813,46.4964401,0 12.0551968,46.4964731,0 12.0550516,46.4965532,0 12.0550124,46.4966075,0 12.0550033,46.496712,0 12.0548907,46.4969207,0 12.054855,46.4970256,0 12.0548424,46.4972235,0 12.0547585,46.4973594,0 12.0545046,46.4977011,0 12.0544285,46.4980049,0 12.0543935,46.4981835,0 12.0543696,46.498219,0 12.0544215,46.4982606,0 12.0543921,46.4982714,0 12.0543859,46.4985265,0 12.0544077,46.4985823,0 12.0543858,46.4986143,0 12.0543392,46.4986646,0 12.0542461,46.4987017,0 12.0542306,46.498739,0 12.0542345,46.4987749,0 12.0539715,46.4988411,0 12.0535842,46.4988996,0 12.0532666,46.4989782,0 12.0530641,46.4990182,0 12.0529465,46.4991063,0 12.0527698,46.4992662,0 12.0527267,46.4994797,0 12.0526822,46.4995436,0 12.052729,46.499681,0 12.0526505,46.499762,0 12.0527969,46.4999773,0 12.0529924,46.5000542,0 12.0531328,46.5001106,0 12.0532438,46.5002305,0 12.0532112,46.5004484,0 12.0531596,46.5004583,0 12.0531726,46.5004926,0 12.053053,46.5005712,0 12.0530634,46.5006497,0 12.0530523,46.5006809,0 12.05308,46.5007229,0 12.0530945,46.500759,0 12.053162,46.5007541,0 12.0532002,46.5007965,0 12.0532445,46.5008644,0 12.0532229,46.5009189,0 12.0529681,46.5011668,0 12.052825,46.5012628,0 12.0527348,46.5014622,0 12.0525978,46.5015842,0 12.0526107,46.5016203,0 12.0525891,46.501637,0 12.0525496,46.5016329,0 12.0525384,46.5016519,0 12.052542,46.5016622,0 12.0525865,46.5016676,0 12.0525339,46.5017117,0 12.0524817,46.5017825,0 12.0523894,46.5018256,0 12.0523291,46.501866,0 12.0522601,46.5018835,0 12.0522741,46.5019187,0 12.0523178,46.5019497,0 12.0522787,46.5019694,0 12.0521947,46.5019595,0 12.0522576,46.5019997,0 12.0523158,46.5020165,0 12.0523382,46.5020947,0 12.052266,46.5022281,0 12.0523325,46.5022404,0 12.0523636,46.5023146,0 12.0523868,46.5023538,0 12.0524218,46.5024613,0 12.0525488,46.5026116,0 12.0525991,46.5026717,0 12.0527044,46.5027191,0 12.0527953,46.5027537,0 12.0529181,46.5027733,0 12.0530717,46.5028148,0 12.0531785,46.5029003,0 12.0532181,46.502919,0 12.0532592,46.5029919,0 12.0533118,46.5030474,0 12.0533217,46.503133,0 12.0532707,46.5031912,0 12.0532726,46.5032173,0 12.0532494,46.5032477,0 12.053217,46.5032418,0 12.053196,46.5032764,0 12.0531501,46.5032732,0 12.0531078,46.5032232,0 12.0530751,46.5031995,0 12.0530648,46.5032299,0 12.0529918,46.503251,0 12.0529992,46.5032662,0 12.0529905,46.5032863,0 12.0529388,46.5032755,0 12.0529568,46.5033024,0 12.0529458,46.5033152,0 12.0530058,46.503359,0 12.0530579,46.5034095,0 12.0531025,46.5034314,0 12.0532095,46.5035955,0 12.0531841,46.5036176,0 12.0532046,46.5036321,0 12.0531831,46.5036487,0 12.0532538,46.5036412,0 12.0532733,46.5036573,0 12.0532438,46.5037031,0 12.052804,46.5039944,0 12.0521597,46.5042046,0 12.0520145,46.5042687,0 12.0516471,46.5046771,0 12.0515291,46.5048308,0 12.0512053,46.5050462,0 12.0510685,46.5050609,0 12.0506932,46.5052214,0 12.0501624,46.5056977,0 12.0497891,46.5058271,0 12.0496653,46.5058412,0 12.0492586,46.5062962,0 12.0489607,46.5064679,0 12.0490524,46.5065798,0 12.0489905,46.5066602,0 12.048808,46.506714,0 12.0485821,46.5068169,0 12.0483994,46.507011,0 12.0484617,46.5072907,0 12.0485178,46.5073437,0 12.0485614,46.5073845,0 12.0488893,46.5073562,0 12.0490717,46.507302,0 12.0493104,46.507317,0 12.0494686,46.5073328,0 12.0497378,46.5073324,0 12.0500134,46.5073383,0 12.0501554,46.5073598,0 12.0502664,46.507387,0 12.0504632,46.5074359,0 12.0506784,46.5074452,0 12.0507429,46.5074461,0 12.0507945,46.5074559,0 12.0508873,46.5075041,0 12.0509661,46.5075442,0 12.0510765,46.5075727,0 12.0512742,46.5075964,0 12.0517573,46.5077078,0 12.0521389,46.5077902,0 12.0523943,46.5078638,0 12.052685,46.5079239,0 12.0528876,46.5079177,0 12.053073,46.5078897,0 12.0532327,46.5078911,0 12.0533196,46.5078972,0 12.0534069,46.5079097,0 12.0535532,46.5079617,0 12.0538005,46.5080427,0 12.0540554,46.5081273,0 12.0541994,46.5082048,0 12.0543037,46.5081964,0 12.0544034,46.5081848,0 12.0545692,46.5081534,0 12.0546641,46.5081047,0 12.0547182,46.5080937,0 12.0547744,46.508098,0 12.0547182,46.5080937,0 12.0546641,46.5081047,0 12.0545692,46.5081534,0 12.0544034,46.5081848,0 12.0543037,46.5081964,0 12.0541994,46.5082048,0 12.0540554,46.5081273,0 12.0538005,46.5080427,0 12.0535532,46.5079617,0 12.0534069,46.5079097,0 12.0533196,46.5078972,0 12.0532327,46.5078911,0 12.053073,46.5078897,0 12.0528876,46.5079177,0 12.052685,46.5079239,0 12.0523943,46.5078638,0 12.0521389,46.5077902,0 12.0517573,46.5077078,0 12.0512742,46.5075964,0 12.0510765,46.5075727,0 12.0509661,46.5075442,0 12.0508873,46.5075041,0 12.0507945,46.5074559,0 12.0507429,46.5074461,0 12.0506784,46.5074452,0 12.0504632,46.5074359,0 12.0502664,46.507387,0 12.0501554,46.5073598,0 12.0500134,46.5073383,0 12.0497378,46.5073324,0 12.0494686,46.5073328,0 12.0493104,46.507317,0 12.0490717,46.507302,0 12.0488893,46.5073562,0 12.0485614,46.5073845,0 12.048481,46.5073976,0 12.0482556,46.5074291,0 12.0480733,46.5074278,0 12.0479463,46.5074398,0 12.0478435,46.5074496,0 12.047757,46.5074422,0 12.0477021,46.5074375,0 12.0475372,46.5073914,0 12.0474233,46.5072913,0 12.0472481,46.5074724,0 12.0471708,46.5075743,0 12.0471601,46.5076821,0 12.0472052,46.507849,0 12.0471893,46.5078814,0 12.0471126,46.5078839,0 12.0470395,46.5078611,0 12.0468979,46.5078498,0 12.0468708,46.50781,0 12.0468106,46.5078498,0 12.0465712,46.507825,0 12.0465625,46.5079036,0 12.0465708,46.5080688,0 12.0466042,46.5081488,0 12.0465708,46.5080688,0 12.0465625,46.5079036,0 12.0465712,46.507825,0 12.0468106,46.5078498,0 12.0468708,46.50781,0 12.0468979,46.5078498,0 12.0470395,46.5078611,0 12.0471126,46.5078839,0 12.0471893,46.5078814,0 12.0472052,46.507849,0 12.0471601,46.5076821,0 12.0471708,46.5075743,0 12.0472481,46.5074724,0 12.0474233,46.5072913,0 12.0473966,46.5071292,0 12.0475605,46.5068934,0 12.0475046,46.5067576,0 12.0476089,46.5065961,0 12.0474748,46.5065012,0 12.0472886,46.5065089,0 12.0470764,46.5064423,0 12.0468976,46.5064654,0 12.0468096,46.5064528,0 12.046642,46.5063228,0 12.046724,46.5059606,0 12.0466992,46.5059081,0 12.0461844,46.5059121,0 12.0459498,46.5058858,0 12.0457382,46.5059252,0 12.0456589,46.5059191,0 12.0455837,46.5059134,0 12.0454584,46.5058092,0 12.0455382,46.5055245,0 12.0455893,46.5051286,0 12.0455415,46.5048545,0 12.0455627,46.5045943,0 12.0454813,46.5044088,0 12.0456022,46.5041299,0 12.0455376,46.5038993,0 12.0453655,46.5037115,0 12.0450659,46.503499,0 12.0446276,46.5032925,0 12.0445906,46.5032199,0 12.0445846,46.5031635,0 12.0445324,46.5029937,0 12.0444378,46.5028669,0 12.044379,46.5027647,0 12.044326,46.5027124,0 12.0441665,46.5026415,0 12.0440017,46.5024933,0 12.0439207,46.5024273,0 12.0437973,46.5024005,0 12.0437903,46.5023635,0 12.0438935,46.5023127,0 12.0439289,46.5022779,0 12.043888,46.5022309,0 12.0437917,46.5021995,0 12.0437327,46.5021595,0 12.043708,46.5019783,0 12.0437312,46.501862,0 12.0436734,46.5017245,0 12.0435463,46.5015554,0 12.0432564,46.5013958,0 12.0430574,46.50127,0 12.0428576,46.5010348,0 12.0427297,46.5009207,0 12.0426739,46.500812,0 12.042763,46.5007151,0 12.0427425,46.5006672,0 12.0426137,46.5006417,0 12.0424477,46.500639,0 12.0424384,46.5006143,0 12.0425085,46.5005709,0 12.042563,46.5002526,0 12.0426009,46.500015,0 12.0424059,46.50002,0 12.0422514,46.50002,0 12.0421416,46.4999528,0 12.0420196,46.4998493,0 12.041918,46.4997877,0 12.0415033,46.4997429,0 12.0411281,46.4997015,0 12.0410347,46.499636,0 12.0409337,46.4996215,0 12.0406179,46.4996743,0 12.0409337,46.4996215,0 12.0410347,46.499636,0 12.0411281,46.4997015,0 12.0415033,46.4997429,0 12.041918,46.4997877,0 12.0420196,46.4998493,0 12.0421416,46.4999528,0 12.0422514,46.50002,0 12.0424059,46.50002,0 12.0426009,46.500015,0 12.0426267,46.4998534,0 12.0426831,46.4997469,0 12.0427817,46.4996085,0 12.0428096,46.4995277,0 12.0428431,46.4994872,0 12.0430285,46.4991693,0 12.0430578,46.4991089,0 12.0430711,46.4990797,0 12.0431956,46.498977,0 12.0435025,46.498802,0 12.0436383,46.4986804,0 12.0436686,46.4985412,0 12.0436686,46.4983324,0 12.0436738,46.4981419,0 12.0438159,46.4974868,0 12.0440346,46.4971237,0 12.0441937,46.4970654,0 12.0445421,46.4968231,0 12.0446694,46.4966311,0 12.0447422,46.4964906,0 12.0447851,46.4962448,0 12.0449562,46.4960474,0 12.04523,46.495891,0 12.0453863,46.4957805,0 12.0455017,46.4956969,0 12.0455664,46.4955906,0 12.0455149,46.4953982,0 12.0455164,46.4953153,0 12.0455462,46.4952616,0 12.0455861,46.4952312,0 12.0455462,46.4952616,0 12.0455164,46.4953153,0 12.0455149,46.4953982,0 12.0455664,46.4955906,0 12.0455017,46.4956969,0 12.0453863,46.4957805,0 12.04523,46.495891,0 12.0449562,46.4960474,0 12.0447851,46.4962448,0 12.0447422,46.4964906,0 12.0446694,46.4966311,0 12.0445421,46.4968231,0 12.0441937,46.4970654,0 12.0440346,46.4971237,0 12.0438159,46.4974868,0 12.0436738,46.4981419,0 12.0436686,46.4983324,0 12.0436686,46.4985412,0 12.0436383,46.4986804,0 12.0435025,46.498802,0 12.0431956,46.498977,0 12.0430711,46.4990797,0 12.0430578,46.4991089,0 12.0430285,46.4991693,0 12.0428431,46.4994872,0 12.0428096,46.4995277,0 12.0427817,46.4996085,0 12.0426831,46.4997469,0 12.0426267,46.4998534,0 12.0426009,46.500015,0 12.0424059,46.50002,0 12.0422514,46.50002,0 12.0421416,46.4999528,0 12.0420196,46.4998493,0 12.041918,46.4997877,0 12.0415033,46.4997429,0 12.0411281,46.4997015,0 12.0410347,46.499636,0 12.0409337,46.4996215,0 12.0406179,46.4996743,0 12.0404582,46.4997244,0 12.0403309,46.499596,0 12.0403065,46.4994923,0 12.0402079,46.4994234,0 12.040015,46.4992959,0 12.0398098,46.4991753,0 12.0396618,46.4990932,0 12.0396194,46.4990758,0 12.0394927,46.4990047,0 12.0394797,46.4989521,0 12.0395278,46.4989372,0 12.0400306,46.499103,0 12.0401053,46.4991141,0 12.0402216,46.4991074,0 12.0403239,46.4990894,0 12.0403666,46.4990751,0 12.0404136,46.4990502,0 12.040565,46.4989033,0 12.0406605,46.4987736,0 12.0406845,46.4987337,0 12.0407106,46.4986608,0 12.0407113,46.4985929,0 12.0407073,46.4985681,0 12.0406924,46.4985508,0 12.0406188,46.4985214,0 12.0405137,46.498495,0 12.0403932,46.498446,0 12.0401286,46.4982898,0 12.0399182,46.4981151,0 12.039888,46.4980838,0 12.0398493,46.498073,0 12.0397632,46.4980717,0 12.0395785,46.4980601,0 12.0394743,46.4980788,0 12.0393055,46.4981347,0 12.0391597,46.498125,0 12.0390005,46.4980537,0 12.0387659,46.4979468,0 12.0386661,46.4979551,0 12.0385207,46.4979896,0 12.0383421,46.4979613,0 12.0381872,46.4978769,0 12.0377438,46.4978867,0 12.0376224,46.4979264,0 12.0374761,46.4979285,0 12.0373325,46.4979424,0 12.0371384,46.4979118,0 12.0370104,46.497879,0 12.0369179,46.4978867,0 12.036833,46.4979216,0 12.0366752,46.4980413,0 12.0365451,46.4981119,0 12.03621,46.4981415,0 12.0360644,46.498136,0 12.0360138,46.4981151,0 12.035972,46.4980705,0 12.035935,46.4979578,0 12.0359329,46.4978854,0 12.0360251,46.4976154,0 12.0361842,46.4972798,0 12.0362543,46.497132,0 12.036277,46.4971098,0 12.0363081,46.4970847,0 12.0363393,46.4970812,0 12.0363803,46.4970857,0 12.0365535,46.497132,0 12.036687,46.4971387,0 12.0369466,46.497126,0 12.0374158,46.4971493,0 12.0375165,46.4971338,0 12.0375675,46.4970893,0 12.0375495,46.4970511,0 12.0374928,46.4970335,0 12.0372445,46.4969439,0 12.0372131,46.4969095,0 12.0372135,46.4968746,0 12.0372325,46.4968526,0 12.037483,46.496867,0 12.0375872,46.4968675,0 12.0376595,46.4968578,0 12.0377192,46.496824,0 12.0378731,46.4966405,0 12.0379171,46.496621,0 12.038243,46.4965902,0 12.0383082,46.4965896,0 12.0384601,46.4965839,0 12.0386082,46.4965998,0 12.0387178,46.4965906,0 12.0389855,46.4964871,0 12.0396151,46.4965014,0 12.0398619,46.4965569,0 12.0401449,46.4964751,0 12.0405462,46.4964831,0 12.0408758,46.4963797,0 12.041136,46.4963787,0 12.0414641,46.496123,0 12.0415846,46.4961238,0 12.0416514,46.4960361,0 12.041619,46.4959891,0 12.0416637,46.4959823,0 12.0416585,46.4959262,0 12.0417215,46.4958983,0 12.0419343,46.4954685,0 12.0420028,46.4954371,0 12.0421513,46.4953689,0 12.0425261,46.494966,0 12.0426285,46.4946692,0 12.0428096,46.4944958,0 12.0430214,46.4943758,0 12.0432463,46.4943164,0 12.0432869,46.4942084,0 12.0432601,46.4939214,0 12.0432298,46.4937862,0 12.0433137,46.4936467,0 12.04359,46.493418,0 12.0436383,46.4932817,0 12.0436503,46.4931874,0 12.0437188,46.4930459,0 12.0439538,46.4928374,0 12.044149,46.4923139,0 12.0440939,46.4921345,0 12.0441046,46.4920181,0 12.0441231,46.4919433,0 12.044167,46.4919035,0 12.04424,46.4918928,0 12.0445047,46.4919019,0 12.0447055,46.4918619,0 12.0449048,46.4918509,0 12.045069,46.4917984,0 12.0452158,46.4916967,0 12.0452934,46.4916439,0 12.0456218,46.4915293,0 12.0459643,46.4914211,0 12.0460358,46.4913796,0 12.0461445,46.491249,0 12.0462305,46.4911964,0 12.0465938,46.4911101,0 12.0467257,46.4910405,0 12.0467813,46.4909102,0 12.0468773,46.4907932,0 12.0469025,46.4906386,0 12.0471083,46.4903135,0 12.0472196,46.4902095,0 12.0472866,46.4900174,0 12.0473847,46.4898299,0 12.0472815,46.4895899,0 12.0474526,46.4893343,0 12.0475309,46.4893027,0 12.0476168,46.4892768,0 12.0477456,46.4892641,0 12.0478078,46.4892405,0 12.047866,46.4892534,0 12.0478861,46.4892406,0 12.0480417,46.4892282,0 12.048211,46.4891729,0 12.0482949,46.4892018,0 12.0483854,46.489183,0 12.048457,46.4892472,0 12.0486294,46.4892896,0 12.0486808,46.4893269,0 12.0487649,46.4893247,0 12.0488358,46.4893449,0 12.048898,46.4893324,0 12.0489991,46.4893381,0 12.0491556,46.4892847,0 12.049653,46.4893092,0 12.0498568,46.489254,0 12.0500329,46.4891929,0 12.0501077,46.4891102,0 12.050108,46.4889684,0 12.0501349,46.488943,0 12.0502038,46.4889293,0 12.0501856,46.4888719,0 12.0501329,46.4888154,0 12.0501768,46.488769,0 12.0502506,46.4887606,0 12.0502668,46.4887121,0 12.0503847,46.4886035,0 12.0505507,46.4885888,0 12.0506327,46.4885803,0 12.0507186,46.4885358,0 12.0507945,46.4884408,0 12.0507823,46.4883584,0 12.050803,46.4883233,0 12.0510522,46.488249,0 12.0512188,46.4880692,0 12.0513237,46.4879043,0 12.0515641,46.4876891,0 12.0517832,46.4873441,0 12.0519335,46.4871553,0 12.0524249,46.4865272,0 12.0525273,46.4863493,0 12.0527226,46.4859147,0 12.0527875,46.485804,0 12.0529261,46.485611,0 12.0531715,46.4853458,0 12.0533746,46.4850753,0 12.0534788,46.4846562,0 12.0534919,46.4846214,0 12.053524,46.4845228,0 12.0535421,46.4844282,0 12.0535688,46.4840343,0 12.053584,46.4838221,0 12.053633,46.4836409,0 12.0536412,46.4835521,0 12.0536221,46.483167,0 12.0536688,46.482912,0 12.0537081,46.4826231,0 12.0537717,46.482522,0 12.053666,46.4825196,0</coordinates></LineString></Placemark></Document></kml>