<?xml version="1.0" encoding="UTF-8"?><gpx version="1.1" creator="Dolomites Atlas" xmlns="http://www.topografix.com/GPX/1/1"><metadata><name>Giau · Cinque Torri · Nuvolau</name><desc>Планировочная реконструкция по OpenStreetMap, 09.09.2026. Не запись GPS и не проверенный навигационный трек. Высоты не экспортированы. Данные © OpenStreetMap contributors, ODbL. Автопереезды и канатки в пеший трек не включены.</desc><link href="https://www.openstreetmap.org/copyright"><text>OpenStreetMap contributors · ODbL</text></link></metadata><wpt lat="46.4825196" lon="12.053666"><name>Passo Giau</name></wpt><wpt lat="46.50819142857143" lon="12.054734842857144"><name>Rifugio Cinque Torri</name></wpt><wpt lat="46.50808874" lon="12.04673854"><name>Rifugio Scoiattoli — вид на башни</name></wpt><wpt lat="46.49958088571429" lon="12.0405205"><name>Rifugio Averau (не вершина)</name></wpt><wpt lat="46.4952642" lon="12.045709714285715"><name>Rifugio Nuvolau</name></wpt><trk><name>Giau — Cinque Torri — Nuvolau — Giau</name><desc>Планировочная реконструкция по OpenStreetMap, 09.09.2026. Не запись GPS и не проверенный навигационный трек. Высоты не экспортированы. Данные © OpenStreetMap contributors, ODbL. Автопереезды и канатки в пеший трек не включены.</desc><type>hiking</type><trkseg><trkpt lat="46.4825196" lon="12.053666"/><trkpt lat="46.482522" lon="12.0537717"/><trkpt lat="46.4826231" lon="12.0537081"/><trkpt lat="46.482912" lon="12.0536688"/><trkpt lat="46.483167" lon="12.0536221"/><trkpt lat="46.4835521" lon="12.0536412"/><trkpt lat="46.4836409" lon="12.053633"/><trkpt lat="46.4838221" lon="12.053584"/><trkpt lat="46.4840343" lon="12.0535688"/><trkpt lat="46.4844282" lon="12.0535421"/><trkpt lat="46.4845228" lon="12.053524"/><trkpt lat="46.4846214" lon="12.0534919"/><trkpt lat="46.4846562" lon="12.0534788"/><trkpt lat="46.4850753" lon="12.0533746"/><trkpt lat="46.4853349" lon="12.0533706"/><trkpt lat="46.4855935" lon="12.0532743"/><trkpt lat="46.485708" lon="12.0532697"/><trkpt lat="46.4861162" lon="12.053386"/><trkpt lat="46.4863157" lon="12.0534235"/><trkpt lat="46.4865484" lon="12.0536113"/><trkpt lat="46.4867146" lon="12.0536381"/><trkpt lat="46.4868586" lon="12.0538473"/><trkpt lat="46.4871087" lon="12.0539308"/><trkpt lat="46.4871893" lon="12.0539376"/><trkpt lat="46.4873111" lon="12.0539197"/><trkpt lat="46.4874274" lon="12.0539868"/><trkpt lat="46.487467" lon="12.0539204"/><trkpt lat="46.4875345" lon="12.0538151"/><trkpt lat="46.4878485" lon="12.0538741"/><trkpt lat="46.487958" lon="12.0537853"/><trkpt lat="46.4880642" lon="12.053848"/><trkpt lat="46.4882705" lon="12.0540995"/><trkpt lat="46.4883119" lon="12.0542586"/><trkpt lat="46.4883173" lon="12.0544971"/><trkpt lat="46.4884027" lon="12.0547803"/><trkpt lat="46.4885069" lon="12.0548269"/><trkpt lat="46.4886298" lon="12.0548113"/><trkpt lat="46.4887423" lon="12.0548236"/><trkpt lat="46.4888937" lon="12.0550704"/><trkpt lat="46.4890932" lon="12.0550328"/><trkpt lat="46.4892409" lon="12.0550972"/><trkpt lat="46.4896213" lon="12.0555693"/><trkpt lat="46.489721" lon="12.0555387"/><trkpt lat="46.4897801" lon="12.0555961"/><trkpt lat="46.4898466" lon="12.0555639"/><trkpt lat="46.4901051" lon="12.055639"/><trkpt lat="46.490275" lon="12.0555988"/><trkpt lat="46.4903858" lon="12.0554754"/><trkpt lat="46.4905151" lon="12.0554352"/><trkpt lat="46.4906296" lon="12.055521"/><trkpt lat="46.4906961" lon="12.0554781"/><trkpt lat="46.4908179" lon="12.0556337"/><trkpt lat="46.4910556" lon="12.0560043"/><trkpt lat="46.4911312" lon="12.0560745"/><trkpt lat="46.4912093" lon="12.056103"/><trkpt lat="46.4913248" lon="12.0560462"/><trkpt lat="46.491421" lon="12.0559484"/><trkpt lat="46.4915225" lon="12.0557328"/><trkpt lat="46.4915783" lon="12.0557082"/><trkpt lat="46.4916448" lon="12.0557539"/><trkpt lat="46.4916965" lon="12.0558212"/><trkpt lat="46.491719" lon="12.0559391"/><trkpt lat="46.4918486" lon="12.0560776"/><trkpt lat="46.4918191" lon="12.0561757"/><trkpt lat="46.4919924" lon="12.0563552"/><trkpt lat="46.4920903" lon="12.0566556"/><trkpt lat="46.4922454" lon="12.056677"/><trkpt lat="46.4925039" lon="12.0568487"/><trkpt lat="46.4926018" lon="12.0571759"/><trkpt lat="46.4930283" lon="12.0571545"/><trkpt lat="46.4932222" lon="12.0570204"/><trkpt lat="46.493364" lon="12.0570171"/><trkpt lat="46.493501" lon="12.0569614"/><trkpt lat="46.4936155" lon="12.0570257"/><trkpt lat="46.4939691" lon="12.057003"/><trkpt lat="46.4939959" lon="12.0570088"/><trkpt lat="46.4941258" lon="12.0569772"/><trkpt lat="46.4942412" lon="12.057042"/><trkpt lat="46.4943437" lon="12.0570331"/><trkpt lat="46.4943873" lon="12.0569774"/><trkpt lat="46.4944114" lon="12.056846"/><trkpt lat="46.4944764" lon="12.0568066"/><trkpt lat="46.4945006" lon="12.0567289"/><trkpt lat="46.4945461" lon="12.0566422"/><trkpt lat="46.4946436" lon="12.0566188"/><trkpt lat="46.4949078" lon="12.0567538"/><trkpt lat="46.4951406" lon="12.056791"/><trkpt lat="46.4952859" lon="12.0567863"/><trkpt lat="46.495616" lon="12.0564512"/><trkpt lat="46.4956785" lon="12.0563119"/><trkpt lat="46.4957089" lon="12.05613"/><trkpt lat="46.4958473" lon="12.0559321"/><trkpt lat="46.4960107" lon="12.0558872"/><trkpt lat="46.4960887" lon="12.0557996"/><trkpt lat="46.4961944" lon="12.0556005"/><trkpt lat="46.4964043" lon="12.0553898"/><trkpt lat="46.4964401" lon="12.0553813"/><trkpt lat="46.4964731" lon="12.0551968"/><trkpt lat="46.4965532" lon="12.0550516"/><trkpt lat="46.4966075" lon="12.0550124"/><trkpt lat="46.496712" lon="12.0550033"/><trkpt lat="46.4969207" lon="12.0548907"/><trkpt lat="46.4970256" lon="12.054855"/><trkpt lat="46.4972235" lon="12.0548424"/><trkpt lat="46.4973594" lon="12.0547585"/><trkpt lat="46.4977011" lon="12.0545046"/><trkpt lat="46.4980049" lon="12.0544285"/><trkpt lat="46.4981835" lon="12.0543935"/><trkpt lat="46.498219" lon="12.0543696"/><trkpt lat="46.4982606" lon="12.0544215"/><trkpt lat="46.4982714" lon="12.0543921"/><trkpt lat="46.4985265" lon="12.0543859"/><trkpt lat="46.4985823" lon="12.0544077"/><trkpt lat="46.4986143" lon="12.0543858"/><trkpt lat="46.4986646" lon="12.0543392"/><trkpt lat="46.4987017" lon="12.0542461"/><trkpt lat="46.498739" lon="12.0542306"/><trkpt lat="46.4987749" lon="12.0542345"/><trkpt lat="46.4988411" lon="12.0539715"/><trkpt lat="46.4988996" lon="12.0535842"/><trkpt lat="46.4989782" lon="12.0532666"/><trkpt lat="46.4990182" lon="12.0530641"/><trkpt lat="46.4991063" lon="12.0529465"/><trkpt lat="46.4992662" lon="12.0527698"/><trkpt lat="46.4994797" lon="12.0527267"/><trkpt lat="46.4995436" lon="12.0526822"/><trkpt lat="46.499681" lon="12.052729"/><trkpt lat="46.499762" lon="12.0526505"/><trkpt lat="46.4999773" lon="12.0527969"/><trkpt lat="46.5000542" lon="12.0529924"/><trkpt lat="46.5001106" lon="12.0531328"/><trkpt lat="46.5002305" lon="12.0532438"/><trkpt lat="46.5004484" lon="12.0532112"/><trkpt lat="46.5004583" lon="12.0531596"/><trkpt lat="46.5004926" lon="12.0531726"/><trkpt lat="46.5005712" lon="12.053053"/><trkpt lat="46.5006497" lon="12.0530634"/><trkpt lat="46.5006809" lon="12.0530523"/><trkpt lat="46.5007229" lon="12.05308"/><trkpt lat="46.500759" lon="12.0530945"/><trkpt lat="46.5007541" lon="12.053162"/><trkpt lat="46.5007965" lon="12.0532002"/><trkpt lat="46.5008644" lon="12.0532445"/><trkpt lat="46.5009189" lon="12.0532229"/><trkpt lat="46.5011668" lon="12.0529681"/><trkpt lat="46.5012628" lon="12.052825"/><trkpt lat="46.5014622" lon="12.0527348"/><trkpt lat="46.5015842" lon="12.0525978"/><trkpt lat="46.5016203" lon="12.0526107"/><trkpt lat="46.501637" lon="12.0525891"/><trkpt lat="46.5016329" lon="12.0525496"/><trkpt lat="46.5016519" lon="12.0525384"/><trkpt lat="46.5016622" lon="12.052542"/><trkpt lat="46.5016676" lon="12.0525865"/><trkpt lat="46.5017117" lon="12.0525339"/><trkpt lat="46.5017825" lon="12.0524817"/><trkpt lat="46.5018256" lon="12.0523894"/><trkpt lat="46.501866" lon="12.0523291"/><trkpt lat="46.5018835" lon="12.0522601"/><trkpt lat="46.5019187" lon="12.0522741"/><trkpt lat="46.5019497" lon="12.0523178"/><trkpt lat="46.5019694" lon="12.0522787"/><trkpt lat="46.5019595" lon="12.0521947"/><trkpt lat="46.5019997" lon="12.0522576"/><trkpt lat="46.5020165" lon="12.0523158"/><trkpt lat="46.5020947" lon="12.0523382"/><trkpt lat="46.5022281" lon="12.052266"/><trkpt lat="46.5022404" lon="12.0523325"/><trkpt lat="46.5023146" lon="12.0523636"/><trkpt lat="46.5023538" lon="12.0523868"/><trkpt lat="46.5024613" lon="12.0524218"/><trkpt lat="46.5026116" lon="12.0525488"/><trkpt lat="46.5026717" lon="12.0525991"/><trkpt lat="46.5027191" lon="12.0527044"/><trkpt lat="46.5027537" lon="12.0527953"/><trkpt lat="46.5027733" lon="12.0529181"/><trkpt lat="46.5028148" lon="12.0530717"/><trkpt lat="46.5029003" lon="12.0531785"/><trkpt lat="46.502919" lon="12.0532181"/><trkpt lat="46.5029919" lon="12.0532592"/><trkpt lat="46.5030474" lon="12.0533118"/><trkpt lat="46.503133" lon="12.0533217"/><trkpt lat="46.5031912" lon="12.0532707"/><trkpt lat="46.5032173" lon="12.0532726"/><trkpt lat="46.5032477" lon="12.0532494"/><trkpt lat="46.5032418" lon="12.053217"/><trkpt lat="46.5032764" lon="12.053196"/><trkpt lat="46.5032732" lon="12.0531501"/><trkpt lat="46.5032232" lon="12.0531078"/><trkpt lat="46.5031995" lon="12.0530751"/><trkpt lat="46.5032299" lon="12.0530648"/><trkpt lat="46.503251" lon="12.0529918"/><trkpt lat="46.5032662" lon="12.0529992"/><trkpt lat="46.5032863" lon="12.0529905"/><trkpt lat="46.5032755" lon="12.0529388"/><trkpt lat="46.5033024" lon="12.0529568"/><trkpt lat="46.5033152" lon="12.0529458"/><trkpt lat="46.503359" lon="12.0530058"/><trkpt lat="46.5034095" lon="12.0530579"/><trkpt lat="46.5034314" lon="12.0531025"/><trkpt lat="46.5035955" lon="12.0532095"/><trkpt lat="46.5036176" lon="12.0531841"/><trkpt lat="46.5036321" lon="12.0532046"/><trkpt lat="46.5036487" lon="12.0531831"/><trkpt lat="46.5036412" lon="12.0532538"/><trkpt lat="46.5036573" lon="12.0532733"/><trkpt lat="46.5037031" lon="12.0532438"/><trkpt lat="46.5039944" lon="12.052804"/><trkpt lat="46.5042046" lon="12.0521597"/><trkpt lat="46.5042687" lon="12.0520145"/><trkpt lat="46.5046771" lon="12.0516471"/><trkpt lat="46.5048308" lon="12.0515291"/><trkpt lat="46.5050462" lon="12.0512053"/><trkpt lat="46.5050609" lon="12.0510685"/><trkpt lat="46.5052214" lon="12.0506932"/><trkpt lat="46.5056977" lon="12.0501624"/><trkpt lat="46.5058271" lon="12.0497891"/><trkpt lat="46.5058412" lon="12.0496653"/><trkpt lat="46.5062962" lon="12.0492586"/><trkpt lat="46.5064679" lon="12.0489607"/><trkpt lat="46.5065798" lon="12.0490524"/><trkpt lat="46.5066602" lon="12.0489905"/><trkpt lat="46.506714" lon="12.048808"/><trkpt lat="46.5068169" lon="12.0485821"/><trkpt lat="46.507011" lon="12.0483994"/><trkpt lat="46.5072907" lon="12.0484617"/><trkpt lat="46.5073437" lon="12.0485178"/><trkpt lat="46.5073845" lon="12.0485614"/><trkpt lat="46.5073562" lon="12.0488893"/><trkpt lat="46.507302" lon="12.0490717"/><trkpt lat="46.507317" lon="12.0493104"/><trkpt lat="46.5073328" lon="12.0494686"/><trkpt lat="46.5073324" lon="12.0497378"/><trkpt lat="46.5073383" lon="12.0500134"/><trkpt lat="46.5073598" lon="12.0501554"/><trkpt lat="46.507387" lon="12.0502664"/><trkpt lat="46.5074359" lon="12.0504632"/><trkpt lat="46.5074452" lon="12.0506784"/><trkpt lat="46.5074461" lon="12.0507429"/><trkpt lat="46.5074559" lon="12.0507945"/><trkpt lat="46.5075041" lon="12.0508873"/><trkpt lat="46.5075442" lon="12.0509661"/><trkpt lat="46.5075727" lon="12.0510765"/><trkpt lat="46.5075964" lon="12.0512742"/><trkpt lat="46.5077078" lon="12.0517573"/><trkpt lat="46.5077902" lon="12.0521389"/><trkpt lat="46.5078638" lon="12.0523943"/><trkpt lat="46.5079239" lon="12.052685"/><trkpt lat="46.5079177" lon="12.0528876"/><trkpt lat="46.5078897" lon="12.053073"/><trkpt lat="46.5078911" lon="12.0532327"/><trkpt lat="46.5078972" lon="12.0533196"/><trkpt lat="46.5079097" lon="12.0534069"/><trkpt lat="46.5079617" lon="12.0535532"/><trkpt lat="46.5080427" lon="12.0538005"/><trkpt lat="46.5081273" lon="12.0540554"/><trkpt lat="46.5082048" lon="12.0541994"/><trkpt lat="46.5081964" lon="12.0543037"/><trkpt lat="46.5081848" lon="12.0544034"/><trkpt lat="46.5081534" lon="12.0545692"/><trkpt lat="46.5081047" lon="12.0546641"/><trkpt lat="46.5080937" lon="12.0547182"/><trkpt lat="46.508098" lon="12.0547744"/><trkpt lat="46.5080937" lon="12.0547182"/><trkpt lat="46.5081047" lon="12.0546641"/><trkpt lat="46.5081534" lon="12.0545692"/><trkpt lat="46.5081848" lon="12.0544034"/><trkpt lat="46.5081964" lon="12.0543037"/><trkpt lat="46.5082048" lon="12.0541994"/><trkpt lat="46.5081273" lon="12.0540554"/><trkpt lat="46.5080427" lon="12.0538005"/><trkpt lat="46.5079617" lon="12.0535532"/><trkpt lat="46.5079097" lon="12.0534069"/><trkpt lat="46.5078972" lon="12.0533196"/><trkpt lat="46.5078911" lon="12.0532327"/><trkpt lat="46.5078897" lon="12.053073"/><trkpt lat="46.5079177" lon="12.0528876"/><trkpt lat="46.5079239" lon="12.052685"/><trkpt lat="46.5078638" lon="12.0523943"/><trkpt lat="46.5077902" lon="12.0521389"/><trkpt lat="46.5077078" lon="12.0517573"/><trkpt lat="46.5075964" lon="12.0512742"/><trkpt lat="46.5075727" lon="12.0510765"/><trkpt lat="46.5075442" lon="12.0509661"/><trkpt lat="46.5075041" lon="12.0508873"/><trkpt lat="46.5074559" lon="12.0507945"/><trkpt lat="46.5074461" lon="12.0507429"/><trkpt lat="46.5074452" lon="12.0506784"/><trkpt lat="46.5074359" lon="12.0504632"/><trkpt lat="46.507387" lon="12.0502664"/><trkpt lat="46.5073598" lon="12.0501554"/><trkpt lat="46.5073383" lon="12.0500134"/><trkpt lat="46.5073324" lon="12.0497378"/><trkpt lat="46.5073328" lon="12.0494686"/><trkpt lat="46.507317" lon="12.0493104"/><trkpt lat="46.507302" lon="12.0490717"/><trkpt lat="46.5073562" lon="12.0488893"/><trkpt lat="46.5073845" lon="12.0485614"/><trkpt lat="46.5073976" lon="12.048481"/><trkpt lat="46.5074291" lon="12.0482556"/><trkpt lat="46.5074278" lon="12.0480733"/><trkpt lat="46.5074398" lon="12.0479463"/><trkpt lat="46.5074496" lon="12.0478435"/><trkpt lat="46.5074422" lon="12.047757"/><trkpt lat="46.5074375" lon="12.0477021"/><trkpt lat="46.5073914" lon="12.0475372"/><trkpt lat="46.5072913" lon="12.0474233"/><trkpt lat="46.5074724" lon="12.0472481"/><trkpt lat="46.5075743" lon="12.0471708"/><trkpt lat="46.5076821" lon="12.0471601"/><trkpt lat="46.507849" lon="12.0472052"/><trkpt lat="46.5078814" lon="12.0471893"/><trkpt lat="46.5078839" lon="12.0471126"/><trkpt lat="46.5078611" lon="12.0470395"/><trkpt lat="46.5078498" lon="12.0468979"/><trkpt lat="46.50781" lon="12.0468708"/><trkpt lat="46.5078498" lon="12.0468106"/><trkpt lat="46.507825" lon="12.0465712"/><trkpt lat="46.5079036" lon="12.0465625"/><trkpt lat="46.5080688" lon="12.0465708"/><trkpt lat="46.5081488" lon="12.0466042"/><trkpt lat="46.5080688" lon="12.0465708"/><trkpt lat="46.5079036" lon="12.0465625"/><trkpt lat="46.507825" lon="12.0465712"/><trkpt lat="46.5078498" lon="12.0468106"/><trkpt lat="46.50781" lon="12.0468708"/><trkpt lat="46.5078498" lon="12.0468979"/><trkpt lat="46.5078611" lon="12.0470395"/><trkpt lat="46.5078839" lon="12.0471126"/><trkpt lat="46.5078814" lon="12.0471893"/><trkpt lat="46.507849" lon="12.0472052"/><trkpt lat="46.5076821" lon="12.0471601"/><trkpt lat="46.5075743" lon="12.0471708"/><trkpt lat="46.5074724" lon="12.0472481"/><trkpt lat="46.5072913" lon="12.0474233"/><trkpt lat="46.5071292" lon="12.0473966"/><trkpt lat="46.5068934" lon="12.0475605"/><trkpt lat="46.5067576" lon="12.0475046"/><trkpt lat="46.5065961" lon="12.0476089"/><trkpt lat="46.5065012" lon="12.0474748"/><trkpt lat="46.5065089" lon="12.0472886"/><trkpt lat="46.5064423" lon="12.0470764"/><trkpt lat="46.5064654" lon="12.0468976"/><trkpt lat="46.5064528" lon="12.0468096"/><trkpt lat="46.5063228" lon="12.046642"/><trkpt lat="46.5059606" lon="12.046724"/><trkpt lat="46.5059081" lon="12.0466992"/><trkpt lat="46.5059121" lon="12.0461844"/><trkpt lat="46.5058858" lon="12.0459498"/><trkpt lat="46.5059252" lon="12.0457382"/><trkpt lat="46.5059191" lon="12.0456589"/><trkpt lat="46.5059134" lon="12.0455837"/><trkpt lat="46.5058092" lon="12.0454584"/><trkpt lat="46.5055245" lon="12.0455382"/><trkpt lat="46.5051286" lon="12.0455893"/><trkpt lat="46.5048545" lon="12.0455415"/><trkpt lat="46.5045943" lon="12.0455627"/><trkpt lat="46.5044088" lon="12.0454813"/><trkpt lat="46.5041299" lon="12.0456022"/><trkpt lat="46.5038993" lon="12.0455376"/><trkpt lat="46.5037115" lon="12.0453655"/><trkpt lat="46.503499" lon="12.0450659"/><trkpt lat="46.5032925" lon="12.0446276"/><trkpt lat="46.5032199" lon="12.0445906"/><trkpt lat="46.5031635" lon="12.0445846"/><trkpt lat="46.5029937" lon="12.0445324"/><trkpt lat="46.5028669" lon="12.0444378"/><trkpt lat="46.5027647" lon="12.044379"/><trkpt lat="46.5027124" lon="12.044326"/><trkpt lat="46.5026415" lon="12.0441665"/><trkpt lat="46.5024933" lon="12.0440017"/><trkpt lat="46.5024273" lon="12.0439207"/><trkpt lat="46.5024005" lon="12.0437973"/><trkpt lat="46.5023635" lon="12.0437903"/><trkpt lat="46.5023127" lon="12.0438935"/><trkpt lat="46.5022779" lon="12.0439289"/><trkpt lat="46.5022309" lon="12.043888"/><trkpt lat="46.5021995" lon="12.0437917"/><trkpt lat="46.5021595" lon="12.0437327"/><trkpt lat="46.5019783" lon="12.043708"/><trkpt lat="46.501862" lon="12.0437312"/><trkpt lat="46.5017245" lon="12.0436734"/><trkpt lat="46.5015554" lon="12.0435463"/><trkpt lat="46.5013958" lon="12.0432564"/><trkpt lat="46.50127" lon="12.0430574"/><trkpt lat="46.5010348" lon="12.0428576"/><trkpt lat="46.5009207" lon="12.0427297"/><trkpt lat="46.500812" lon="12.0426739"/><trkpt lat="46.5007151" lon="12.042763"/><trkpt lat="46.5006672" lon="12.0427425"/><trkpt lat="46.5006417" lon="12.0426137"/><trkpt lat="46.500639" lon="12.0424477"/><trkpt lat="46.5006143" lon="12.0424384"/><trkpt lat="46.5005709" lon="12.0425085"/><trkpt lat="46.5002526" lon="12.042563"/><trkpt lat="46.500015" lon="12.0426009"/><trkpt lat="46.50002" lon="12.0424059"/><trkpt lat="46.50002" lon="12.0422514"/><trkpt lat="46.4999528" lon="12.0421416"/><trkpt lat="46.4998493" lon="12.0420196"/><trkpt lat="46.4997877" lon="12.041918"/><trkpt lat="46.4997429" lon="12.0415033"/><trkpt lat="46.4997015" lon="12.0411281"/><trkpt lat="46.499636" lon="12.0410347"/><trkpt lat="46.4996215" lon="12.0409337"/><trkpt lat="46.4996743" lon="12.0406179"/><trkpt lat="46.4996215" lon="12.0409337"/><trkpt lat="46.499636" lon="12.0410347"/><trkpt lat="46.4997015" lon="12.0411281"/><trkpt lat="46.4997429" lon="12.0415033"/><trkpt lat="46.4997877" lon="12.041918"/><trkpt lat="46.4998493" lon="12.0420196"/><trkpt lat="46.4999528" lon="12.0421416"/><trkpt lat="46.50002" lon="12.0422514"/><trkpt lat="46.50002" lon="12.0424059"/><trkpt lat="46.500015" lon="12.0426009"/><trkpt lat="46.4998534" lon="12.0426267"/><trkpt lat="46.4997469" lon="12.0426831"/><trkpt lat="46.4996085" lon="12.0427817"/><trkpt lat="46.4995277" lon="12.0428096"/><trkpt lat="46.4994872" lon="12.0428431"/><trkpt lat="46.4991693" lon="12.0430285"/><trkpt lat="46.4991089" lon="12.0430578"/><trkpt lat="46.4990797" lon="12.0430711"/><trkpt lat="46.498977" lon="12.0431956"/><trkpt lat="46.498802" lon="12.0435025"/><trkpt lat="46.4986804" lon="12.0436383"/><trkpt lat="46.4985412" lon="12.0436686"/><trkpt lat="46.4983324" lon="12.0436686"/><trkpt lat="46.4981419" lon="12.0436738"/><trkpt lat="46.4974868" lon="12.0438159"/><trkpt lat="46.4971237" lon="12.0440346"/><trkpt lat="46.4970654" lon="12.0441937"/><trkpt lat="46.4968231" lon="12.0445421"/><trkpt lat="46.4966311" lon="12.0446694"/><trkpt lat="46.4964906" lon="12.0447422"/><trkpt lat="46.4962448" lon="12.0447851"/><trkpt lat="46.4960474" lon="12.0449562"/><trkpt lat="46.495891" lon="12.04523"/><trkpt lat="46.4957805" lon="12.0453863"/><trkpt lat="46.4956969" lon="12.0455017"/><trkpt lat="46.4955906" lon="12.0455664"/><trkpt lat="46.4953982" lon="12.0455149"/><trkpt lat="46.4953153" lon="12.0455164"/><trkpt lat="46.4952616" lon="12.0455462"/><trkpt lat="46.4952312" lon="12.0455861"/><trkpt lat="46.4952616" lon="12.0455462"/><trkpt lat="46.4953153" lon="12.0455164"/><trkpt lat="46.4953982" lon="12.0455149"/><trkpt lat="46.4955906" lon="12.0455664"/><trkpt lat="46.4956969" lon="12.0455017"/><trkpt lat="46.4957805" lon="12.0453863"/><trkpt lat="46.495891" lon="12.04523"/><trkpt lat="46.4960474" lon="12.0449562"/><trkpt lat="46.4962448" lon="12.0447851"/><trkpt lat="46.4964906" lon="12.0447422"/><trkpt lat="46.4966311" lon="12.0446694"/><trkpt lat="46.4968231" lon="12.0445421"/><trkpt lat="46.4970654" lon="12.0441937"/><trkpt lat="46.4971237" lon="12.0440346"/><trkpt lat="46.4974868" lon="12.0438159"/><trkpt lat="46.4981419" lon="12.0436738"/><trkpt lat="46.4983324" lon="12.0436686"/><trkpt lat="46.4985412" lon="12.0436686"/><trkpt lat="46.4986804" lon="12.0436383"/><trkpt lat="46.498802" lon="12.0435025"/><trkpt lat="46.498977" lon="12.0431956"/><trkpt lat="46.4990797" lon="12.0430711"/><trkpt lat="46.4991089" lon="12.0430578"/><trkpt lat="46.4991693" lon="12.0430285"/><trkpt lat="46.4994872" lon="12.0428431"/><trkpt lat="46.4995277" lon="12.0428096"/><trkpt lat="46.4996085" lon="12.0427817"/><trkpt lat="46.4997469" lon="12.0426831"/><trkpt lat="46.4998534" lon="12.0426267"/><trkpt lat="46.500015" lon="12.0426009"/><trkpt lat="46.50002" lon="12.0424059"/><trkpt lat="46.50002" lon="12.0422514"/><trkpt lat="46.4999528" lon="12.0421416"/><trkpt lat="46.4998493" lon="12.0420196"/><trkpt lat="46.4997877" lon="12.041918"/><trkpt lat="46.4997429" lon="12.0415033"/><trkpt lat="46.4997015" lon="12.0411281"/><trkpt lat="46.499636" lon="12.0410347"/><trkpt lat="46.4996215" lon="12.0409337"/><trkpt lat="46.4996743" lon="12.0406179"/><trkpt lat="46.4997244" lon="12.0404582"/><trkpt lat="46.499596" lon="12.0403309"/><trkpt lat="46.4994923" lon="12.0403065"/><trkpt lat="46.4994234" lon="12.0402079"/><trkpt lat="46.4992959" lon="12.040015"/><trkpt lat="46.4991753" lon="12.0398098"/><trkpt lat="46.4990932" lon="12.0396618"/><trkpt lat="46.4990758" lon="12.0396194"/><trkpt lat="46.4990047" lon="12.0394927"/><trkpt lat="46.4989521" lon="12.0394797"/><trkpt lat="46.4989372" lon="12.0395278"/><trkpt lat="46.499103" lon="12.0400306"/><trkpt lat="46.4991141" lon="12.0401053"/><trkpt lat="46.4991074" lon="12.0402216"/><trkpt lat="46.4990894" lon="12.0403239"/><trkpt lat="46.4990751" lon="12.0403666"/><trkpt lat="46.4990502" lon="12.0404136"/><trkpt lat="46.4989033" lon="12.040565"/><trkpt lat="46.4987736" lon="12.0406605"/><trkpt lat="46.4987337" lon="12.0406845"/><trkpt lat="46.4986608" lon="12.0407106"/><trkpt lat="46.4985929" lon="12.0407113"/><trkpt lat="46.4985681" lon="12.0407073"/><trkpt lat="46.4985508" lon="12.0406924"/><trkpt lat="46.4985214" lon="12.0406188"/><trkpt lat="46.498495" lon="12.0405137"/><trkpt lat="46.498446" lon="12.0403932"/><trkpt lat="46.4982898" lon="12.0401286"/><trkpt lat="46.4981151" lon="12.0399182"/><trkpt lat="46.4980838" lon="12.039888"/><trkpt lat="46.498073" lon="12.0398493"/><trkpt lat="46.4980717" lon="12.0397632"/><trkpt lat="46.4980601" lon="12.0395785"/><trkpt lat="46.4980788" lon="12.0394743"/><trkpt lat="46.4981347" lon="12.0393055"/><trkpt lat="46.498125" lon="12.0391597"/><trkpt lat="46.4980537" lon="12.0390005"/><trkpt lat="46.4979468" lon="12.0387659"/><trkpt lat="46.4979551" lon="12.0386661"/><trkpt lat="46.4979896" lon="12.0385207"/><trkpt lat="46.4979613" lon="12.0383421"/><trkpt lat="46.4978769" lon="12.0381872"/><trkpt lat="46.4978867" lon="12.0377438"/><trkpt lat="46.4979264" lon="12.0376224"/><trkpt lat="46.4979285" lon="12.0374761"/><trkpt lat="46.4979424" lon="12.0373325"/><trkpt lat="46.4979118" lon="12.0371384"/><trkpt lat="46.497879" lon="12.0370104"/><trkpt lat="46.4978867" lon="12.0369179"/><trkpt lat="46.4979216" lon="12.036833"/><trkpt lat="46.4980413" lon="12.0366752"/><trkpt lat="46.4981119" lon="12.0365451"/><trkpt lat="46.4981415" lon="12.03621"/><trkpt lat="46.498136" lon="12.0360644"/><trkpt lat="46.4981151" lon="12.0360138"/><trkpt lat="46.4980705" lon="12.035972"/><trkpt lat="46.4979578" lon="12.035935"/><trkpt lat="46.4978854" lon="12.0359329"/><trkpt lat="46.4976154" lon="12.0360251"/><trkpt lat="46.4972798" lon="12.0361842"/><trkpt lat="46.497132" lon="12.0362543"/><trkpt lat="46.4971098" lon="12.036277"/><trkpt lat="46.4970847" lon="12.0363081"/><trkpt lat="46.4970812" lon="12.0363393"/><trkpt lat="46.4970857" lon="12.0363803"/><trkpt lat="46.497132" lon="12.0365535"/><trkpt lat="46.4971387" lon="12.036687"/><trkpt lat="46.497126" lon="12.0369466"/><trkpt lat="46.4971493" lon="12.0374158"/><trkpt lat="46.4971338" lon="12.0375165"/><trkpt lat="46.4970893" lon="12.0375675"/><trkpt lat="46.4970511" lon="12.0375495"/><trkpt lat="46.4970335" lon="12.0374928"/><trkpt lat="46.4969439" lon="12.0372445"/><trkpt lat="46.4969095" lon="12.0372131"/><trkpt lat="46.4968746" lon="12.0372135"/><trkpt lat="46.4968526" lon="12.0372325"/><trkpt lat="46.496867" lon="12.037483"/><trkpt lat="46.4968675" lon="12.0375872"/><trkpt lat="46.4968578" lon="12.0376595"/><trkpt lat="46.496824" lon="12.0377192"/><trkpt lat="46.4966405" lon="12.0378731"/><trkpt lat="46.496621" lon="12.0379171"/><trkpt lat="46.4965902" lon="12.038243"/><trkpt lat="46.4965896" lon="12.0383082"/><trkpt lat="46.4965839" lon="12.0384601"/><trkpt lat="46.4965998" lon="12.0386082"/><trkpt lat="46.4965906" lon="12.0387178"/><trkpt lat="46.4964871" lon="12.0389855"/><trkpt lat="46.4965014" lon="12.0396151"/><trkpt lat="46.4965569" lon="12.0398619"/><trkpt lat="46.4964751" lon="12.0401449"/><trkpt lat="46.4964831" lon="12.0405462"/><trkpt lat="46.4963797" lon="12.0408758"/><trkpt lat="46.4963787" lon="12.041136"/><trkpt lat="46.496123" lon="12.0414641"/><trkpt lat="46.4961238" lon="12.0415846"/><trkpt lat="46.4960361" lon="12.0416514"/><trkpt lat="46.4959891" lon="12.041619"/><trkpt lat="46.4959823" lon="12.0416637"/><trkpt lat="46.4959262" lon="12.0416585"/><trkpt lat="46.4958983" lon="12.0417215"/><trkpt lat="46.4954685" lon="12.0419343"/><trkpt lat="46.4954371" lon="12.0420028"/><trkpt lat="46.4953689" lon="12.0421513"/><trkpt lat="46.494966" lon="12.0425261"/><trkpt lat="46.4946692" lon="12.0426285"/><trkpt lat="46.4944958" lon="12.0428096"/><trkpt lat="46.4943758" lon="12.0430214"/><trkpt lat="46.4943164" lon="12.0432463"/><trkpt lat="46.4942084" lon="12.0432869"/><trkpt lat="46.4939214" lon="12.0432601"/><trkpt lat="46.4937862" lon="12.0432298"/><trkpt lat="46.4936467" lon="12.0433137"/><trkpt lat="46.493418" lon="12.04359"/><trkpt lat="46.4932817" lon="12.0436383"/><trkpt lat="46.4931874" lon="12.0436503"/><trkpt lat="46.4930459" lon="12.0437188"/><trkpt lat="46.4928374" lon="12.0439538"/><trkpt lat="46.4923139" lon="12.044149"/><trkpt lat="46.4921345" lon="12.0440939"/><trkpt lat="46.4920181" lon="12.0441046"/><trkpt lat="46.4919433" lon="12.0441231"/><trkpt lat="46.4919035" lon="12.044167"/><trkpt lat="46.4918928" lon="12.04424"/><trkpt lat="46.4919019" lon="12.0445047"/><trkpt lat="46.4918619" lon="12.0447055"/><trkpt lat="46.4918509" lon="12.0449048"/><trkpt lat="46.4917984" lon="12.045069"/><trkpt lat="46.4916967" lon="12.0452158"/><trkpt lat="46.4916439" lon="12.0452934"/><trkpt lat="46.4915293" lon="12.0456218"/><trkpt lat="46.4914211" lon="12.0459643"/><trkpt lat="46.4913796" lon="12.0460358"/><trkpt lat="46.491249" lon="12.0461445"/><trkpt lat="46.4911964" lon="12.0462305"/><trkpt lat="46.4911101" lon="12.0465938"/><trkpt lat="46.4910405" lon="12.0467257"/><trkpt lat="46.4909102" lon="12.0467813"/><trkpt lat="46.4907932" lon="12.0468773"/><trkpt lat="46.4906386" lon="12.0469025"/><trkpt lat="46.4903135" lon="12.0471083"/><trkpt lat="46.4902095" lon="12.0472196"/><trkpt lat="46.4900174" lon="12.0472866"/><trkpt lat="46.4898299" lon="12.0473847"/><trkpt lat="46.4895899" lon="12.0472815"/><trkpt lat="46.4893343" lon="12.0474526"/><trkpt lat="46.4893027" lon="12.0475309"/><trkpt lat="46.4892768" lon="12.0476168"/><trkpt lat="46.4892641" lon="12.0477456"/><trkpt lat="46.4892405" lon="12.0478078"/><trkpt lat="46.4892534" lon="12.047866"/><trkpt lat="46.4892406" lon="12.0478861"/><trkpt lat="46.4892282" lon="12.0480417"/><trkpt lat="46.4891729" lon="12.048211"/><trkpt lat="46.4892018" lon="12.0482949"/><trkpt lat="46.489183" lon="12.0483854"/><trkpt lat="46.4892472" lon="12.048457"/><trkpt lat="46.4892896" lon="12.0486294"/><trkpt lat="46.4893269" lon="12.0486808"/><trkpt lat="46.4893247" lon="12.0487649"/><trkpt lat="46.4893449" lon="12.0488358"/><trkpt lat="46.4893324" lon="12.048898"/><trkpt lat="46.4893381" lon="12.0489991"/><trkpt lat="46.4892847" lon="12.0491556"/><trkpt lat="46.4893092" lon="12.049653"/><trkpt lat="46.489254" lon="12.0498568"/><trkpt lat="46.4891929" lon="12.0500329"/><trkpt lat="46.4891102" lon="12.0501077"/><trkpt lat="46.4889684" lon="12.050108"/><trkpt lat="46.488943" lon="12.0501349"/><trkpt lat="46.4889293" lon="12.0502038"/><trkpt lat="46.4888719" lon="12.0501856"/><trkpt lat="46.4888154" lon="12.0501329"/><trkpt lat="46.488769" lon="12.0501768"/><trkpt lat="46.4887606" lon="12.0502506"/><trkpt lat="46.4887121" lon="12.0502668"/><trkpt lat="46.4886035" lon="12.0503847"/><trkpt lat="46.4885888" lon="12.0505507"/><trkpt lat="46.4885803" lon="12.0506327"/><trkpt lat="46.4885358" lon="12.0507186"/><trkpt lat="46.4884408" lon="12.0507945"/><trkpt lat="46.4883584" lon="12.0507823"/><trkpt lat="46.4883233" lon="12.050803"/><trkpt lat="46.488249" lon="12.0510522"/><trkpt lat="46.4880692" lon="12.0512188"/><trkpt lat="46.4879043" lon="12.0513237"/><trkpt lat="46.4876891" lon="12.0515641"/><trkpt lat="46.4873441" lon="12.0517832"/><trkpt lat="46.4871553" lon="12.0519335"/><trkpt lat="46.4865272" lon="12.0524249"/><trkpt lat="46.4863493" lon="12.0525273"/><trkpt lat="46.4859147" lon="12.0527226"/><trkpt lat="46.485804" lon="12.0527875"/><trkpt lat="46.485611" lon="12.0529261"/><trkpt lat="46.4853458" lon="12.0531715"/><trkpt lat="46.4850753" lon="12.0533746"/><trkpt lat="46.4846562" lon="12.0534788"/><trkpt lat="46.4846214" lon="12.0534919"/><trkpt lat="46.4845228" lon="12.053524"/><trkpt lat="46.4844282" lon="12.0535421"/><trkpt lat="46.4840343" lon="12.0535688"/><trkpt lat="46.4838221" lon="12.053584"/><trkpt lat="46.4836409" lon="12.053633"/><trkpt lat="46.4835521" lon="12.0536412"/><trkpt lat="46.483167" lon="12.0536221"/><trkpt lat="46.482912" lon="12.0536688"/><trkpt lat="46.4826231" lon="12.0537081"/><trkpt lat="46.482522" lon="12.0537717"/><trkpt lat="46.4825196" lon="12.053666"/></trkseg></trk></gpx>