<?xml version="1.0" encoding="UTF-8"?><kml xmlns="http://www.opengis.net/kml/2.2"><Document><name>Lagazuoi · тоннели WWI</name><description>Планировочная реконструкция по OpenStreetMap, 09.09.2026. Не запись GPS и не проверенный навигационный трек. Высоты не экспортированы. Данные © OpenStreetMap contributors, ODbL. Автопереезды и канатки в пеший трек не включены.</description><Style id="track"><LineStyle><color>ff7543b5</color><width>4</width></LineStyle></Style><Placemark><name>Passo Falzarego</name><Point><coordinates>12.0084323,46.5187504</coordinates></Point></Placemark><Placemark><name>Forcella Travenanzes</name><Point><coordinates>12.0199744,46.5309137</coordinates></Point></Placemark><Placemark><name>Forcella Lagazuoi</name><Point><coordinates>12.0130786,46.5305012</coordinates></Point></Placemark><Placemark><name>Rifugio Lagazuoi</name><Point><coordinates>12.008130228571428,46.527738157142856</coordinates></Point></Placemark><Placemark><name>Galleria Lagazuoi — верхний подход</name><Point><coordinates>12.0119312,46.5268341</coordinates></Point></Placemark><Placemark><name>Lagazuoi — подъём и спуск через тоннели</name><description>Планировочная реконструкция по OpenStreetMap, 09.09.2026. Не запись GPS и не проверенный навигационный трек. Высоты не экспортированы. Данные © OpenStreetMap contributors, ODbL. Автопереезды и канатки в пеший трек не включены.</description><styleUrl>#track</styleUrl><LineString><tessellate>1</tessellate><altitudeMode>clampToGround</altitudeMode><coordinates>12.0083074,46.518865,0 12.0082377,46.5188867,0 12.0080028,46.518963,0 12.0080553,46.5190422,0 12.0079614,46.519135,0 12.0080303,46.519158,0 12.0080915,46.5191749,0 12.0082001,46.5192771,0 12.0084013,46.5193053,0 12.0083361,46.5197085,0 12.0083258,46.519772,0 12.0085319,46.519785,0 12.0086176,46.5198722,0 12.0086866,46.5199334,0 12.0087773,46.5199396,0 12.0088839,46.520045,0 12.0089388,46.5200979,0 12.0089963,46.5201605,0 12.0091598,46.520302,0 12.009285,46.5203643,0 12.0093464,46.5204131,0 12.0093958,46.5204622,0 12.0095055,46.5206309,0 12.0095918,46.5208288,0 12.0096186,46.5209082,0 12.0097305,46.5211346,0 12.0097988,46.5212249,0 12.0098465,46.5212987,0 12.0100023,46.5214077,0 12.0104018,46.521578,0 12.0106169,46.5216596,0 12.0109205,46.5218095,0 12.0111879,46.5219247,0 12.0114164,46.5219977,0 12.0116872,46.522074,0 12.0120262,46.5222368,0 12.0121963,46.5223378,0 12.012346,46.5224843,0 12.0124613,46.5226336,0 12.0127413,46.5228578,0 12.0130401,46.5230538,0 12.0132577,46.5231566,0 12.0134296,46.5232061,0 12.0135473,46.523242,0 12.0138641,46.5233107,0 12.014205,46.5233788,0 12.0147575,46.5235655,0 12.0153361,46.5237985,0 12.0156558,46.5239358,0 12.0158947,46.5241182,0 12.0159262,46.5241735,0 12.0161343,46.5245175,0 12.0162952,46.5247596,0 12.0164841,46.5249515,0 12.0166407,46.5250194,0 12.0168167,46.5250268,0 12.0170956,46.5249663,0 12.0172952,46.524956,0 12.0174218,46.5249943,0 12.0175419,46.5251316,0 12.0176342,46.5253811,0 12.0176685,46.5256617,0 12.0176514,46.5259746,0 12.0176053,46.5264163,0 12.0175806,46.5266818,0 12.017567,46.527042,0 12.01757,46.5272041,0 12.0174872,46.5272864,0 12.0171708,46.5273532,0 12.0171317,46.5273911,0 12.0171963,46.5277081,0 12.017204,46.5277456,0 12.0172481,46.5279274,0 12.0173739,46.5280168,0 12.0173486,46.5281685,0 12.0174104,46.5282092,0 12.0175193,46.5282055,0 12.017689,46.5282117,0 12.0178423,46.5282583,0 12.0179996,46.528309,0 12.0180438,46.5283173,0 12.0181458,46.5283238,0 12.0181994,46.5283145,0 12.0182385,46.5283184,0 12.0183027,46.5283247,0 12.0183456,46.5283717,0 12.0183496,46.5284216,0 12.0183577,46.528476,0 12.0183805,46.5284917,0 12.0184006,46.5285738,0 12.0184529,46.528655,0 12.0185333,46.5287519,0 12.0186366,46.5288303,0 12.0187157,46.5288709,0 12.0187627,46.5289392,0 12.0188418,46.5289807,0 12.0188673,46.5290167,0 12.0189705,46.52906,0 12.0190161,46.5290693,0 12.0190752,46.5291117,0 12.0191154,46.5291431,0 12.0191288,46.5291652,0 12.0191596,46.5291754,0 12.0192415,46.5292206,0 12.0193273,46.5292889,0 12.019401,46.5293119,0 12.0194292,46.5293498,0 12.0195325,46.5293654,0 12.0196371,46.5294208,0 12.0196813,46.5294909,0 12.0197202,46.5295149,0 12.0197484,46.5295546,0 12.0197739,46.5296229,0 12.0198141,46.5296478,0 12.0198114,46.529693,0 12.0197766,46.5297576,0 12.0197631,46.5297963,0 12.0196961,46.5298286,0 12.0197068,46.5298443,0 12.0197766,46.5298637,0 12.0198557,46.5298628,0 12.0199268,46.5298545,0 12.019963,46.5298997,0 12.0199442,46.5299809,0 12.0199133,46.5300381,0 12.0198892,46.5301008,0 12.0199066,46.5301903,0 12.019904,46.5302457,0 12.0198959,46.5302844,0 12.0199147,46.5303278,0 12.0199402,46.5303554,0 12.0199335,46.5304652,0 12.0199428,46.5305049,0 12.0199227,46.5306156,0 12.0199254,46.5306636,0 12.0199434,46.5307143,0 12.0199641,46.5307134,0 12.019975,46.5307289,0 12.0199021,46.5308254,0 12.0199612,46.530898,0 12.0197094,46.5309987,0 12.0193432,46.5311019,0 12.0191874,46.5312442,0 12.0190483,46.5312685,0 12.0188579,46.5312347,0 12.0186287,46.5312906,0 12.0184291,46.5313534,0 12.0181507,46.5313582,0 12.0178417,46.5312574,0 12.0174129,46.5311411,0 12.0171857,46.5311101,0 12.0169549,46.5310786,0 12.016673,46.5310193,0 12.0163405,46.5309719,0 12.016131,46.5308957,0 12.0159524,46.5308599,0 12.0156697,46.5307011,0 12.0155753,46.5306665,0 12.0154773,46.5306694,0 12.015375,46.5307009,0 12.0152326,46.5307265,0 12.0148633,46.5306781,0 12.0147438,46.5305914,0 12.0145482,46.5305174,0 12.0142869,46.5305484,0 12.0139204,46.5304912,0 12.0135567,46.5304094,0 12.0134091,46.5303988,0 12.0132617,46.530413,0 12.0131313,46.5304526,0 12.0130966,46.5304954,0 12.0130689,46.5304854,0 12.0128812,46.5303802,0 12.0127634,46.5303262,0 12.0126765,46.5303027,0 12.0125599,46.5302446,0 12.0125574,46.5300999,0 12.0125185,46.5300362,0 12.0124769,46.5299845,0 12.0124742,46.5299513,0 12.0124742,46.529931,0 12.0124233,46.5299301,0 12.0124045,46.529955,0 12.0123763,46.5299384,0 12.0123415,46.5299624,0 12.0123629,46.5299255,0 12.012265,46.5299439,0 12.012316,46.529896,0 12.012253,46.5299024,0 12.0122784,46.5298572,0 12.0122436,46.5298443,0 12.0122292,46.5298458,0 12.0122369,46.5298065,0 12.01221,46.5297871,0 12.0122288,46.5297538,0 12.0121282,46.5297216,0 12.0120618,46.5296517,0 12.0120246,46.5296145,0 12.0119445,46.5295343,0 12.0118435,46.5294904,0 12.0116639,46.5294656,0 12.0115865,46.5294589,0 12.0115894,46.5294265,0 12.0117508,46.5293437,0 12.0114565,46.5293261,0 12.011601,46.5292387,0 12.0113313,46.5292416,0 12.0115555,46.5290836,0 12.0116316,46.5290478,0 12.0115644,46.5290198,0 12.0114581,46.528996,0 12.0113618,46.5289973,0 12.0113375,46.5289782,0 12.011308,46.528934,0 12.0113753,46.528886,0 12.0114521,46.5288428,0 12.0114733,46.5288255,0 12.0114414,46.5288191,0 12.0114249,46.5288157,0 12.0113094,46.5288026,0 12.0112498,46.5288028,0 12.0109126,46.5288038,0 12.0107752,46.5287358,0 12.010873,46.5287021,0 12.0107408,46.5286376,0 12.0108086,46.5286048,0 12.0107026,46.5285452,0 12.0106177,46.5285497,0 12.010484,46.5285494,0 12.0103997,46.5285296,0 12.0106608,46.5282535,0 12.0104423,46.5282396,0 12.010632,46.528033,0 12.0102674,46.5280305,0 12.0104518,46.5278791,0 12.0105495,46.5278087,0 12.0105413,46.527782,0 12.0104803,46.5278062,0 12.0099882,46.5278963,0 12.0101265,46.5277913,0 12.0099552,46.5278074,0 12.0097624,46.5277958,0 12.009708,46.5277769,0 12.0096198,46.5277462,0 12.009543,46.5277247,0 12.009498,46.5276815,0 12.0094683,46.5276616,0 12.0093849,46.5276578,0 12.0092148,46.5276658,0 12.0089101,46.5276611,0 12.0088419,46.5276347,0 12.0086773,46.5276368,0 12.0084095,46.5276583,0 12.0083155,46.5276613,0 12.0082132,46.527642,0 12.0083155,46.5276613,0 12.0084095,46.5276583,0 12.0086773,46.5276368,0 12.0088419,46.5276347,0 12.0089101,46.5276611,0 12.0092148,46.5276658,0 12.009213,46.5275581,0 12.0091409,46.5275237,0 12.0092409,46.527516,0 12.0092532,46.5274777,0 12.0092103,46.5274469,0 12.0092364,46.527425,0 12.0093407,46.5274336,0 12.0092226,46.5273713,0 12.0092601,46.5273633,0 12.0093572,46.5273785,0 12.009449,46.5274069,0 12.0096034,46.5274722,0 12.0097127,46.5274994,0 12.0098167,46.5275001,0 12.0098972,46.5275064,0 12.0099448,46.5275177,0 12.0101117,46.5274987,0 12.010191,46.5275261,0 12.0102137,46.5275568,0 12.0102403,46.5275689,0 12.0102738,46.527582,0 12.010333,46.5276027,0 12.0104569,46.5276531,0 12.010575,46.5276807,0 12.0106725,46.5277068,0 12.0109341,46.5277011,0 12.0109249,46.5276581,0 12.011,46.5276584,0 12.0111096,46.5276783,0 12.0111546,46.5276961,0 12.0111638,46.5277382,0 12.011249,46.5277293,0 12.0112826,46.5277495,0 12.0113414,46.5277279,0 12.0113666,46.527725,0 12.0113958,46.5277774,0 12.0114023,46.5278246,0 12.0114716,46.52779,0 12.0114758,46.5277582,0 12.0115444,46.5277134,0 12.0115534,46.5276629,0 12.0116134,46.5276135,0 12.0117221,46.5274631,0 12.0118452,46.5273061,0 12.0118488,46.5271837,0 12.0119253,46.5270048,0 12.0119575,46.5268955,0 12.0119499,46.5268558,0 12.0119312,46.5268341,0 12.011883,46.5268465,0 12.0118549,46.5268761,0 12.0118622,46.5269165,0 12.0118924,46.5269252,0 12.0119221,46.5269338,0 12.0120313,46.5269136,0 12.0121551,46.5268443,0 12.0124183,46.5266256,0 12.0124365,46.5265727,0 12.01247,46.5263759,0 12.0124737,46.5263402,0 12.0125539,46.5263065,0 12.0125613,46.5262779,0 12.0124812,46.526284,0 12.0124411,46.5263014,0 12.0123873,46.5263376,0 12.0122897,46.5263759,0 12.0122438,46.5263666,0 12.0121934,46.5263479,0 12.0121976,46.5262771,0 12.0122503,46.526199,0 12.0123278,46.5261399,0 12.0124602,46.5260719,0 12.0127688,46.525952,0 12.0129436,46.525921,0 12.0131438,46.5257718,0 12.013204,46.5257174,0 12.0132691,46.5257078,0 12.0133413,46.5257558,0 12.0134237,46.5258082,0 12.013475,46.5258715,0 12.013512,46.5259092,0 12.0135717,46.5259489,0 12.0135958,46.5259793,0 12.0136633,46.5260299,0 12.0137168,46.5260585,0 12.0137326,46.5261052,0 12.0137828,46.5261149,0 12.0138789,46.5262163,0 12.0138939,46.5263012,0 12.0139456,46.5263951,0 12.0139889,46.5264216,0 12.0140423,46.5264009,0 12.0140522,46.526377,0 12.0140398,46.526348,0 12.0140274,46.526319,0 12.0140621,46.5263019,0 12.0140795,46.5263173,0 12.0140894,46.526348,0 12.0141376,46.5263573,0 12.014523,46.5264026,0 12.0145882,46.5264095,0 12.0147003,46.526452,0 12.0146441,46.526382,0 12.0147641,46.5263961,0 12.0149819,46.5264356,0 12.015095,46.5264541,0 12.0152187,46.5264562,0 12.0151436,46.5264244,0 12.015169,46.5264119,0 12.015358,46.5264266,0 12.0155008,46.5264575,0 12.0156344,46.5265061,0 12.0157137,46.5265338,0 12.0157673,46.526554,0 12.0156663,46.5264333,0 12.0155702,46.5263435,0 12.0155692,46.5263138,0 12.0154725,46.5262883,0 12.0153575,46.5262394,0 12.0152759,46.5262167,0 12.0152271,46.5261857,0 12.0150733,46.5261042,0 12.0149131,46.5260606,0 12.0149402,46.5260414,0 12.0151564,46.5260556,0 12.0150845,46.5260045,0 12.0150078,46.5259758,0 12.0149852,46.5259559,0 12.0150367,46.5259545,0 12.0151576,46.5259741,0 12.0150937,46.5259258,0 12.0151229,46.5259178,0 12.0154244,46.525959,0 12.0157245,46.5260211,0 12.0156033,46.5258934,0 12.015603,46.5258716,0 12.0157787,46.5259143,0 12.0157025,46.5258225,0 12.015767,46.5258259,0 12.0159413,46.5258853,0 12.0159553,46.525881,0 12.0158686,46.5257075,0 12.0157631,46.5255919,0 12.0156214,46.525497,0 12.0155814,46.525463,0 12.0157168,46.5254766,0 12.0157936,46.5254879,0 12.0157823,46.5254658,0 12.0156337,46.5253727,0 12.0154641,46.5252829,0 12.0154305,46.5252603,0 12.0154482,46.5252095,0 12.0152878,46.5250831,0 12.0151578,46.5250222,0 12.0150563,46.5249628,0 12.0150319,46.524893,0 12.0149815,46.5248562,0 12.0147,46.5247531,0 12.0145441,46.5246971,0 12.0143735,46.524563,0 12.0144162,46.524541,0 12.014577,46.5245245,0 12.0146671,46.5244885,0 12.0147936,46.5244565,0 12.0149274,46.5244563,0 12.0151199,46.5244505,0 12.0151736,46.5244503,0 12.015156,46.524422,0 12.0149677,46.5243632,0 12.0149451,46.524326,0 12.0148107,46.5242756,0 12.0146677,46.5241973,0 12.0145984,46.5241656,0 12.0145279,46.5241124,0 12.0142532,46.5240084,0 12.0142916,46.5239841,0 12.0142929,46.5239455,0 12.0140879,46.5239026,0 12.0138379,46.5237964,0 12.013884,46.52375,0 12.0133777,46.5236454,0 12.0131034,46.5235737,0 12.0130371,46.5235215,0 12.0129653,46.5233997,0 12.0126115,46.5231611,0 12.0124205,46.522993,0 12.0123367,46.5228452,0 12.0122442,46.5227323,0 12.012239,46.5226791,0 12.0121785,46.5226226,0 12.012142,46.5226003,0 12.0119963,46.5225278,0 12.0118892,46.5224798,0 12.0117218,46.5224216,0 12.0115228,46.5223401,0 12.011424,46.5222808,0 12.0112727,46.5221642,0 12.0112194,46.5220611,0 12.0111141,46.5219792,0 12.01099,46.5219164,0 12.0109205,46.5218095,0 12.0106169,46.5216596,0 12.0104018,46.521578,0 12.0100023,46.5214077,0 12.0098465,46.5212987,0 12.0097988,46.5212249,0 12.0097305,46.5211346,0 12.0096186,46.5209082,0 12.0095918,46.5208288,0 12.0095055,46.5206309,0 12.0093958,46.5204622,0 12.0093464,46.5204131,0 12.009285,46.5203643,0 12.0091598,46.520302,0 12.0089963,46.5201605,0 12.0089388,46.5200979,0 12.0088839,46.520045,0 12.0087773,46.5199396,0 12.0086866,46.5199334,0 12.0086176,46.5198722,0 12.0085319,46.519785,0 12.0083258,46.519772,0 12.0083361,46.5197085,0 12.0084013,46.5193053,0 12.0082001,46.5192771,0 12.0080915,46.5191749,0 12.0080303,46.519158,0 12.0079614,46.519135,0 12.0080553,46.5190422,0 12.0080028,46.518963,0 12.0082377,46.5188867,0 12.0083074,46.518865,0</coordinates></LineString></Placemark></Document></kml>