<?xml version="1.0" encoding="UTF-8"?><gpx version="1.1" creator="Dolomites Atlas" xmlns="http://www.topografix.com/GPX/1/1"><metadata><name>Lagazuoi · тоннели WWI</name><desc>Планировочная реконструкция по OpenStreetMap, 09.09.2026. Не запись GPS и не проверенный навигационный трек. Высоты не экспортированы. Данные © OpenStreetMap contributors, ODbL. Автопереезды и канатки в пеший трек не включены.</desc><link href="https://www.openstreetmap.org/copyright"><text>OpenStreetMap contributors · ODbL</text></link></metadata><wpt lat="46.5187504" lon="12.0084323"><name>Passo Falzarego</name></wpt><wpt lat="46.5309137" lon="12.0199744"><name>Forcella Travenanzes</name></wpt><wpt lat="46.5305012" lon="12.0130786"><name>Forcella Lagazuoi</name></wpt><wpt lat="46.527738157142856" lon="12.008130228571428"><name>Rifugio Lagazuoi</name></wpt><wpt lat="46.5268341" lon="12.0119312"><name>Galleria Lagazuoi — верхний подход</name></wpt><trk><name>Lagazuoi — подъём и спуск через тоннели</name><desc>Планировочная реконструкция по OpenStreetMap, 09.09.2026. Не запись GPS и не проверенный навигационный трек. Высоты не экспортированы. Данные © OpenStreetMap contributors, ODbL. Автопереезды и канатки в пеший трек не включены.</desc><type>hiking</type><trkseg><trkpt lat="46.518865" lon="12.0083074"/><trkpt lat="46.5188867" lon="12.0082377"/><trkpt lat="46.518963" lon="12.0080028"/><trkpt lat="46.5190422" lon="12.0080553"/><trkpt lat="46.519135" lon="12.0079614"/><trkpt lat="46.519158" lon="12.0080303"/><trkpt lat="46.5191749" lon="12.0080915"/><trkpt lat="46.5192771" lon="12.0082001"/><trkpt lat="46.5193053" lon="12.0084013"/><trkpt lat="46.5197085" lon="12.0083361"/><trkpt lat="46.519772" lon="12.0083258"/><trkpt lat="46.519785" lon="12.0085319"/><trkpt lat="46.5198722" lon="12.0086176"/><trkpt lat="46.5199334" lon="12.0086866"/><trkpt lat="46.5199396" lon="12.0087773"/><trkpt lat="46.520045" lon="12.0088839"/><trkpt lat="46.5200979" lon="12.0089388"/><trkpt lat="46.5201605" lon="12.0089963"/><trkpt lat="46.520302" lon="12.0091598"/><trkpt lat="46.5203643" lon="12.009285"/><trkpt lat="46.5204131" lon="12.0093464"/><trkpt lat="46.5204622" lon="12.0093958"/><trkpt lat="46.5206309" lon="12.0095055"/><trkpt lat="46.5208288" lon="12.0095918"/><trkpt lat="46.5209082" lon="12.0096186"/><trkpt lat="46.5211346" lon="12.0097305"/><trkpt lat="46.5212249" lon="12.0097988"/><trkpt lat="46.5212987" lon="12.0098465"/><trkpt lat="46.5214077" lon="12.0100023"/><trkpt lat="46.521578" lon="12.0104018"/><trkpt lat="46.5216596" lon="12.0106169"/><trkpt lat="46.5218095" lon="12.0109205"/><trkpt lat="46.5219247" lon="12.0111879"/><trkpt lat="46.5219977" lon="12.0114164"/><trkpt lat="46.522074" lon="12.0116872"/><trkpt lat="46.5222368" lon="12.0120262"/><trkpt lat="46.5223378" lon="12.0121963"/><trkpt lat="46.5224843" lon="12.012346"/><trkpt lat="46.5226336" lon="12.0124613"/><trkpt lat="46.5228578" lon="12.0127413"/><trkpt lat="46.5230538" lon="12.0130401"/><trkpt lat="46.5231566" lon="12.0132577"/><trkpt lat="46.5232061" lon="12.0134296"/><trkpt lat="46.523242" lon="12.0135473"/><trkpt lat="46.5233107" lon="12.0138641"/><trkpt lat="46.5233788" lon="12.014205"/><trkpt lat="46.5235655" lon="12.0147575"/><trkpt lat="46.5237985" lon="12.0153361"/><trkpt lat="46.5239358" lon="12.0156558"/><trkpt lat="46.5241182" lon="12.0158947"/><trkpt lat="46.5241735" lon="12.0159262"/><trkpt lat="46.5245175" lon="12.0161343"/><trkpt lat="46.5247596" lon="12.0162952"/><trkpt lat="46.5249515" lon="12.0164841"/><trkpt lat="46.5250194" lon="12.0166407"/><trkpt lat="46.5250268" lon="12.0168167"/><trkpt lat="46.5249663" lon="12.0170956"/><trkpt lat="46.524956" lon="12.0172952"/><trkpt lat="46.5249943" lon="12.0174218"/><trkpt lat="46.5251316" lon="12.0175419"/><trkpt lat="46.5253811" lon="12.0176342"/><trkpt lat="46.5256617" lon="12.0176685"/><trkpt lat="46.5259746" lon="12.0176514"/><trkpt lat="46.5264163" lon="12.0176053"/><trkpt lat="46.5266818" lon="12.0175806"/><trkpt lat="46.527042" lon="12.017567"/><trkpt lat="46.5272041" lon="12.01757"/><trkpt lat="46.5272864" lon="12.0174872"/><trkpt lat="46.5273532" lon="12.0171708"/><trkpt lat="46.5273911" lon="12.0171317"/><trkpt lat="46.5277081" lon="12.0171963"/><trkpt lat="46.5277456" lon="12.017204"/><trkpt lat="46.5279274" lon="12.0172481"/><trkpt lat="46.5280168" lon="12.0173739"/><trkpt lat="46.5281685" lon="12.0173486"/><trkpt lat="46.5282092" lon="12.0174104"/><trkpt lat="46.5282055" lon="12.0175193"/><trkpt lat="46.5282117" lon="12.017689"/><trkpt lat="46.5282583" lon="12.0178423"/><trkpt lat="46.528309" lon="12.0179996"/><trkpt lat="46.5283173" lon="12.0180438"/><trkpt lat="46.5283238" lon="12.0181458"/><trkpt lat="46.5283145" lon="12.0181994"/><trkpt lat="46.5283184" lon="12.0182385"/><trkpt lat="46.5283247" lon="12.0183027"/><trkpt lat="46.5283717" lon="12.0183456"/><trkpt lat="46.5284216" lon="12.0183496"/><trkpt lat="46.528476" lon="12.0183577"/><trkpt lat="46.5284917" lon="12.0183805"/><trkpt lat="46.5285738" lon="12.0184006"/><trkpt lat="46.528655" lon="12.0184529"/><trkpt lat="46.5287519" lon="12.0185333"/><trkpt lat="46.5288303" lon="12.0186366"/><trkpt lat="46.5288709" lon="12.0187157"/><trkpt lat="46.5289392" lon="12.0187627"/><trkpt lat="46.5289807" lon="12.0188418"/><trkpt lat="46.5290167" lon="12.0188673"/><trkpt lat="46.52906" lon="12.0189705"/><trkpt lat="46.5290693" lon="12.0190161"/><trkpt lat="46.5291117" lon="12.0190752"/><trkpt lat="46.5291431" lon="12.0191154"/><trkpt lat="46.5291652" lon="12.0191288"/><trkpt lat="46.5291754" lon="12.0191596"/><trkpt lat="46.5292206" lon="12.0192415"/><trkpt lat="46.5292889" lon="12.0193273"/><trkpt lat="46.5293119" lon="12.019401"/><trkpt lat="46.5293498" lon="12.0194292"/><trkpt lat="46.5293654" lon="12.0195325"/><trkpt lat="46.5294208" lon="12.0196371"/><trkpt lat="46.5294909" lon="12.0196813"/><trkpt lat="46.5295149" lon="12.0197202"/><trkpt lat="46.5295546" lon="12.0197484"/><trkpt lat="46.5296229" lon="12.0197739"/><trkpt lat="46.5296478" lon="12.0198141"/><trkpt lat="46.529693" lon="12.0198114"/><trkpt lat="46.5297576" lon="12.0197766"/><trkpt lat="46.5297963" lon="12.0197631"/><trkpt lat="46.5298286" lon="12.0196961"/><trkpt lat="46.5298443" lon="12.0197068"/><trkpt lat="46.5298637" lon="12.0197766"/><trkpt lat="46.5298628" lon="12.0198557"/><trkpt lat="46.5298545" lon="12.0199268"/><trkpt lat="46.5298997" lon="12.019963"/><trkpt lat="46.5299809" lon="12.0199442"/><trkpt lat="46.5300381" lon="12.0199133"/><trkpt lat="46.5301008" lon="12.0198892"/><trkpt lat="46.5301903" lon="12.0199066"/><trkpt lat="46.5302457" lon="12.019904"/><trkpt lat="46.5302844" lon="12.0198959"/><trkpt lat="46.5303278" lon="12.0199147"/><trkpt lat="46.5303554" lon="12.0199402"/><trkpt lat="46.5304652" lon="12.0199335"/><trkpt lat="46.5305049" lon="12.0199428"/><trkpt lat="46.5306156" lon="12.0199227"/><trkpt lat="46.5306636" lon="12.0199254"/><trkpt lat="46.5307143" lon="12.0199434"/><trkpt lat="46.5307134" lon="12.0199641"/><trkpt lat="46.5307289" lon="12.019975"/><trkpt lat="46.5308254" lon="12.0199021"/><trkpt lat="46.530898" lon="12.0199612"/><trkpt lat="46.5309987" lon="12.0197094"/><trkpt lat="46.5311019" lon="12.0193432"/><trkpt lat="46.5312442" lon="12.0191874"/><trkpt lat="46.5312685" lon="12.0190483"/><trkpt lat="46.5312347" lon="12.0188579"/><trkpt lat="46.5312906" lon="12.0186287"/><trkpt lat="46.5313534" lon="12.0184291"/><trkpt lat="46.5313582" lon="12.0181507"/><trkpt lat="46.5312574" lon="12.0178417"/><trkpt lat="46.5311411" lon="12.0174129"/><trkpt lat="46.5311101" lon="12.0171857"/><trkpt lat="46.5310786" lon="12.0169549"/><trkpt lat="46.5310193" lon="12.016673"/><trkpt lat="46.5309719" lon="12.0163405"/><trkpt lat="46.5308957" lon="12.016131"/><trkpt lat="46.5308599" lon="12.0159524"/><trkpt lat="46.5307011" lon="12.0156697"/><trkpt lat="46.5306665" lon="12.0155753"/><trkpt lat="46.5306694" lon="12.0154773"/><trkpt lat="46.5307009" lon="12.015375"/><trkpt lat="46.5307265" lon="12.0152326"/><trkpt lat="46.5306781" lon="12.0148633"/><trkpt lat="46.5305914" lon="12.0147438"/><trkpt lat="46.5305174" lon="12.0145482"/><trkpt lat="46.5305484" lon="12.0142869"/><trkpt lat="46.5304912" lon="12.0139204"/><trkpt lat="46.5304094" lon="12.0135567"/><trkpt lat="46.5303988" lon="12.0134091"/><trkpt lat="46.530413" lon="12.0132617"/><trkpt lat="46.5304526" lon="12.0131313"/><trkpt lat="46.5304954" lon="12.0130966"/><trkpt lat="46.5304854" lon="12.0130689"/><trkpt lat="46.5303802" lon="12.0128812"/><trkpt lat="46.5303262" lon="12.0127634"/><trkpt lat="46.5303027" lon="12.0126765"/><trkpt lat="46.5302446" lon="12.0125599"/><trkpt lat="46.5300999" lon="12.0125574"/><trkpt lat="46.5300362" lon="12.0125185"/><trkpt lat="46.5299845" lon="12.0124769"/><trkpt lat="46.5299513" lon="12.0124742"/><trkpt lat="46.529931" lon="12.0124742"/><trkpt lat="46.5299301" lon="12.0124233"/><trkpt lat="46.529955" lon="12.0124045"/><trkpt lat="46.5299384" lon="12.0123763"/><trkpt lat="46.5299624" lon="12.0123415"/><trkpt lat="46.5299255" lon="12.0123629"/><trkpt lat="46.5299439" lon="12.012265"/><trkpt lat="46.529896" lon="12.012316"/><trkpt lat="46.5299024" lon="12.012253"/><trkpt lat="46.5298572" lon="12.0122784"/><trkpt lat="46.5298443" lon="12.0122436"/><trkpt lat="46.5298458" lon="12.0122292"/><trkpt lat="46.5298065" lon="12.0122369"/><trkpt lat="46.5297871" lon="12.01221"/><trkpt lat="46.5297538" lon="12.0122288"/><trkpt lat="46.5297216" lon="12.0121282"/><trkpt lat="46.5296517" lon="12.0120618"/><trkpt lat="46.5296145" lon="12.0120246"/><trkpt lat="46.5295343" lon="12.0119445"/><trkpt lat="46.5294904" lon="12.0118435"/><trkpt lat="46.5294656" lon="12.0116639"/><trkpt lat="46.5294589" lon="12.0115865"/><trkpt lat="46.5294265" lon="12.0115894"/><trkpt lat="46.5293437" lon="12.0117508"/><trkpt lat="46.5293261" lon="12.0114565"/><trkpt lat="46.5292387" lon="12.011601"/><trkpt lat="46.5292416" lon="12.0113313"/><trkpt lat="46.5290836" lon="12.0115555"/><trkpt lat="46.5290478" lon="12.0116316"/><trkpt lat="46.5290198" lon="12.0115644"/><trkpt lat="46.528996" lon="12.0114581"/><trkpt lat="46.5289973" lon="12.0113618"/><trkpt lat="46.5289782" lon="12.0113375"/><trkpt lat="46.528934" lon="12.011308"/><trkpt lat="46.528886" lon="12.0113753"/><trkpt lat="46.5288428" lon="12.0114521"/><trkpt lat="46.5288255" lon="12.0114733"/><trkpt lat="46.5288191" lon="12.0114414"/><trkpt lat="46.5288157" lon="12.0114249"/><trkpt lat="46.5288026" lon="12.0113094"/><trkpt lat="46.5288028" lon="12.0112498"/><trkpt lat="46.5288038" lon="12.0109126"/><trkpt lat="46.5287358" lon="12.0107752"/><trkpt lat="46.5287021" lon="12.010873"/><trkpt lat="46.5286376" lon="12.0107408"/><trkpt lat="46.5286048" lon="12.0108086"/><trkpt lat="46.5285452" lon="12.0107026"/><trkpt lat="46.5285497" lon="12.0106177"/><trkpt lat="46.5285494" lon="12.010484"/><trkpt lat="46.5285296" lon="12.0103997"/><trkpt lat="46.5282535" lon="12.0106608"/><trkpt lat="46.5282396" lon="12.0104423"/><trkpt lat="46.528033" lon="12.010632"/><trkpt lat="46.5280305" lon="12.0102674"/><trkpt lat="46.5278791" lon="12.0104518"/><trkpt lat="46.5278087" lon="12.0105495"/><trkpt lat="46.527782" lon="12.0105413"/><trkpt lat="46.5278062" lon="12.0104803"/><trkpt lat="46.5278963" lon="12.0099882"/><trkpt lat="46.5277913" lon="12.0101265"/><trkpt lat="46.5278074" lon="12.0099552"/><trkpt lat="46.5277958" lon="12.0097624"/><trkpt lat="46.5277769" lon="12.009708"/><trkpt lat="46.5277462" lon="12.0096198"/><trkpt lat="46.5277247" lon="12.009543"/><trkpt lat="46.5276815" lon="12.009498"/><trkpt lat="46.5276616" lon="12.0094683"/><trkpt lat="46.5276578" lon="12.0093849"/><trkpt lat="46.5276658" lon="12.0092148"/><trkpt lat="46.5276611" lon="12.0089101"/><trkpt lat="46.5276347" lon="12.0088419"/><trkpt lat="46.5276368" lon="12.0086773"/><trkpt lat="46.5276583" lon="12.0084095"/><trkpt lat="46.5276613" lon="12.0083155"/><trkpt lat="46.527642" lon="12.0082132"/><trkpt lat="46.5276613" lon="12.0083155"/><trkpt lat="46.5276583" lon="12.0084095"/><trkpt lat="46.5276368" lon="12.0086773"/><trkpt lat="46.5276347" lon="12.0088419"/><trkpt lat="46.5276611" lon="12.0089101"/><trkpt lat="46.5276658" lon="12.0092148"/><trkpt lat="46.5275581" lon="12.009213"/><trkpt lat="46.5275237" lon="12.0091409"/><trkpt lat="46.527516" lon="12.0092409"/><trkpt lat="46.5274777" lon="12.0092532"/><trkpt lat="46.5274469" lon="12.0092103"/><trkpt lat="46.527425" lon="12.0092364"/><trkpt lat="46.5274336" lon="12.0093407"/><trkpt lat="46.5273713" lon="12.0092226"/><trkpt lat="46.5273633" lon="12.0092601"/><trkpt lat="46.5273785" lon="12.0093572"/><trkpt lat="46.5274069" lon="12.009449"/><trkpt lat="46.5274722" lon="12.0096034"/><trkpt lat="46.5274994" lon="12.0097127"/><trkpt lat="46.5275001" lon="12.0098167"/><trkpt lat="46.5275064" lon="12.0098972"/><trkpt lat="46.5275177" lon="12.0099448"/><trkpt lat="46.5274987" lon="12.0101117"/><trkpt lat="46.5275261" lon="12.010191"/><trkpt lat="46.5275568" lon="12.0102137"/><trkpt lat="46.5275689" lon="12.0102403"/><trkpt lat="46.527582" lon="12.0102738"/><trkpt lat="46.5276027" lon="12.010333"/><trkpt lat="46.5276531" lon="12.0104569"/><trkpt lat="46.5276807" lon="12.010575"/><trkpt lat="46.5277068" lon="12.0106725"/><trkpt lat="46.5277011" lon="12.0109341"/><trkpt lat="46.5276581" lon="12.0109249"/><trkpt lat="46.5276584" lon="12.011"/><trkpt lat="46.5276783" lon="12.0111096"/><trkpt lat="46.5276961" lon="12.0111546"/><trkpt lat="46.5277382" lon="12.0111638"/><trkpt lat="46.5277293" lon="12.011249"/><trkpt lat="46.5277495" lon="12.0112826"/><trkpt lat="46.5277279" lon="12.0113414"/><trkpt lat="46.527725" lon="12.0113666"/><trkpt lat="46.5277774" lon="12.0113958"/><trkpt lat="46.5278246" lon="12.0114023"/><trkpt lat="46.52779" lon="12.0114716"/><trkpt lat="46.5277582" lon="12.0114758"/><trkpt lat="46.5277134" lon="12.0115444"/><trkpt lat="46.5276629" lon="12.0115534"/><trkpt lat="46.5276135" lon="12.0116134"/><trkpt lat="46.5274631" lon="12.0117221"/><trkpt lat="46.5273061" lon="12.0118452"/><trkpt lat="46.5271837" lon="12.0118488"/><trkpt lat="46.5270048" lon="12.0119253"/><trkpt lat="46.5268955" lon="12.0119575"/><trkpt lat="46.5268558" lon="12.0119499"/><trkpt lat="46.5268341" lon="12.0119312"/><trkpt lat="46.5268465" lon="12.011883"/><trkpt lat="46.5268761" lon="12.0118549"/><trkpt lat="46.5269165" lon="12.0118622"/><trkpt lat="46.5269252" lon="12.0118924"/><trkpt lat="46.5269338" lon="12.0119221"/><trkpt lat="46.5269136" lon="12.0120313"/><trkpt lat="46.5268443" lon="12.0121551"/><trkpt lat="46.5266256" lon="12.0124183"/><trkpt lat="46.5265727" lon="12.0124365"/><trkpt lat="46.5263759" lon="12.01247"/><trkpt lat="46.5263402" lon="12.0124737"/><trkpt lat="46.5263065" lon="12.0125539"/><trkpt lat="46.5262779" lon="12.0125613"/><trkpt lat="46.526284" lon="12.0124812"/><trkpt lat="46.5263014" lon="12.0124411"/><trkpt lat="46.5263376" lon="12.0123873"/><trkpt lat="46.5263759" lon="12.0122897"/><trkpt lat="46.5263666" lon="12.0122438"/><trkpt lat="46.5263479" lon="12.0121934"/><trkpt lat="46.5262771" lon="12.0121976"/><trkpt lat="46.526199" lon="12.0122503"/><trkpt lat="46.5261399" lon="12.0123278"/><trkpt lat="46.5260719" lon="12.0124602"/><trkpt lat="46.525952" lon="12.0127688"/><trkpt lat="46.525921" lon="12.0129436"/><trkpt lat="46.5257718" lon="12.0131438"/><trkpt lat="46.5257174" lon="12.013204"/><trkpt lat="46.5257078" lon="12.0132691"/><trkpt lat="46.5257558" lon="12.0133413"/><trkpt lat="46.5258082" lon="12.0134237"/><trkpt lat="46.5258715" lon="12.013475"/><trkpt lat="46.5259092" lon="12.013512"/><trkpt lat="46.5259489" lon="12.0135717"/><trkpt lat="46.5259793" lon="12.0135958"/><trkpt lat="46.5260299" lon="12.0136633"/><trkpt lat="46.5260585" lon="12.0137168"/><trkpt lat="46.5261052" lon="12.0137326"/><trkpt lat="46.5261149" lon="12.0137828"/><trkpt lat="46.5262163" lon="12.0138789"/><trkpt lat="46.5263012" lon="12.0138939"/><trkpt lat="46.5263951" lon="12.0139456"/><trkpt lat="46.5264216" lon="12.0139889"/><trkpt lat="46.5264009" lon="12.0140423"/><trkpt lat="46.526377" lon="12.0140522"/><trkpt lat="46.526348" lon="12.0140398"/><trkpt lat="46.526319" lon="12.0140274"/><trkpt lat="46.5263019" lon="12.0140621"/><trkpt lat="46.5263173" lon="12.0140795"/><trkpt lat="46.526348" lon="12.0140894"/><trkpt lat="46.5263573" lon="12.0141376"/><trkpt lat="46.5264026" lon="12.014523"/><trkpt lat="46.5264095" lon="12.0145882"/><trkpt lat="46.526452" lon="12.0147003"/><trkpt lat="46.526382" lon="12.0146441"/><trkpt lat="46.5263961" lon="12.0147641"/><trkpt lat="46.5264356" lon="12.0149819"/><trkpt lat="46.5264541" lon="12.015095"/><trkpt lat="46.5264562" lon="12.0152187"/><trkpt lat="46.5264244" lon="12.0151436"/><trkpt lat="46.5264119" lon="12.015169"/><trkpt lat="46.5264266" lon="12.015358"/><trkpt lat="46.5264575" lon="12.0155008"/><trkpt lat="46.5265061" lon="12.0156344"/><trkpt lat="46.5265338" lon="12.0157137"/><trkpt lat="46.526554" lon="12.0157673"/><trkpt lat="46.5264333" lon="12.0156663"/><trkpt lat="46.5263435" lon="12.0155702"/><trkpt lat="46.5263138" lon="12.0155692"/><trkpt lat="46.5262883" lon="12.0154725"/><trkpt lat="46.5262394" lon="12.0153575"/><trkpt lat="46.5262167" lon="12.0152759"/><trkpt lat="46.5261857" lon="12.0152271"/><trkpt lat="46.5261042" lon="12.0150733"/><trkpt lat="46.5260606" lon="12.0149131"/><trkpt lat="46.5260414" lon="12.0149402"/><trkpt lat="46.5260556" lon="12.0151564"/><trkpt lat="46.5260045" lon="12.0150845"/><trkpt lat="46.5259758" lon="12.0150078"/><trkpt lat="46.5259559" lon="12.0149852"/><trkpt lat="46.5259545" lon="12.0150367"/><trkpt lat="46.5259741" lon="12.0151576"/><trkpt lat="46.5259258" lon="12.0150937"/><trkpt lat="46.5259178" lon="12.0151229"/><trkpt lat="46.525959" lon="12.0154244"/><trkpt lat="46.5260211" lon="12.0157245"/><trkpt lat="46.5258934" lon="12.0156033"/><trkpt lat="46.5258716" lon="12.015603"/><trkpt lat="46.5259143" lon="12.0157787"/><trkpt lat="46.5258225" lon="12.0157025"/><trkpt lat="46.5258259" lon="12.015767"/><trkpt lat="46.5258853" lon="12.0159413"/><trkpt lat="46.525881" lon="12.0159553"/><trkpt lat="46.5257075" lon="12.0158686"/><trkpt lat="46.5255919" lon="12.0157631"/><trkpt lat="46.525497" lon="12.0156214"/><trkpt lat="46.525463" lon="12.0155814"/><trkpt lat="46.5254766" lon="12.0157168"/><trkpt lat="46.5254879" lon="12.0157936"/><trkpt lat="46.5254658" lon="12.0157823"/><trkpt lat="46.5253727" lon="12.0156337"/><trkpt lat="46.5252829" lon="12.0154641"/><trkpt lat="46.5252603" lon="12.0154305"/><trkpt lat="46.5252095" lon="12.0154482"/><trkpt lat="46.5250831" lon="12.0152878"/><trkpt lat="46.5250222" lon="12.0151578"/><trkpt lat="46.5249628" lon="12.0150563"/><trkpt lat="46.524893" lon="12.0150319"/><trkpt lat="46.5248562" lon="12.0149815"/><trkpt lat="46.5247531" lon="12.0147"/><trkpt lat="46.5246971" lon="12.0145441"/><trkpt lat="46.524563" lon="12.0143735"/><trkpt lat="46.524541" lon="12.0144162"/><trkpt lat="46.5245245" lon="12.014577"/><trkpt lat="46.5244885" lon="12.0146671"/><trkpt lat="46.5244565" lon="12.0147936"/><trkpt lat="46.5244563" lon="12.0149274"/><trkpt lat="46.5244505" lon="12.0151199"/><trkpt lat="46.5244503" lon="12.0151736"/><trkpt lat="46.524422" lon="12.015156"/><trkpt lat="46.5243632" lon="12.0149677"/><trkpt lat="46.524326" lon="12.0149451"/><trkpt lat="46.5242756" lon="12.0148107"/><trkpt lat="46.5241973" lon="12.0146677"/><trkpt lat="46.5241656" lon="12.0145984"/><trkpt lat="46.5241124" lon="12.0145279"/><trkpt lat="46.5240084" lon="12.0142532"/><trkpt lat="46.5239841" lon="12.0142916"/><trkpt lat="46.5239455" lon="12.0142929"/><trkpt lat="46.5239026" lon="12.0140879"/><trkpt lat="46.5237964" lon="12.0138379"/><trkpt lat="46.52375" lon="12.013884"/><trkpt lat="46.5236454" lon="12.0133777"/><trkpt lat="46.5235737" lon="12.0131034"/><trkpt lat="46.5235215" lon="12.0130371"/><trkpt lat="46.5233997" lon="12.0129653"/><trkpt lat="46.5231611" lon="12.0126115"/><trkpt lat="46.522993" lon="12.0124205"/><trkpt lat="46.5228452" lon="12.0123367"/><trkpt lat="46.5227323" lon="12.0122442"/><trkpt lat="46.5226791" lon="12.012239"/><trkpt lat="46.5226226" lon="12.0121785"/><trkpt lat="46.5226003" lon="12.012142"/><trkpt lat="46.5225278" lon="12.0119963"/><trkpt lat="46.5224798" lon="12.0118892"/><trkpt lat="46.5224216" lon="12.0117218"/><trkpt lat="46.5223401" lon="12.0115228"/><trkpt lat="46.5222808" lon="12.011424"/><trkpt lat="46.5221642" lon="12.0112727"/><trkpt lat="46.5220611" lon="12.0112194"/><trkpt lat="46.5219792" lon="12.0111141"/><trkpt lat="46.5219164" lon="12.01099"/><trkpt lat="46.5218095" lon="12.0109205"/><trkpt lat="46.5216596" lon="12.0106169"/><trkpt lat="46.521578" lon="12.0104018"/><trkpt lat="46.5214077" lon="12.0100023"/><trkpt lat="46.5212987" lon="12.0098465"/><trkpt lat="46.5212249" lon="12.0097988"/><trkpt lat="46.5211346" lon="12.0097305"/><trkpt lat="46.5209082" lon="12.0096186"/><trkpt lat="46.5208288" lon="12.0095918"/><trkpt lat="46.5206309" lon="12.0095055"/><trkpt lat="46.5204622" lon="12.0093958"/><trkpt lat="46.5204131" lon="12.0093464"/><trkpt lat="46.5203643" lon="12.009285"/><trkpt lat="46.520302" lon="12.0091598"/><trkpt lat="46.5201605" lon="12.0089963"/><trkpt lat="46.5200979" lon="12.0089388"/><trkpt lat="46.520045" lon="12.0088839"/><trkpt lat="46.5199396" lon="12.0087773"/><trkpt lat="46.5199334" lon="12.0086866"/><trkpt lat="46.5198722" lon="12.0086176"/><trkpt lat="46.519785" lon="12.0085319"/><trkpt lat="46.519772" lon="12.0083258"/><trkpt lat="46.5197085" lon="12.0083361"/><trkpt lat="46.5193053" lon="12.0084013"/><trkpt lat="46.5192771" lon="12.0082001"/><trkpt lat="46.5191749" lon="12.0080915"/><trkpt lat="46.519158" lon="12.0080303"/><trkpt lat="46.519135" lon="12.0079614"/><trkpt lat="46.5190422" lon="12.0080553"/><trkpt lat="46.518963" lon="12.0080028"/><trkpt lat="46.5188867" lon="12.0082377"/><trkpt lat="46.518865" lon="12.0083074"/></trkseg></trk></gpx>