<?xml version="1.0" encoding="UTF-8"?><gpx version="1.1" creator="Dolomites Atlas" xmlns="http://www.topografix.com/GPX/1/1"><metadata><name>Val di Funes · Adolf Munkel</name><desc>Планировочная реконструкция по OpenStreetMap, 09.09.2026. Не запись GPS и не проверенный навигационный трек. Высоты не экспортированы. Данные © OpenStreetMap contributors, ODbL. Автопереезды и канатки в пеший трек не включены.</desc><link href="https://www.openstreetmap.org/copyright"><text>OpenStreetMap contributors · ODbL</text></link></metadata><wpt lat="46.6358925" lon="11.7655749"><name>Zans / Zannes — старт</name></wpt><wpt lat="46.6193202" lon="11.749604"><name>Gschnagenhardt / Malga Casnago</name></wpt><wpt lat="46.6209871" lon="11.7494968"><name>Geisleralm / Rifugio delle Odle</name></wpt><wpt lat="46.6268525" lon="11.7563495"><name>Dusler Alm</name></wpt><trk><name>Adolf Munkel — Geisleralm — Dusler</name><desc>Планировочная реконструкция по OpenStreetMap, 09.09.2026. Не запись GPS и не проверенный навигационный трек. Высоты не экспортированы. Данные © OpenStreetMap contributors, ODbL. Автопереезды и канатки в пеший трек не включены.</desc><type>hiking</type><trkseg><trkpt lat="46.6358425" lon="11.7654758"/><trkpt lat="46.6358029" lon="11.7655601"/><trkpt lat="46.6357895" lon="11.7656037"/><trkpt lat="46.6357802" lon="11.7656666"/><trkpt lat="46.6357761" lon="11.7657179"/><trkpt lat="46.6357794" lon="11.7657621"/><trkpt lat="46.6358242" lon="11.7659434"/><trkpt lat="46.6357026" lon="11.7662459"/><trkpt lat="46.6356584" lon="11.766352"/><trkpt lat="46.6356195" lon="11.7664685"/><trkpt lat="46.635617" lon="11.7665773"/><trkpt lat="46.635627" lon="11.7667049"/><trkpt lat="46.6356403" lon="11.7668752"/><trkpt lat="46.6356384" lon="11.7669755"/><trkpt lat="46.6356339" lon="11.7672093"/><trkpt lat="46.6356225" lon="11.7673444"/><trkpt lat="46.6356096" lon="11.7674128"/><trkpt lat="46.6355677" lon="11.7674955"/><trkpt lat="46.6355387" lon="11.7675292"/><trkpt lat="46.6353037" lon="11.7676809"/><trkpt lat="46.6351225" lon="11.7680877"/><trkpt lat="46.6350633" lon="11.768233"/><trkpt lat="46.6349887" lon="11.768358"/><trkpt lat="46.6348665" lon="11.7686049"/><trkpt lat="46.6348034" lon="11.7687632"/><trkpt lat="46.6346819" lon="11.7690894"/><trkpt lat="46.6343263" lon="11.7701451"/><trkpt lat="46.6341458" lon="11.7705266"/><trkpt lat="46.6339433" lon="11.7708187"/><trkpt lat="46.633791" lon="11.7709704"/><trkpt lat="46.6335694" lon="11.7711564"/><trkpt lat="46.6334294" lon="11.7714045"/><trkpt lat="46.6332426" lon="11.7719813"/><trkpt lat="46.6330818" lon="11.7722233"/><trkpt lat="46.6328986" lon="11.7724319"/><trkpt lat="46.6325655" lon="11.7727751"/><trkpt lat="46.6322503" lon="11.7729894"/><trkpt lat="46.6319241" lon="11.7734291"/><trkpt lat="46.6315635" lon="11.7742055"/><trkpt lat="46.6309313" lon="11.774973"/><trkpt lat="46.6306035" lon="11.7755754"/><trkpt lat="46.6302951" lon="11.7759708"/><trkpt lat="46.6301061" lon="11.7763362"/><trkpt lat="46.6297058" lon="11.7768673"/><trkpt lat="46.629566" lon="11.7772065"/><trkpt lat="46.6293063" lon="11.7777614"/><trkpt lat="46.6290823" lon="11.7782576"/><trkpt lat="46.6288444" lon="11.7786854"/><trkpt lat="46.6284255" lon="11.7790378"/><trkpt lat="46.6282486" lon="11.7793687"/><trkpt lat="46.6281458" lon="11.7795895"/><trkpt lat="46.6279403" lon="11.7797919"/><trkpt lat="46.6276911" lon="11.7800224"/><trkpt lat="46.627512" lon="11.7802448"/><trkpt lat="46.6272749" lon="11.7804668"/><trkpt lat="46.6269812" lon="11.7807663"/><trkpt lat="46.626768" lon="11.7807686"/><trkpt lat="46.6263302" lon="11.780863"/><trkpt lat="46.6260411" lon="11.7808247"/><trkpt lat="46.6258141" lon="11.7807235"/><trkpt lat="46.6257507" lon="11.7807154"/><trkpt lat="46.6256669" lon="11.7807496"/><trkpt lat="46.6256396" lon="11.7807601"/><trkpt lat="46.6256259" lon="11.7807782"/><trkpt lat="46.6255866" lon="11.7809647"/><trkpt lat="46.6255166" lon="11.7810067"/><trkpt lat="46.6254495" lon="11.7810384"/><trkpt lat="46.6253739" lon="11.7810384"/><trkpt lat="46.6253042" lon="11.7810196"/><trkpt lat="46.6252593" lon="11.7809897"/><trkpt lat="46.6252212" lon="11.7809283"/><trkpt lat="46.6251795" lon="11.7808185"/><trkpt lat="46.6251722" lon="11.7807451"/><trkpt lat="46.6251734" lon="11.7806362"/><trkpt lat="46.6251762" lon="11.7805672"/><trkpt lat="46.6250724" lon="11.7805876"/><trkpt lat="46.6250378" lon="11.7805794"/><trkpt lat="46.6250169" lon="11.7805558"/><trkpt lat="46.625018" lon="11.7805253"/><trkpt lat="46.6250483" lon="11.7804661"/><trkpt lat="46.6250829" lon="11.7804306"/><trkpt lat="46.6251606" lon="11.7804072"/><trkpt lat="46.625192" lon="11.7803605"/><trkpt lat="46.6252804" lon="11.7801244"/><trkpt lat="46.6252729" lon="11.7800206"/><trkpt lat="46.6253881" lon="11.7797302"/><trkpt lat="46.6254453" lon="11.7794054"/><trkpt lat="46.625517" lon="11.7791542"/><trkpt lat="46.6255943" lon="11.7790496"/><trkpt lat="46.6256141" lon="11.7789859"/><trkpt lat="46.6255899" lon="11.77844"/><trkpt lat="46.6255972" lon="11.7781182"/><trkpt lat="46.6255309" lon="11.7778821"/><trkpt lat="46.6253467" lon="11.7776354"/><trkpt lat="46.6253051" lon="11.7774884"/><trkpt lat="46.6253077" lon="11.777297"/><trkpt lat="46.6253838" lon="11.7770924"/><trkpt lat="46.6253853" lon="11.7770303"/><trkpt lat="46.6253676" lon="11.7769838"/><trkpt lat="46.6252108" lon="11.7769518"/><trkpt lat="46.625039" lon="11.7768593"/><trkpt lat="46.6249269" lon="11.7766675"/><trkpt lat="46.6244892" lon="11.7766964"/><trkpt lat="46.6244525" lon="11.77665"/><trkpt lat="46.6244248" lon="11.7766445"/><trkpt lat="46.6243628" lon="11.7765945"/><trkpt lat="46.6243266" lon="11.776557"/><trkpt lat="46.6242789" lon="11.7764876"/><trkpt lat="46.6242294" lon="11.7764182"/><trkpt lat="46.6241559" lon="11.776346"/><trkpt lat="46.6240701" lon="11.776253"/><trkpt lat="46.6240215" lon="11.7761655"/><trkpt lat="46.6240079" lon="11.7760798"/><trkpt lat="46.6239824" lon="11.7760281"/><trkpt lat="46.6239624" lon="11.7759878"/><trkpt lat="46.6239109" lon="11.7759254"/><trkpt lat="46.6238759" lon="11.7758852"/><trkpt lat="46.6238451" lon="11.7758333"/><trkpt lat="46.6238218" lon="11.7757749"/><trkpt lat="46.623791" lon="11.7757435"/><trkpt lat="46.6237442" lon="11.7756676"/><trkpt lat="46.6237164" lon="11.7755838"/><trkpt lat="46.6237007" lon="11.7754992"/><trkpt lat="46.623683" lon="11.7754464"/><trkpt lat="46.6236554" lon="11.7753201"/><trkpt lat="46.6236353" lon="11.7752684"/><trkpt lat="46.6236041" lon="11.7751929"/><trkpt lat="46.6235895" lon="11.7750684"/><trkpt lat="46.6236618" lon="11.7746413"/><trkpt lat="46.6236832" lon="11.7743437"/><trkpt lat="46.6236593" lon="11.7741527"/><trkpt lat="46.6236067" lon="11.7739953"/><trkpt lat="46.6235602" lon="11.7736488"/><trkpt lat="46.6235694" lon="11.7733924"/><trkpt lat="46.6232025" lon="11.7724533"/><trkpt lat="46.6229723" lon="11.7719491"/><trkpt lat="46.6227995" lon="11.7718316"/><trkpt lat="46.6226802" lon="11.7718009"/><trkpt lat="46.6226186" lon="11.7717629"/><trkpt lat="46.6226018" lon="11.7716841"/><trkpt lat="46.6225906" lon="11.7715537"/><trkpt lat="46.6225551" lon="11.7714287"/><trkpt lat="46.6224936" lon="11.7712874"/><trkpt lat="46.6224021" lon="11.7711461"/><trkpt lat="46.6223238" lon="11.7710619"/><trkpt lat="46.6222883" lon="11.7710049"/><trkpt lat="46.6222245" lon="11.7708802"/><trkpt lat="46.6217206" lon="11.7706598"/><trkpt lat="46.6216013" lon="11.7704313"/><trkpt lat="46.6215047" lon="11.7702743"/><trkpt lat="46.6214847" lon="11.7701994"/><trkpt lat="46.621448" lon="11.7701382"/><trkpt lat="46.6214294" lon="11.7700603"/><trkpt lat="46.6214309" lon="11.7699733"/><trkpt lat="46.6214586" lon="11.7699189"/><trkpt lat="46.6215544" lon="11.7698142"/><trkpt lat="46.6219756" lon="11.7692327"/><trkpt lat="46.6219666" lon="11.7691903"/><trkpt lat="46.6217369" lon="11.7692707"/><trkpt lat="46.6216164" lon="11.7693176"/><trkpt lat="46.6214832" lon="11.769317"/><trkpt lat="46.6214019" lon="11.7692546"/><trkpt lat="46.6212155" lon="11.769169"/><trkpt lat="46.6210828" lon="11.7691248"/><trkpt lat="46.6209944" lon="11.7691162"/><trkpt lat="46.6208676" lon="11.7691576"/><trkpt lat="46.6208054" lon="11.7691496"/><trkpt lat="46.620706" lon="11.7690785"/><trkpt lat="46.6206416" lon="11.7689794"/><trkpt lat="46.6206287" lon="11.7688465"/><trkpt lat="46.6206586" lon="11.7687339"/><trkpt lat="46.6207246" lon="11.7685845"/><trkpt lat="46.6208248" lon="11.7684943"/><trkpt lat="46.6209951" lon="11.7681963"/><trkpt lat="46.6210218" lon="11.768142"/><trkpt lat="46.6210976" lon="11.7678141"/><trkpt lat="46.6212026" lon="11.7676539"/><trkpt lat="46.6212892" lon="11.7674811"/><trkpt lat="46.6213327" lon="11.7672846"/><trkpt lat="46.6213531" lon="11.7671117"/><trkpt lat="46.6213503" lon="11.7670275"/><trkpt lat="46.6213215" lon="11.7667911"/><trkpt lat="46.6213338" lon="11.7667303"/><trkpt lat="46.6213305" lon="11.7666326"/><trkpt lat="46.6213344" lon="11.7665873"/><trkpt lat="46.6213572" lon="11.7665263"/><trkpt lat="46.621374" lon="11.7664355"/><trkpt lat="46.6213838" lon="11.7662008"/><trkpt lat="46.6214128" lon="11.7660972"/><trkpt lat="46.6214273" lon="11.7659795"/><trkpt lat="46.621447" lon="11.7657022"/><trkpt lat="46.6214367" lon="11.7655943"/><trkpt lat="46.6214444" lon="11.7654874"/><trkpt lat="46.6214534" lon="11.7652317"/><trkpt lat="46.6214455" lon="11.7651216"/><trkpt lat="46.6214385" lon="11.7650458"/><trkpt lat="46.6214122" lon="11.7649773"/><trkpt lat="46.6213576" lon="11.7649049"/><trkpt lat="46.6209384" lon="11.7644202"/><trkpt lat="46.6208721" lon="11.7643042"/><trkpt lat="46.6208358" lon="11.7641716"/><trkpt lat="46.6208168" lon="11.7640199"/><trkpt lat="46.6207778" lon="11.7638724"/><trkpt lat="46.6207067" lon="11.7637139"/><trkpt lat="46.6206105" lon="11.7635894"/><trkpt lat="46.6204969" lon="11.7634762"/><trkpt lat="46.6204364" lon="11.7634365"/><trkpt lat="46.6203431" lon="11.7633929"/><trkpt lat="46.6202558" lon="11.7633735"/><trkpt lat="46.6201617" lon="11.7633683"/><trkpt lat="46.6200899" lon="11.7633275"/><trkpt lat="46.6199716" lon="11.7631896"/><trkpt lat="46.6198838" lon="11.7632516"/><trkpt lat="46.6198219" lon="11.7633046"/><trkpt lat="46.6197371" lon="11.7632817"/><trkpt lat="46.6196098" lon="11.7633164"/><trkpt lat="46.6195501" lon="11.763297"/><trkpt lat="46.6194842" lon="11.7632932"/><trkpt lat="46.6194262" lon="11.7633469"/><trkpt lat="46.6193513" lon="11.7633272"/><trkpt lat="46.6192705" lon="11.7632646"/><trkpt lat="46.6191879" lon="11.7631136"/><trkpt lat="46.6191789" lon="11.7629658"/><trkpt lat="46.6191379" lon="11.762792"/><trkpt lat="46.6190285" lon="11.7626722"/><trkpt lat="46.6189139" lon="11.7626476"/><trkpt lat="46.6188111" lon="11.7625331"/><trkpt lat="46.6187245" lon="11.7623247"/><trkpt lat="46.6187144" lon="11.7622879"/><trkpt lat="46.6186158" lon="11.7621589"/><trkpt lat="46.618541" lon="11.7621002"/><trkpt lat="46.6184329" lon="11.7620503"/><trkpt lat="46.6183065" lon="11.7619928"/><trkpt lat="46.618253" lon="11.7618638"/><trkpt lat="46.6182011" lon="11.7617013"/><trkpt lat="46.6182202" lon="11.7615988"/><trkpt lat="46.618232" lon="11.7615338"/><trkpt lat="46.6182198" lon="11.7614856"/><trkpt lat="46.6182596" lon="11.7613672"/><trkpt lat="46.6182906" lon="11.7612724"/><trkpt lat="46.6183374" lon="11.7611591"/><trkpt lat="46.6183454" lon="11.7610265"/><trkpt lat="46.6183653" lon="11.7608785"/><trkpt lat="46.6184336" lon="11.7606217"/><trkpt lat="46.6185152" lon="11.7604967"/><trkpt lat="46.6185433" lon="11.7604063"/><trkpt lat="46.6185342" lon="11.7602734"/><trkpt lat="46.6185843" lon="11.7600165"/><trkpt lat="46.6185989" lon="11.7598638"/><trkpt lat="46.6185902" lon="11.7596701"/><trkpt lat="46.6186011" lon="11.7596168"/><trkpt lat="46.6186045" lon="11.7595593"/><trkpt lat="46.6186604" lon="11.7594521"/><trkpt lat="46.6186734" lon="11.7593917"/><trkpt lat="46.6186759" lon="11.7593054"/><trkpt lat="46.6186566" lon="11.7590922"/><trkpt lat="46.6186309" lon="11.7589136"/><trkpt lat="46.618663" lon="11.7587529"/><trkpt lat="46.6186648" lon="11.7586363"/><trkpt lat="46.6186256" lon="11.7585215"/><trkpt lat="46.6186273" lon="11.7584865"/><trkpt lat="46.6186439" lon="11.7584476"/><trkpt lat="46.6186959" lon="11.7583375"/><trkpt lat="46.6187052" lon="11.7581698"/><trkpt lat="46.6186789" lon="11.7581366"/><trkpt lat="46.6186592" lon="11.7580664"/><trkpt lat="46.6186569" lon="11.7579842"/><trkpt lat="46.6186266" lon="11.757945"/><trkpt lat="46.618608" lon="11.7578414"/><trkpt lat="46.6185609" lon="11.7577399"/><trkpt lat="46.6185001" lon="11.7576122"/><trkpt lat="46.6184818" lon="11.7575316"/><trkpt lat="46.618488" lon="11.7574753"/><trkpt lat="46.6184999" lon="11.7573726"/><trkpt lat="46.6184744" lon="11.7572962"/><trkpt lat="46.6184131" lon="11.7572325"/><trkpt lat="46.6183574" lon="11.7571283"/><trkpt lat="46.6183003" lon="11.7570905"/><trkpt lat="46.6182032" lon="11.7570217"/><trkpt lat="46.6180926" lon="11.7569958"/><trkpt lat="46.6180242" lon="11.7569393"/><trkpt lat="46.6180109" lon="11.7568946"/><trkpt lat="46.6179587" lon="11.7568373"/><trkpt lat="46.6178712" lon="11.756812"/><trkpt lat="46.6178379" lon="11.7568369"/><trkpt lat="46.6178139" lon="11.7568262"/><trkpt lat="46.6177993" lon="11.7568131"/><trkpt lat="46.6178" lon="11.7566625"/><trkpt lat="46.6178078" lon="11.7565158"/><trkpt lat="46.6178389" lon="11.7564134"/><trkpt lat="46.6178597" lon="11.7563573"/><trkpt lat="46.6178657" lon="11.7562856"/><trkpt lat="46.6178563" lon="11.7562455"/><trkpt lat="46.6178371" lon="11.7561985"/><trkpt lat="46.6177887" lon="11.7561091"/><trkpt lat="46.6177281" lon="11.7560758"/><trkpt lat="46.6176764" lon="11.7560157"/><trkpt lat="46.6176623" lon="11.7559013"/><trkpt lat="46.6176511" lon="11.7558577"/><trkpt lat="46.6176333" lon="11.7558232"/><trkpt lat="46.6175363" lon="11.755757"/><trkpt lat="46.6174671" lon="11.755665"/><trkpt lat="46.6174436" lon="11.7555867"/><trkpt lat="46.6174409" lon="11.7554985"/><trkpt lat="46.6174111" lon="11.7554187"/><trkpt lat="46.6172771" lon="11.7552015"/><trkpt lat="46.6172128" lon="11.7550999"/><trkpt lat="46.6171564" lon="11.7550228"/><trkpt lat="46.6170802" lon="11.7549707"/><trkpt lat="46.6170034" lon="11.7548911"/><trkpt lat="46.6169844" lon="11.7548179"/><trkpt lat="46.6168349" lon="11.7546848"/><trkpt lat="46.6168059" lon="11.7546431"/><trkpt lat="46.6167744" lon="11.7545987"/><trkpt lat="46.616761" lon="11.7545402"/><trkpt lat="46.6167369" lon="11.7544611"/><trkpt lat="46.6166874" lon="11.7543819"/><trkpt lat="46.6166849" lon="11.7543245"/><trkpt lat="46.616715" lon="11.7542959"/><trkpt lat="46.6167677" lon="11.7542806"/><trkpt lat="46.6168497" lon="11.7542586"/><trkpt lat="46.6169231" lon="11.754201"/><trkpt lat="46.6169875" lon="11.7541071"/><trkpt lat="46.6169878" lon="11.7540532"/><trkpt lat="46.6170259" lon="11.7540325"/><trkpt lat="46.6171056" lon="11.7540188"/><trkpt lat="46.617189" lon="11.7540018"/><trkpt lat="46.6172135" lon="11.7539568"/><trkpt lat="46.6172218" lon="11.7538738"/><trkpt lat="46.6172206" lon="11.7538169"/><trkpt lat="46.6172077" lon="11.7537579"/><trkpt lat="46.6172808" lon="11.7536265"/><trkpt lat="46.6174441" lon="11.7534318"/><trkpt lat="46.6174953" lon="11.7534227"/><trkpt lat="46.6175085" lon="11.7534048"/><trkpt lat="46.6174835" lon="11.7533627"/><trkpt lat="46.617463" lon="11.7533119"/><trkpt lat="46.6175506" lon="11.7532382"/><trkpt lat="46.6175941" lon="11.7532706"/><trkpt lat="46.6176418" lon="11.7532116"/><trkpt lat="46.6178326" lon="11.7528881"/><trkpt lat="46.6178804" lon="11.752804"/><trkpt lat="46.6179065" lon="11.7527314"/><trkpt lat="46.6179595" lon="11.7526563"/><trkpt lat="46.6180109" lon="11.7525673"/><trkpt lat="46.6180395" lon="11.7524581"/><trkpt lat="46.6181205" lon="11.7523231"/><trkpt lat="46.6182046" lon="11.7520915"/><trkpt lat="46.618295" lon="11.7517599"/><trkpt lat="46.6183873" lon="11.7516631"/><trkpt lat="46.6184582" lon="11.7514881"/><trkpt lat="46.6185733" lon="11.7512728"/><trkpt lat="46.6188919" lon="11.7505973"/><trkpt lat="46.6191944" lon="11.7499547"/><trkpt lat="46.6192125" lon="11.7498752"/><trkpt lat="46.6193797" lon="11.7496047"/><trkpt lat="46.619436" lon="11.7494822"/><trkpt lat="46.6194591" lon="11.7493484"/><trkpt lat="46.619455" lon="11.7492338"/><trkpt lat="46.6194955" lon="11.7491834"/><trkpt lat="46.6195348" lon="11.7491442"/><trkpt lat="46.6195888" lon="11.7490986"/><trkpt lat="46.619668" lon="11.7490787"/><trkpt lat="46.6197294" lon="11.7490814"/><trkpt lat="46.6198131" lon="11.7490978"/><trkpt lat="46.6201483" lon="11.7492616"/><trkpt lat="46.6202537" lon="11.7492903"/><trkpt lat="46.6202985" lon="11.7493151"/><trkpt lat="46.620358" lon="11.7493738"/><trkpt lat="46.6205484" lon="11.7495977"/><trkpt lat="46.6206224" lon="11.749649"/><trkpt lat="46.6207137" lon="11.749693"/><trkpt lat="46.6209243" lon="11.7497467"/><trkpt lat="46.6209274" lon="11.7496478"/><trkpt lat="46.6208587" lon="11.7494158"/><trkpt lat="46.6209734" lon="11.7493393"/><trkpt lat="46.6208587" lon="11.7494158"/><trkpt lat="46.6209274" lon="11.7496478"/><trkpt lat="46.6209243" lon="11.7497467"/><trkpt lat="46.6208957" lon="11.7498571"/><trkpt lat="46.6207788" lon="11.7501453"/><trkpt lat="46.6206879" lon="11.7502886"/><trkpt lat="46.6205629" lon="11.7503773"/><trkpt lat="46.620407" lon="11.7505988"/><trkpt lat="46.6203965" lon="11.7506804"/><trkpt lat="46.6203963" lon="11.7508066"/><trkpt lat="46.6204124" lon="11.7510967"/><trkpt lat="46.6204433" lon="11.751349"/><trkpt lat="46.6204946" lon="11.7516129"/><trkpt lat="46.6205088" lon="11.7517622"/><trkpt lat="46.6204935" lon="11.752076"/><trkpt lat="46.6205078" lon="11.7524703"/><trkpt lat="46.6205451" lon="11.752654"/><trkpt lat="46.6205004" lon="11.7528538"/><trkpt lat="46.6205032" lon="11.7531938"/><trkpt lat="46.6204811" lon="11.7532562"/><trkpt lat="46.6206639" lon="11.7533474"/><trkpt lat="46.6207726" lon="11.7533735"/><trkpt lat="46.620814" lon="11.7534084"/><trkpt lat="46.6208787" lon="11.7534948"/><trkpt lat="46.6210835" lon="11.753574"/><trkpt lat="46.6212505" lon="11.7535537"/><trkpt lat="46.6213345" lon="11.7535747"/><trkpt lat="46.6214165" lon="11.7536307"/><trkpt lat="46.621462" lon="11.7537852"/><trkpt lat="46.6214758" lon="11.7538858"/><trkpt lat="46.6214662" lon="11.7539978"/><trkpt lat="46.6214519" lon="11.7540776"/><trkpt lat="46.6214197" lon="11.7541339"/><trkpt lat="46.6214148" lon="11.7541655"/><trkpt lat="46.6214267" lon="11.7542031"/><trkpt lat="46.6214132" lon="11.754636"/><trkpt lat="46.6214943" lon="11.7548858"/><trkpt lat="46.6214995" lon="11.7549639"/><trkpt lat="46.6216389" lon="11.7553101"/><trkpt lat="46.6216478" lon="11.7554059"/><trkpt lat="46.6216881" lon="11.7555012"/><trkpt lat="46.6217046" lon="11.7556673"/><trkpt lat="46.6216565" lon="11.7560046"/><trkpt lat="46.6215395" lon="11.7561884"/><trkpt lat="46.6213318" lon="11.7563123"/><trkpt lat="46.6211863" lon="11.7564551"/><trkpt lat="46.6209478" lon="11.7563801"/><trkpt lat="46.6208513" lon="11.756427"/><trkpt lat="46.6207795" lon="11.7565697"/><trkpt lat="46.6207842" lon="11.7567234"/><trkpt lat="46.6208694" lon="11.7567875"/><trkpt lat="46.6208609" lon="11.7568817"/><trkpt lat="46.6208742" lon="11.7569624"/><trkpt lat="46.62097" lon="11.7570814"/><trkpt lat="46.6210354" lon="11.7572462"/><trkpt lat="46.6211184" lon="11.757365"/><trkpt lat="46.6211081" lon="11.7576643"/><trkpt lat="46.6210632" lon="11.7578131"/><trkpt lat="46.6212465" lon="11.758154"/><trkpt lat="46.6213222" lon="11.7583649"/><trkpt lat="46.6216101" lon="11.7587205"/><trkpt lat="46.6216932" lon="11.7588281"/><trkpt lat="46.6217313" lon="11.758943"/><trkpt lat="46.62172" lon="11.7592165"/><trkpt lat="46.6218086" lon="11.7593239"/><trkpt lat="46.6219611" lon="11.759372"/><trkpt lat="46.6222486" lon="11.7595291"/><trkpt lat="46.6224685" lon="11.7597961"/><trkpt lat="46.6226957" lon="11.7599404"/><trkpt lat="46.6228776" lon="11.7599735"/><trkpt lat="46.6231167" lon="11.7601193"/><trkpt lat="46.6233484" lon="11.7601741"/><trkpt lat="46.6234983" lon="11.7601286"/><trkpt lat="46.6236702" lon="11.7599903"/><trkpt lat="46.6239567" lon="11.7599052"/><trkpt lat="46.6241557" lon="11.7596163"/><trkpt lat="46.6243378" lon="11.759204"/><trkpt lat="46.6244366" lon="11.7590923"/><trkpt lat="46.6246185" lon="11.7587273"/><trkpt lat="46.624668" lon="11.7585497"/><trkpt lat="46.6248987" lon="11.7581323"/><trkpt lat="46.6249839" lon="11.7580631"/><trkpt lat="46.6250666" lon="11.7581104"/><trkpt lat="46.6251456" lon="11.7579512"/><trkpt lat="46.6251341" lon="11.757917"/><trkpt lat="46.6251275" lon="11.7578701"/><trkpt lat="46.625134" lon="11.7576898"/><trkpt lat="46.6251473" lon="11.7576162"/><trkpt lat="46.6252009" lon="11.7576898"/><trkpt lat="46.6252371" lon="11.7577092"/><trkpt lat="46.6252855" lon="11.7576947"/><trkpt lat="46.6253421" lon="11.7576419"/><trkpt lat="46.6253918" lon="11.7575727"/><trkpt lat="46.6255322" lon="11.7573512"/><trkpt lat="46.6255928" lon="11.7573011"/><trkpt lat="46.6257026" lon="11.7572984"/><trkpt lat="46.6257718" lon="11.7572623"/><trkpt lat="46.6259237" lon="11.757041"/><trkpt lat="46.6259922" lon="11.7569714"/><trkpt lat="46.6263876" lon="11.7566934"/><trkpt lat="46.6265709" lon="11.7566073"/><trkpt lat="46.62664" lon="11.7565531"/><trkpt lat="46.6266815" lon="11.7564706"/><trkpt lat="46.626735" lon="11.7563379"/><trkpt lat="46.6267922" lon="11.7562441"/><trkpt lat="46.6270007" lon="11.7560417"/><trkpt lat="46.6270161" lon="11.7560267"/><trkpt lat="46.6270426" lon="11.7559613"/><trkpt lat="46.6272169" lon="11.7558219"/><trkpt lat="46.6275868" lon="11.7556606"/><trkpt lat="46.6277299" lon="11.7556584"/><trkpt lat="46.6279642" lon="11.7555478"/><trkpt lat="46.6281729" lon="11.7555562"/><trkpt lat="46.6282305" lon="11.7554915"/><trkpt lat="46.6282975" lon="11.7553693"/><trkpt lat="46.628379" lon="11.7552575"/><trkpt lat="46.6284042" lon="11.7551433"/><trkpt lat="46.6285424" lon="11.7549342"/><trkpt lat="46.6286426" lon="11.7547246"/><trkpt lat="46.6288478" lon="11.7545609"/><trkpt lat="46.6292897" lon="11.7542457"/><trkpt lat="46.6294527" lon="11.7541697"/><trkpt lat="46.6295798" lon="11.7540168"/><trkpt lat="46.6297763" lon="11.7539212"/><trkpt lat="46.6299377" lon="11.7538068"/><trkpt lat="46.6302699" lon="11.7535833"/><trkpt lat="46.6304535" lon="11.7534654"/><trkpt lat="46.6306688" lon="11.7534383"/><trkpt lat="46.6307657" lon="11.7534191"/><trkpt lat="46.6308599" lon="11.7533287"/><trkpt lat="46.630936" lon="11.7532226"/><trkpt lat="46.6310121" lon="11.7529582"/><trkpt lat="46.631057" lon="11.7528533"/><trkpt lat="46.6312308" lon="11.7526316"/><trkpt lat="46.631363" lon="11.7525151"/><trkpt lat="46.6314519" lon="11.752497"/><trkpt lat="46.631564" lon="11.7523669"/><trkpt lat="46.6319391" lon="11.7521552"/><trkpt lat="46.6322081" lon="11.7520686"/><trkpt lat="46.6322689" lon="11.7520624"/><trkpt lat="46.6322984" lon="11.7520542"/><trkpt lat="46.6324179" lon="11.7520205"/><trkpt lat="46.6325612" lon="11.7519802"/><trkpt lat="46.6325862" lon="11.7519732"/><trkpt lat="46.6327483" lon="11.7518816"/><trkpt lat="46.6328391" lon="11.7518988"/><trkpt lat="46.6329526" lon="11.7518881"/><trkpt lat="46.6331877" lon="11.751821"/><trkpt lat="46.6332424" lon="11.7518401"/><trkpt lat="46.6333529" lon="11.7519517"/><trkpt lat="46.6334158" lon="11.7520582"/><trkpt lat="46.6334539" lon="11.7520948"/><trkpt lat="46.6335341" lon="11.7522321"/><trkpt lat="46.6336982" lon="11.7523715"/><trkpt lat="46.6338482" lon="11.752443"/><trkpt lat="46.6339995" lon="11.752567"/><trkpt lat="46.6341112" lon="11.7527533"/><trkpt lat="46.6341817" lon="11.7530687"/><trkpt lat="46.6344227" lon="11.7543767"/><trkpt lat="46.6345541" lon="11.7550307"/><trkpt lat="46.6346229" lon="11.755552"/><trkpt lat="46.6346417" lon="11.7560515"/><trkpt lat="46.6346198" lon="11.7568969"/><trkpt lat="46.6347575" lon="11.7580431"/><trkpt lat="46.6347548" lon="11.7583375"/><trkpt lat="46.6347777" lon="11.7584732"/><trkpt lat="46.6347681" lon="11.7585895"/><trkpt lat="46.6348031" lon="11.7587951"/><trkpt lat="46.6349487" lon="11.7592449"/><trkpt lat="46.6349681" lon="11.7598927"/><trkpt lat="46.6349043" lon="11.7601194"/><trkpt lat="46.634891" lon="11.7604176"/><trkpt lat="46.6349693" lon="11.7607867"/><trkpt lat="46.6351559" lon="11.7611725"/><trkpt lat="46.6351644" lon="11.7613584"/><trkpt lat="46.6351586" lon="11.761747"/><trkpt lat="46.6350882" lon="11.762473"/><trkpt lat="46.6350838" lon="11.7625183"/><trkpt lat="46.6351336" lon="11.7625359"/><trkpt lat="46.6351845" lon="11.7625861"/><trkpt lat="46.6354993" lon="11.7632623"/><trkpt lat="46.6355292" lon="11.7633624"/><trkpt lat="46.6355352" lon="11.763464"/><trkpt lat="46.6355262" lon="11.7636504"/><trkpt lat="46.6354912" lon="11.7639746"/><trkpt lat="46.635444" lon="11.7644259"/><trkpt lat="46.6354412" lon="11.764625"/><trkpt lat="46.6354593" lon="11.7648496"/><trkpt lat="46.6354897" lon="11.7650171"/><trkpt lat="46.6354962" lon="11.7651313"/><trkpt lat="46.635481" lon="11.7653534"/><trkpt lat="46.6354829" lon="11.7653821"/><trkpt lat="46.6354859" lon="11.7654042"/><trkpt lat="46.6354919" lon="11.7654256"/><trkpt lat="46.6355031" lon="11.765453"/><trkpt lat="46.6355252" lon="11.7654853"/><trkpt lat="46.635595" lon="11.7655782"/><trkpt lat="46.6356865" lon="11.7656487"/><trkpt lat="46.6357802" lon="11.7656666"/><trkpt lat="46.6357895" lon="11.7656037"/><trkpt lat="46.6358029" lon="11.7655601"/><trkpt lat="46.6358425" lon="11.7654758"/></trkseg></trk></gpx>