<?xml version="1.0" encoding="UTF-8"?><kml xmlns="http://www.opengis.net/kml/2.2"><Document><name>Val di Funes · Adolf Munkel</name><description>Планировочная реконструкция по OpenStreetMap, 09.09.2026. Не запись GPS и не проверенный навигационный трек. Высоты не экспортированы. Данные © OpenStreetMap contributors, ODbL. Автопереезды и канатки в пеший трек не включены.</description><Style id="track"><LineStyle><color>ff6b8423</color><width>4</width></LineStyle></Style><Placemark><name>Zans / Zannes — старт</name><Point><coordinates>11.7655749,46.6358925</coordinates></Point></Placemark><Placemark><name>Gschnagenhardt / Malga Casnago</name><Point><coordinates>11.749604,46.6193202</coordinates></Point></Placemark><Placemark><name>Geisleralm / Rifugio delle Odle</name><Point><coordinates>11.7494968,46.6209871</coordinates></Point></Placemark><Placemark><name>Dusler Alm</name><Point><coordinates>11.7563495,46.6268525</coordinates></Point></Placemark><Placemark><name>Adolf Munkel — Geisleralm — Dusler</name><description>Планировочная реконструкция по OpenStreetMap, 09.09.2026. Не запись GPS и не проверенный навигационный трек. Высоты не экспортированы. Данные © OpenStreetMap contributors, ODbL. Автопереезды и канатки в пеший трек не включены.</description><styleUrl>#track</styleUrl><LineString><tessellate>1</tessellate><altitudeMode>clampToGround</altitudeMode><coordinates>11.7654758,46.6358425,0 11.7655601,46.6358029,0 11.7656037,46.6357895,0 11.7656666,46.6357802,0 11.7657179,46.6357761,0 11.7657621,46.6357794,0 11.7659434,46.6358242,0 11.7662459,46.6357026,0 11.766352,46.6356584,0 11.7664685,46.6356195,0 11.7665773,46.635617,0 11.7667049,46.635627,0 11.7668752,46.6356403,0 11.7669755,46.6356384,0 11.7672093,46.6356339,0 11.7673444,46.6356225,0 11.7674128,46.6356096,0 11.7674955,46.6355677,0 11.7675292,46.6355387,0 11.7676809,46.6353037,0 11.7680877,46.6351225,0 11.768233,46.6350633,0 11.768358,46.6349887,0 11.7686049,46.6348665,0 11.7687632,46.6348034,0 11.7690894,46.6346819,0 11.7701451,46.6343263,0 11.7705266,46.6341458,0 11.7708187,46.6339433,0 11.7709704,46.633791,0 11.7711564,46.6335694,0 11.7714045,46.6334294,0 11.7719813,46.6332426,0 11.7722233,46.6330818,0 11.7724319,46.6328986,0 11.7727751,46.6325655,0 11.7729894,46.6322503,0 11.7734291,46.6319241,0 11.7742055,46.6315635,0 11.774973,46.6309313,0 11.7755754,46.6306035,0 11.7759708,46.6302951,0 11.7763362,46.6301061,0 11.7768673,46.6297058,0 11.7772065,46.629566,0 11.7777614,46.6293063,0 11.7782576,46.6290823,0 11.7786854,46.6288444,0 11.7790378,46.6284255,0 11.7793687,46.6282486,0 11.7795895,46.6281458,0 11.7797919,46.6279403,0 11.7800224,46.6276911,0 11.7802448,46.627512,0 11.7804668,46.6272749,0 11.7807663,46.6269812,0 11.7807686,46.626768,0 11.780863,46.6263302,0 11.7808247,46.6260411,0 11.7807235,46.6258141,0 11.7807154,46.6257507,0 11.7807496,46.6256669,0 11.7807601,46.6256396,0 11.7807782,46.6256259,0 11.7809647,46.6255866,0 11.7810067,46.6255166,0 11.7810384,46.6254495,0 11.7810384,46.6253739,0 11.7810196,46.6253042,0 11.7809897,46.6252593,0 11.7809283,46.6252212,0 11.7808185,46.6251795,0 11.7807451,46.6251722,0 11.7806362,46.6251734,0 11.7805672,46.6251762,0 11.7805876,46.6250724,0 11.7805794,46.6250378,0 11.7805558,46.6250169,0 11.7805253,46.625018,0 11.7804661,46.6250483,0 11.7804306,46.6250829,0 11.7804072,46.6251606,0 11.7803605,46.625192,0 11.7801244,46.6252804,0 11.7800206,46.6252729,0 11.7797302,46.6253881,0 11.7794054,46.6254453,0 11.7791542,46.625517,0 11.7790496,46.6255943,0 11.7789859,46.6256141,0 11.77844,46.6255899,0 11.7781182,46.6255972,0 11.7778821,46.6255309,0 11.7776354,46.6253467,0 11.7774884,46.6253051,0 11.777297,46.6253077,0 11.7770924,46.6253838,0 11.7770303,46.6253853,0 11.7769838,46.6253676,0 11.7769518,46.6252108,0 11.7768593,46.625039,0 11.7766675,46.6249269,0 11.7766964,46.6244892,0 11.77665,46.6244525,0 11.7766445,46.6244248,0 11.7765945,46.6243628,0 11.776557,46.6243266,0 11.7764876,46.6242789,0 11.7764182,46.6242294,0 11.776346,46.6241559,0 11.776253,46.6240701,0 11.7761655,46.6240215,0 11.7760798,46.6240079,0 11.7760281,46.6239824,0 11.7759878,46.6239624,0 11.7759254,46.6239109,0 11.7758852,46.6238759,0 11.7758333,46.6238451,0 11.7757749,46.6238218,0 11.7757435,46.623791,0 11.7756676,46.6237442,0 11.7755838,46.6237164,0 11.7754992,46.6237007,0 11.7754464,46.623683,0 11.7753201,46.6236554,0 11.7752684,46.6236353,0 11.7751929,46.6236041,0 11.7750684,46.6235895,0 11.7746413,46.6236618,0 11.7743437,46.6236832,0 11.7741527,46.6236593,0 11.7739953,46.6236067,0 11.7736488,46.6235602,0 11.7733924,46.6235694,0 11.7724533,46.6232025,0 11.7719491,46.6229723,0 11.7718316,46.6227995,0 11.7718009,46.6226802,0 11.7717629,46.6226186,0 11.7716841,46.6226018,0 11.7715537,46.6225906,0 11.7714287,46.6225551,0 11.7712874,46.6224936,0 11.7711461,46.6224021,0 11.7710619,46.6223238,0 11.7710049,46.6222883,0 11.7708802,46.6222245,0 11.7706598,46.6217206,0 11.7704313,46.6216013,0 11.7702743,46.6215047,0 11.7701994,46.6214847,0 11.7701382,46.621448,0 11.7700603,46.6214294,0 11.7699733,46.6214309,0 11.7699189,46.6214586,0 11.7698142,46.6215544,0 11.7692327,46.6219756,0 11.7691903,46.6219666,0 11.7692707,46.6217369,0 11.7693176,46.6216164,0 11.769317,46.6214832,0 11.7692546,46.6214019,0 11.769169,46.6212155,0 11.7691248,46.6210828,0 11.7691162,46.6209944,0 11.7691576,46.6208676,0 11.7691496,46.6208054,0 11.7690785,46.620706,0 11.7689794,46.6206416,0 11.7688465,46.6206287,0 11.7687339,46.6206586,0 11.7685845,46.6207246,0 11.7684943,46.6208248,0 11.7681963,46.6209951,0 11.768142,46.6210218,0 11.7678141,46.6210976,0 11.7676539,46.6212026,0 11.7674811,46.6212892,0 11.7672846,46.6213327,0 11.7671117,46.6213531,0 11.7670275,46.6213503,0 11.7667911,46.6213215,0 11.7667303,46.6213338,0 11.7666326,46.6213305,0 11.7665873,46.6213344,0 11.7665263,46.6213572,0 11.7664355,46.621374,0 11.7662008,46.6213838,0 11.7660972,46.6214128,0 11.7659795,46.6214273,0 11.7657022,46.621447,0 11.7655943,46.6214367,0 11.7654874,46.6214444,0 11.7652317,46.6214534,0 11.7651216,46.6214455,0 11.7650458,46.6214385,0 11.7649773,46.6214122,0 11.7649049,46.6213576,0 11.7644202,46.6209384,0 11.7643042,46.6208721,0 11.7641716,46.6208358,0 11.7640199,46.6208168,0 11.7638724,46.6207778,0 11.7637139,46.6207067,0 11.7635894,46.6206105,0 11.7634762,46.6204969,0 11.7634365,46.6204364,0 11.7633929,46.6203431,0 11.7633735,46.6202558,0 11.7633683,46.6201617,0 11.7633275,46.6200899,0 11.7631896,46.6199716,0 11.7632516,46.6198838,0 11.7633046,46.6198219,0 11.7632817,46.6197371,0 11.7633164,46.6196098,0 11.763297,46.6195501,0 11.7632932,46.6194842,0 11.7633469,46.6194262,0 11.7633272,46.6193513,0 11.7632646,46.6192705,0 11.7631136,46.6191879,0 11.7629658,46.6191789,0 11.762792,46.6191379,0 11.7626722,46.6190285,0 11.7626476,46.6189139,0 11.7625331,46.6188111,0 11.7623247,46.6187245,0 11.7622879,46.6187144,0 11.7621589,46.6186158,0 11.7621002,46.618541,0 11.7620503,46.6184329,0 11.7619928,46.6183065,0 11.7618638,46.618253,0 11.7617013,46.6182011,0 11.7615988,46.6182202,0 11.7615338,46.618232,0 11.7614856,46.6182198,0 11.7613672,46.6182596,0 11.7612724,46.6182906,0 11.7611591,46.6183374,0 11.7610265,46.6183454,0 11.7608785,46.6183653,0 11.7606217,46.6184336,0 11.7604967,46.6185152,0 11.7604063,46.6185433,0 11.7602734,46.6185342,0 11.7600165,46.6185843,0 11.7598638,46.6185989,0 11.7596701,46.6185902,0 11.7596168,46.6186011,0 11.7595593,46.6186045,0 11.7594521,46.6186604,0 11.7593917,46.6186734,0 11.7593054,46.6186759,0 11.7590922,46.6186566,0 11.7589136,46.6186309,0 11.7587529,46.618663,0 11.7586363,46.6186648,0 11.7585215,46.6186256,0 11.7584865,46.6186273,0 11.7584476,46.6186439,0 11.7583375,46.6186959,0 11.7581698,46.6187052,0 11.7581366,46.6186789,0 11.7580664,46.6186592,0 11.7579842,46.6186569,0 11.757945,46.6186266,0 11.7578414,46.618608,0 11.7577399,46.6185609,0 11.7576122,46.6185001,0 11.7575316,46.6184818,0 11.7574753,46.618488,0 11.7573726,46.6184999,0 11.7572962,46.6184744,0 11.7572325,46.6184131,0 11.7571283,46.6183574,0 11.7570905,46.6183003,0 11.7570217,46.6182032,0 11.7569958,46.6180926,0 11.7569393,46.6180242,0 11.7568946,46.6180109,0 11.7568373,46.6179587,0 11.756812,46.6178712,0 11.7568369,46.6178379,0 11.7568262,46.6178139,0 11.7568131,46.6177993,0 11.7566625,46.6178,0 11.7565158,46.6178078,0 11.7564134,46.6178389,0 11.7563573,46.6178597,0 11.7562856,46.6178657,0 11.7562455,46.6178563,0 11.7561985,46.6178371,0 11.7561091,46.6177887,0 11.7560758,46.6177281,0 11.7560157,46.6176764,0 11.7559013,46.6176623,0 11.7558577,46.6176511,0 11.7558232,46.6176333,0 11.755757,46.6175363,0 11.755665,46.6174671,0 11.7555867,46.6174436,0 11.7554985,46.6174409,0 11.7554187,46.6174111,0 11.7552015,46.6172771,0 11.7550999,46.6172128,0 11.7550228,46.6171564,0 11.7549707,46.6170802,0 11.7548911,46.6170034,0 11.7548179,46.6169844,0 11.7546848,46.6168349,0 11.7546431,46.6168059,0 11.7545987,46.6167744,0 11.7545402,46.616761,0 11.7544611,46.6167369,0 11.7543819,46.6166874,0 11.7543245,46.6166849,0 11.7542959,46.616715,0 11.7542806,46.6167677,0 11.7542586,46.6168497,0 11.754201,46.6169231,0 11.7541071,46.6169875,0 11.7540532,46.6169878,0 11.7540325,46.6170259,0 11.7540188,46.6171056,0 11.7540018,46.617189,0 11.7539568,46.6172135,0 11.7538738,46.6172218,0 11.7538169,46.6172206,0 11.7537579,46.6172077,0 11.7536265,46.6172808,0 11.7534318,46.6174441,0 11.7534227,46.6174953,0 11.7534048,46.6175085,0 11.7533627,46.6174835,0 11.7533119,46.617463,0 11.7532382,46.6175506,0 11.7532706,46.6175941,0 11.7532116,46.6176418,0 11.7528881,46.6178326,0 11.752804,46.6178804,0 11.7527314,46.6179065,0 11.7526563,46.6179595,0 11.7525673,46.6180109,0 11.7524581,46.6180395,0 11.7523231,46.6181205,0 11.7520915,46.6182046,0 11.7517599,46.618295,0 11.7516631,46.6183873,0 11.7514881,46.6184582,0 11.7512728,46.6185733,0 11.7505973,46.6188919,0 11.7499547,46.6191944,0 11.7498752,46.6192125,0 11.7496047,46.6193797,0 11.7494822,46.619436,0 11.7493484,46.6194591,0 11.7492338,46.619455,0 11.7491834,46.6194955,0 11.7491442,46.6195348,0 11.7490986,46.6195888,0 11.7490787,46.619668,0 11.7490814,46.6197294,0 11.7490978,46.6198131,0 11.7492616,46.6201483,0 11.7492903,46.6202537,0 11.7493151,46.6202985,0 11.7493738,46.620358,0 11.7495977,46.6205484,0 11.749649,46.6206224,0 11.749693,46.6207137,0 11.7497467,46.6209243,0 11.7496478,46.6209274,0 11.7494158,46.6208587,0 11.7493393,46.6209734,0 11.7494158,46.6208587,0 11.7496478,46.6209274,0 11.7497467,46.6209243,0 11.7498571,46.6208957,0 11.7501453,46.6207788,0 11.7502886,46.6206879,0 11.7503773,46.6205629,0 11.7505988,46.620407,0 11.7506804,46.6203965,0 11.7508066,46.6203963,0 11.7510967,46.6204124,0 11.751349,46.6204433,0 11.7516129,46.6204946,0 11.7517622,46.6205088,0 11.752076,46.6204935,0 11.7524703,46.6205078,0 11.752654,46.6205451,0 11.7528538,46.6205004,0 11.7531938,46.6205032,0 11.7532562,46.6204811,0 11.7533474,46.6206639,0 11.7533735,46.6207726,0 11.7534084,46.620814,0 11.7534948,46.6208787,0 11.753574,46.6210835,0 11.7535537,46.6212505,0 11.7535747,46.6213345,0 11.7536307,46.6214165,0 11.7537852,46.621462,0 11.7538858,46.6214758,0 11.7539978,46.6214662,0 11.7540776,46.6214519,0 11.7541339,46.6214197,0 11.7541655,46.6214148,0 11.7542031,46.6214267,0 11.754636,46.6214132,0 11.7548858,46.6214943,0 11.7549639,46.6214995,0 11.7553101,46.6216389,0 11.7554059,46.6216478,0 11.7555012,46.6216881,0 11.7556673,46.6217046,0 11.7560046,46.6216565,0 11.7561884,46.6215395,0 11.7563123,46.6213318,0 11.7564551,46.6211863,0 11.7563801,46.6209478,0 11.756427,46.6208513,0 11.7565697,46.6207795,0 11.7567234,46.6207842,0 11.7567875,46.6208694,0 11.7568817,46.6208609,0 11.7569624,46.6208742,0 11.7570814,46.62097,0 11.7572462,46.6210354,0 11.757365,46.6211184,0 11.7576643,46.6211081,0 11.7578131,46.6210632,0 11.758154,46.6212465,0 11.7583649,46.6213222,0 11.7587205,46.6216101,0 11.7588281,46.6216932,0 11.758943,46.6217313,0 11.7592165,46.62172,0 11.7593239,46.6218086,0 11.759372,46.6219611,0 11.7595291,46.6222486,0 11.7597961,46.6224685,0 11.7599404,46.6226957,0 11.7599735,46.6228776,0 11.7601193,46.6231167,0 11.7601741,46.6233484,0 11.7601286,46.6234983,0 11.7599903,46.6236702,0 11.7599052,46.6239567,0 11.7596163,46.6241557,0 11.759204,46.6243378,0 11.7590923,46.6244366,0 11.7587273,46.6246185,0 11.7585497,46.624668,0 11.7581323,46.6248987,0 11.7580631,46.6249839,0 11.7581104,46.6250666,0 11.7579512,46.6251456,0 11.757917,46.6251341,0 11.7578701,46.6251275,0 11.7576898,46.625134,0 11.7576162,46.6251473,0 11.7576898,46.6252009,0 11.7577092,46.6252371,0 11.7576947,46.6252855,0 11.7576419,46.6253421,0 11.7575727,46.6253918,0 11.7573512,46.6255322,0 11.7573011,46.6255928,0 11.7572984,46.6257026,0 11.7572623,46.6257718,0 11.757041,46.6259237,0 11.7569714,46.6259922,0 11.7566934,46.6263876,0 11.7566073,46.6265709,0 11.7565531,46.62664,0 11.7564706,46.6266815,0 11.7563379,46.626735,0 11.7562441,46.6267922,0 11.7560417,46.6270007,0 11.7560267,46.6270161,0 11.7559613,46.6270426,0 11.7558219,46.6272169,0 11.7556606,46.6275868,0 11.7556584,46.6277299,0 11.7555478,46.6279642,0 11.7555562,46.6281729,0 11.7554915,46.6282305,0 11.7553693,46.6282975,0 11.7552575,46.628379,0 11.7551433,46.6284042,0 11.7549342,46.6285424,0 11.7547246,46.6286426,0 11.7545609,46.6288478,0 11.7542457,46.6292897,0 11.7541697,46.6294527,0 11.7540168,46.6295798,0 11.7539212,46.6297763,0 11.7538068,46.6299377,0 11.7535833,46.6302699,0 11.7534654,46.6304535,0 11.7534383,46.6306688,0 11.7534191,46.6307657,0 11.7533287,46.6308599,0 11.7532226,46.630936,0 11.7529582,46.6310121,0 11.7528533,46.631057,0 11.7526316,46.6312308,0 11.7525151,46.631363,0 11.752497,46.6314519,0 11.7523669,46.631564,0 11.7521552,46.6319391,0 11.7520686,46.6322081,0 11.7520624,46.6322689,0 11.7520542,46.6322984,0 11.7520205,46.6324179,0 11.7519802,46.6325612,0 11.7519732,46.6325862,0 11.7518816,46.6327483,0 11.7518988,46.6328391,0 11.7518881,46.6329526,0 11.751821,46.6331877,0 11.7518401,46.6332424,0 11.7519517,46.6333529,0 11.7520582,46.6334158,0 11.7520948,46.6334539,0 11.7522321,46.6335341,0 11.7523715,46.6336982,0 11.752443,46.6338482,0 11.752567,46.6339995,0 11.7527533,46.6341112,0 11.7530687,46.6341817,0 11.7543767,46.6344227,0 11.7550307,46.6345541,0 11.755552,46.6346229,0 11.7560515,46.6346417,0 11.7568969,46.6346198,0 11.7580431,46.6347575,0 11.7583375,46.6347548,0 11.7584732,46.6347777,0 11.7585895,46.6347681,0 11.7587951,46.6348031,0 11.7592449,46.6349487,0 11.7598927,46.6349681,0 11.7601194,46.6349043,0 11.7604176,46.634891,0 11.7607867,46.6349693,0 11.7611725,46.6351559,0 11.7613584,46.6351644,0 11.761747,46.6351586,0 11.762473,46.6350882,0 11.7625183,46.6350838,0 11.7625359,46.6351336,0 11.7625861,46.6351845,0 11.7632623,46.6354993,0 11.7633624,46.6355292,0 11.763464,46.6355352,0 11.7636504,46.6355262,0 11.7639746,46.6354912,0 11.7644259,46.635444,0 11.764625,46.6354412,0 11.7648496,46.6354593,0 11.7650171,46.6354897,0 11.7651313,46.6354962,0 11.7653534,46.635481,0 11.7653821,46.6354829,0 11.7654042,46.6354859,0 11.7654256,46.6354919,0 11.765453,46.6355031,0 11.7654853,46.6355252,0 11.7655782,46.635595,0 11.7656487,46.6356865,0 11.7656666,46.6357802,0 11.7656037,46.6357895,0 11.7655601,46.6358029,0 11.7654758,46.6358425,0</coordinates></LineString></Placemark></Document></kml>