<?xml version="1.0" encoding="UTF-8"?><gpx version="1.1" creator="Dolomites Atlas" xmlns="http://www.topografix.com/GPX/1/1"><metadata><name>Sella · Friedrich August Weg</name><desc>Планировочная реконструкция по OpenStreetMap, 09.09.2026. Не запись GPS и не проверенный навигационный трек. Высоты не экспортированы. Данные © OpenStreetMap contributors, ODbL. Автопереезды и канатки в пеший трек не включены.</desc><link href="https://www.openstreetmap.org/copyright"><text>OpenStreetMap contributors · ODbL</text></link></metadata><wpt lat="46.5094868" lon="11.7572704"><name>Passo Sella — парковка у Mountain Resort</name></wpt><wpt lat="46.5003983" lon="11.74521874"><name>Rifugio Friedrich August</name></wpt><wpt lat="46.50209656" lon="11.7246021"><name>Rifugio Sandro Pertini</name></wpt><wpt lat="46.504445759999996" lon="11.70085032"><name>Rifugio Sasso Piatto (не вершина)</name></wpt><trk><name>Friedrich August — Sasso Piatto — обратно</name><desc>Планировочная реконструкция по OpenStreetMap, 09.09.2026. Не запись GPS и не проверенный навигационный трек. Высоты не экспортированы. Данные © OpenStreetMap contributors, ODbL. Автопереезды и канатки в пеший трек не включены.</desc><type>hiking</type><trkseg><trkpt lat="46.5096153" lon="11.7571505"/><trkpt lat="46.5095754" lon="11.757503"/><trkpt lat="46.5095704" lon="11.7575494"/><trkpt lat="46.5095479" lon="11.7576007"/><trkpt lat="46.5095136" lon="11.7576331"/><trkpt lat="46.5094738" lon="11.757652"/><trkpt lat="46.509418" lon="11.7576593"/><trkpt lat="46.5093208" lon="11.7576553"/><trkpt lat="46.5092313" lon="11.7576422"/><trkpt lat="46.5092544" lon="11.7574789"/><trkpt lat="46.5092633" lon="11.757408"/><trkpt lat="46.5090373" lon="11.7571318"/><trkpt lat="46.5090083" lon="11.7570572"/><trkpt lat="46.5089854" lon="11.7569278"/><trkpt lat="46.5089836" lon="11.7568818"/><trkpt lat="46.5089949" lon="11.7568188"/><trkpt lat="46.5090147" lon="11.7567653"/><trkpt lat="46.5089556" lon="11.7567698"/><trkpt lat="46.5088823" lon="11.7568015"/><trkpt lat="46.5088008" lon="11.7568576"/><trkpt lat="46.5087628" lon="11.756864"/><trkpt lat="46.5087307" lon="11.7568604"/><trkpt lat="46.5085894" lon="11.7567864"/><trkpt lat="46.5085584" lon="11.7567516"/><trkpt lat="46.5084818" lon="11.7566655"/><trkpt lat="46.5084" lon="11.7566029"/><trkpt lat="46.5083264" lon="11.7565751"/><trkpt lat="46.5081363" lon="11.7565816"/><trkpt lat="46.5080071" lon="11.7566116"/><trkpt lat="46.5075195" lon="11.7567715"/><trkpt lat="46.5072095" lon="11.7569857"/><trkpt lat="46.5070492" lon="11.7570769"/><trkpt lat="46.5068763" lon="11.7571435"/><trkpt lat="46.506781" lon="11.757164"/><trkpt lat="46.5067054" lon="11.7570791"/><trkpt lat="46.5066577" lon="11.7570298"/><trkpt lat="46.5066131" lon="11.7569677"/><trkpt lat="46.506574" lon="11.7569071"/><trkpt lat="46.5065049" lon="11.7568009"/><trkpt lat="46.5063119" lon="11.7564559"/><trkpt lat="46.5059127" lon="11.7558677"/><trkpt lat="46.5056435" lon="11.7555531"/><trkpt lat="46.5053858" lon="11.7552203"/><trkpt lat="46.5052423" lon="11.7549406"/><trkpt lat="46.5051979" lon="11.7547878"/><trkpt lat="46.5051721" lon="11.7545894"/><trkpt lat="46.505089" lon="11.754332"/><trkpt lat="46.5049481" lon="11.7540723"/><trkpt lat="46.5046825" lon="11.7535636"/><trkpt lat="46.5044955" lon="11.7530958"/><trkpt lat="46.5043766" lon="11.7528873"/><trkpt lat="46.5043221" lon="11.7528234"/><trkpt lat="46.504134" lon="11.7526598"/><trkpt lat="46.5040449" lon="11.7525293"/><trkpt lat="46.5039782" lon="11.7523793"/><trkpt lat="46.5038874" lon="11.7520293"/><trkpt lat="46.503747" lon="11.7517854"/><trkpt lat="46.5036272" lon="11.7516825"/><trkpt lat="46.503567" lon="11.7516514"/><trkpt lat="46.5035067" lon="11.7516629"/><trkpt lat="46.5033364" lon="11.7518056"/><trkpt lat="46.5032675" lon="11.7518133"/><trkpt lat="46.503193" lon="11.7518034"/><trkpt lat="46.5031201" lon="11.7517688"/><trkpt lat="46.5030045" lon="11.7516768"/><trkpt lat="46.5029133" lon="11.7515715"/><trkpt lat="46.5026315" lon="11.7511834"/><trkpt lat="46.5025787" lon="11.7511226"/><trkpt lat="46.5024065" lon="11.7509134"/><trkpt lat="46.5022636" lon="11.7507683"/><trkpt lat="46.5020087" lon="11.7505225"/><trkpt lat="46.5015105" lon="11.7501111"/><trkpt lat="46.5014461" lon="11.7500523"/><trkpt lat="46.5013759" lon="11.7499841"/><trkpt lat="46.5012891" lon="11.7498757"/><trkpt lat="46.5011283" lon="11.7496"/><trkpt lat="46.5010579" lon="11.7495323"/><trkpt lat="46.5008852" lon="11.7494549"/><trkpt lat="46.5006994" lon="11.7493425"/><trkpt lat="46.5001856" lon="11.7488951"/><trkpt lat="46.4998471" lon="11.7486141"/><trkpt lat="46.4997488" lon="11.748498"/><trkpt lat="46.4996277" lon="11.7483548"/><trkpt lat="46.4996797" lon="11.7482598"/><trkpt lat="46.4997447" lon="11.7480648"/><trkpt lat="46.4998763" lon="11.7476745"/><trkpt lat="46.5000461" lon="11.747296"/><trkpt lat="46.500128" lon="11.7469842"/><trkpt lat="46.5001435" lon="11.7469034"/><trkpt lat="46.5001647" lon="11.7467572"/><trkpt lat="46.5001906" lon="11.74656"/><trkpt lat="46.5002" lon="11.7464395"/><trkpt lat="46.5002464" lon="11.7459525"/><trkpt lat="46.5002695" lon="11.7458637"/><trkpt lat="46.5003051" lon="11.7457272"/><trkpt lat="46.5003743" lon="11.7455391"/><trkpt lat="46.5004417" lon="11.7454255"/><trkpt lat="46.5005063" lon="11.745349"/><trkpt lat="46.5005846" lon="11.7452736"/><trkpt lat="46.5006882" lon="11.7451894"/><trkpt lat="46.500786" lon="11.745113"/><trkpt lat="46.500906" lon="11.7450419"/><trkpt lat="46.5009991" lon="11.7450237"/><trkpt lat="46.5010011" lon="11.7449942"/><trkpt lat="46.5010103" lon="11.7449523"/><trkpt lat="46.5010186" lon="11.7449107"/><trkpt lat="46.5010361" lon="11.7448852"/><trkpt lat="46.5010518" lon="11.7448477"/><trkpt lat="46.5010805" lon="11.7447364"/><trkpt lat="46.5010878" lon="11.7446827"/><trkpt lat="46.5010989" lon="11.744617"/><trkpt lat="46.5010989" lon="11.7445674"/><trkpt lat="46.5011039" lon="11.7445534"/><trkpt lat="46.50111" lon="11.7445366"/><trkpt lat="46.5011442" lon="11.7444722"/><trkpt lat="46.5011771" lon="11.7444325"/><trkpt lat="46.5011608" lon="11.7442511"/><trkpt lat="46.5011855" lon="11.7439676"/><trkpt lat="46.5012005" lon="11.7437518"/><trkpt lat="46.501207" lon="11.7436968"/><trkpt lat="46.5012313" lon="11.7436236"/><trkpt lat="46.5013028" lon="11.7435112"/><trkpt lat="46.5014636" lon="11.7433647"/><trkpt lat="46.5019854" lon="11.7428436"/><trkpt lat="46.5020184" lon="11.7427874"/><trkpt lat="46.5020361" lon="11.742753"/><trkpt lat="46.5020343" lon="11.7427291"/><trkpt lat="46.5020134" lon="11.7426964"/><trkpt lat="46.5019845" lon="11.7426906"/><trkpt lat="46.5019544" lon="11.7427148"/><trkpt lat="46.5017716" lon="11.7428512"/><trkpt lat="46.5016117" lon="11.7428477"/><trkpt lat="46.5014906" lon="11.7426951"/><trkpt lat="46.5013274" lon="11.7424341"/><trkpt lat="46.5013087" lon="11.7423541"/><trkpt lat="46.5013025" lon="11.7423117"/><trkpt lat="46.5011822" lon="11.7422416"/><trkpt lat="46.5011077" lon="11.7421672"/><trkpt lat="46.5010606" lon="11.7420934"/><trkpt lat="46.501045" lon="11.742013"/><trkpt lat="46.5010478" lon="11.74186"/><trkpt lat="46.5009434" lon="11.7414822"/><trkpt lat="46.5008372" lon="11.7412452"/><trkpt lat="46.5007382" lon="11.7409976"/><trkpt lat="46.5006919" lon="11.7408959"/><trkpt lat="46.500671" lon="11.7407702"/><trkpt lat="46.5006332" lon="11.7407101"/><trkpt lat="46.500552" lon="11.740606"/><trkpt lat="46.5004815" lon="11.7404951"/><trkpt lat="46.5004574" lon="11.7403881"/><trkpt lat="46.5004579" lon="11.7403006"/><trkpt lat="46.5004675" lon="11.7402615"/><trkpt lat="46.5004678" lon="11.7402316"/><trkpt lat="46.5004528" lon="11.7401838"/><trkpt lat="46.5004307" lon="11.7401423"/><trkpt lat="46.500383" lon="11.7400554"/><trkpt lat="46.5003637" lon="11.7400007"/><trkpt lat="46.5003541" lon="11.7399653"/><trkpt lat="46.5003526" lon="11.7398684"/><trkpt lat="46.5003342" lon="11.7397817"/><trkpt lat="46.5003" lon="11.7396476"/><trkpt lat="46.5002779" lon="11.7395292"/><trkpt lat="46.5002687" lon="11.7394407"/><trkpt lat="46.5003026" lon="11.7393057"/><trkpt lat="46.5003034" lon="11.7391999"/><trkpt lat="46.5002788" lon="11.7390812"/><trkpt lat="46.500276" lon="11.7389834"/><trkpt lat="46.5003041" lon="11.7388418"/><trkpt lat="46.5002945" lon="11.7388114"/><trkpt lat="46.5002685" lon="11.7388034"/><trkpt lat="46.5002478" lon="11.7387017"/><trkpt lat="46.5002239" lon="11.7386069"/><trkpt lat="46.5001789" lon="11.7384799"/><trkpt lat="46.5001037" lon="11.738378"/><trkpt lat="46.4999656" lon="11.7381995"/><trkpt lat="46.4998292" lon="11.737863"/><trkpt lat="46.4997826" lon="11.7376156"/><trkpt lat="46.4997959" lon="11.73747"/><trkpt lat="46.4998474" lon="11.7373536"/><trkpt lat="46.5000174" lon="11.7370119"/><trkpt lat="46.5000736" lon="11.7368313"/><trkpt lat="46.5000861" lon="11.7367792"/><trkpt lat="46.5001724" lon="11.7366401"/><trkpt lat="46.500223" lon="11.7365075"/><trkpt lat="46.5002517" lon="11.7363276"/><trkpt lat="46.5003046" lon="11.7362174"/><trkpt lat="46.5003933" lon="11.7361017"/><trkpt lat="46.5004288" lon="11.7360143"/><trkpt lat="46.5004435" lon="11.7359774"/><trkpt lat="46.5004699" lon="11.7359633"/><trkpt lat="46.500533" lon="11.7359824"/><trkpt lat="46.5005958" lon="11.7359707"/><trkpt lat="46.5006742" lon="11.7359363"/><trkpt lat="46.5007578" lon="11.735964"/><trkpt lat="46.5009337" lon="11.7360216"/><trkpt lat="46.5009512" lon="11.7360081"/><trkpt lat="46.5009724" lon="11.735977"/><trkpt lat="46.500988" lon="11.7359465"/><trkpt lat="46.5009552" lon="11.7358092"/><trkpt lat="46.5008235" lon="11.735588"/><trkpt lat="46.5007627" lon="11.735509"/><trkpt lat="46.5007121" lon="11.7353784"/><trkpt lat="46.5006286" lon="11.7351559"/><trkpt lat="46.5005792" lon="11.734938"/><trkpt lat="46.5004488" lon="11.7346161"/><trkpt lat="46.5003821" lon="11.73426"/><trkpt lat="46.5003735" lon="11.7341482"/><trkpt lat="46.5003998" lon="11.7340679"/><trkpt lat="46.5005612" lon="11.7339502"/><trkpt lat="46.5006823" lon="11.7338392"/><trkpt lat="46.500871" lon="11.7337271"/><trkpt lat="46.5010791" lon="11.7336304"/><trkpt lat="46.5013252" lon="11.7334671"/><trkpt lat="46.5015327" lon="11.7331572"/><trkpt lat="46.5016908" lon="11.7327716"/><trkpt lat="46.5018671" lon="11.7322503"/><trkpt lat="46.5020573" lon="11.7316776"/><trkpt lat="46.5020959" lon="11.7314376"/><trkpt lat="46.5021018" lon="11.7310215"/><trkpt lat="46.5020143" lon="11.7305783"/><trkpt lat="46.50168" lon="11.7298702"/><trkpt lat="46.5016014" lon="11.7296629"/><trkpt lat="46.5015896" lon="11.7295732"/><trkpt lat="46.501526" lon="11.7294938"/><trkpt lat="46.5013726" lon="11.7291642"/><trkpt lat="46.5013299" lon="11.7290334"/><trkpt lat="46.5013508" lon="11.7288743"/><trkpt lat="46.5013494" lon="11.7287907"/><trkpt lat="46.5013101" lon="11.7286704"/><trkpt lat="46.5013003" lon="11.728381"/><trkpt lat="46.5013253" lon="11.7276335"/><trkpt lat="46.50147" lon="11.7270397"/><trkpt lat="46.5016259" lon="11.7267014"/><trkpt lat="46.5017175" lon="11.7265695"/><trkpt lat="46.5017258" lon="11.7265342"/><trkpt lat="46.5017314" lon="11.7264913"/><trkpt lat="46.5017055" lon="11.7264189"/><trkpt lat="46.5016705" lon="11.7263304"/><trkpt lat="46.5016744" lon="11.7262173"/><trkpt lat="46.5017456" lon="11.7260483"/><trkpt lat="46.5017418" lon="11.7259399"/><trkpt lat="46.5018169" lon="11.7257822"/><trkpt lat="46.5018082" lon="11.7256811"/><trkpt lat="46.501846" lon="11.7255484"/><trkpt lat="46.5020158" lon="11.7252826"/><trkpt lat="46.5020597" lon="11.7250731"/><trkpt lat="46.5020881" lon="11.7249965"/><trkpt lat="46.5020035" lon="11.7247877"/><trkpt lat="46.5019769" lon="11.7246029"/><trkpt lat="46.5020035" lon="11.7247877"/><trkpt lat="46.5020881" lon="11.7249965"/><trkpt lat="46.5021588" lon="11.7249001"/><trkpt lat="46.5022076" lon="11.7247507"/><trkpt lat="46.5023379" lon="11.7246941"/><trkpt lat="46.5024515" lon="11.7245743"/><trkpt lat="46.5025141" lon="11.724452"/><trkpt lat="46.5025302" lon="11.7242851"/><trkpt lat="46.5026786" lon="11.7238635"/><trkpt lat="46.5028378" lon="11.7235213"/><trkpt lat="46.5028887" lon="11.7233015"/><trkpt lat="46.5028947" lon="11.7231108"/><trkpt lat="46.5029628" lon="11.7229307"/><trkpt lat="46.5030196" lon="11.7228895"/><trkpt lat="46.5030765" lon="11.7227479"/><trkpt lat="46.503086" lon="11.7225382"/><trkpt lat="46.5029794" lon="11.7224429"/><trkpt lat="46.5029021" lon="11.7223015"/><trkpt lat="46.5029149" lon="11.7221732"/><trkpt lat="46.5029074" lon="11.7220495"/><trkpt lat="46.5029277" lon="11.7218819"/><trkpt lat="46.5029277" lon="11.7217411"/><trkpt lat="46.5029637" lon="11.7216173"/><trkpt lat="46.5030043" lon="11.7215422"/><trkpt lat="46.5031167" lon="11.7215062"/><trkpt lat="46.5032902" lon="11.7214972"/><trkpt lat="46.5033812" lon="11.7214022"/><trkpt lat="46.5034848" lon="11.7211922"/><trkpt lat="46.5035842" lon="11.7211268"/><trkpt lat="46.5036454" lon="11.7209998"/><trkpt lat="46.5037892" lon="11.7208388"/><trkpt lat="46.503809" lon="11.7206066"/><trkpt lat="46.5038421" lon="11.7205506"/><trkpt lat="46.5039287" lon="11.7205165"/><trkpt lat="46.5040719" lon="11.7203521"/><trkpt lat="46.5041064" lon="11.7202762"/><trkpt lat="46.5041662" lon="11.7202482"/><trkpt lat="46.5041791" lon="11.7202256"/><trkpt lat="46.5042275" lon="11.7201413"/><trkpt lat="46.5041998" lon="11.719978"/><trkpt lat="46.5042275" lon="11.7199258"/><trkpt lat="46.5042137" lon="11.7198732"/><trkpt lat="46.5041394" lon="11.7198187"/><trkpt lat="46.5040876" lon="11.7196969"/><trkpt lat="46.5040165" lon="11.7196183"/><trkpt lat="46.5039234" lon="11.7195275"/><trkpt lat="46.5038917" lon="11.7194414"/><trkpt lat="46.5038909" lon="11.7193297"/><trkpt lat="46.5039161" lon="11.7192509"/><trkpt lat="46.5039035" lon="11.7191974"/><trkpt lat="46.5039468" lon="11.7191601"/><trkpt lat="46.5039491" lon="11.7190467"/><trkpt lat="46.503927" lon="11.7189991"/><trkpt lat="46.5038949" lon="11.7189668"/><trkpt lat="46.5038733" lon="11.7189655"/><trkpt lat="46.5038079" lon="11.7189644"/><trkpt lat="46.503775" lon="11.7189477"/><trkpt lat="46.503724" lon="11.7188085"/><trkpt lat="46.5036762" lon="11.718658"/><trkpt lat="46.5036854" lon="11.718525"/><trkpt lat="46.5036906" lon="11.7184415"/><trkpt lat="46.5037082" lon="11.7183253"/><trkpt lat="46.5037336" lon="11.7181829"/><trkpt lat="46.5037779" lon="11.7181025"/><trkpt lat="46.5038205" lon="11.7179765"/><trkpt lat="46.503834" lon="11.7178813"/><trkpt lat="46.5038636" lon="11.7177538"/><trkpt lat="46.5038461" lon="11.7175547"/><trkpt lat="46.5038227" lon="11.7174791"/><trkpt lat="46.5038124" lon="11.7174179"/><trkpt lat="46.5037949" lon="11.7173847"/><trkpt lat="46.5037711" lon="11.7173711"/><trkpt lat="46.5037199" lon="11.7173527"/><trkpt lat="46.5036951" lon="11.7172532"/><trkpt lat="46.503706" lon="11.7172281"/><trkpt lat="46.5037417" lon="11.7172205"/><trkpt lat="46.5038059" lon="11.7172159"/><trkpt lat="46.5038457" lon="11.7171541"/><trkpt lat="46.5038334" lon="11.7170691"/><trkpt lat="46.5038369" lon="11.7169934"/><trkpt lat="46.5038983" lon="11.7169918"/><trkpt lat="46.5039415" lon="11.7168824"/><trkpt lat="46.5039438" lon="11.7168375"/><trkpt lat="46.5039592" lon="11.7168024"/><trkpt lat="46.503978" lon="11.7167819"/><trkpt lat="46.503969" lon="11.7167463"/><trkpt lat="46.5038992" lon="11.7166626"/><trkpt lat="46.5040057" lon="11.7160753"/><trkpt lat="46.5040741" lon="11.7159873"/><trkpt lat="46.5041332" lon="11.7156911"/><trkpt lat="46.5041547" lon="11.715529"/><trkpt lat="46.5041714" lon="11.7153814"/><trkpt lat="46.5042486" lon="11.7149364"/><trkpt lat="46.5044253" lon="11.7144451"/><trkpt lat="46.5045195" lon="11.7140137"/><trkpt lat="46.5045718" lon="11.7139081"/><trkpt lat="46.5045761" lon="11.71383"/><trkpt lat="46.5045563" lon="11.7137588"/><trkpt lat="46.5045442" lon="11.713485"/><trkpt lat="46.5044651" lon="11.7133446"/><trkpt lat="46.5044756" lon="11.7132195"/><trkpt lat="46.5045601" lon="11.7129933"/><trkpt lat="46.504555" lon="11.712896"/><trkpt lat="46.5045388" lon="11.7127399"/><trkpt lat="46.5044709" lon="11.7125611"/><trkpt lat="46.5045196" lon="11.7125238"/><trkpt lat="46.504524" lon="11.7124479"/><trkpt lat="46.5045725" lon="11.7124332"/><trkpt lat="46.5046206" lon="11.7124128"/><trkpt lat="46.5047336" lon="11.7125662"/><trkpt lat="46.5048165" lon="11.7125829"/><trkpt lat="46.504877" lon="11.7125731"/><trkpt lat="46.5049464" lon="11.712499"/><trkpt lat="46.5049795" lon="11.7124804"/><trkpt lat="46.5050276" lon="11.7124866"/><trkpt lat="46.5050713" lon="11.7125121"/><trkpt lat="46.5050968" lon="11.712473"/><trkpt lat="46.5051293" lon="11.7123733"/><trkpt lat="46.5052697" lon="11.7119427"/><trkpt lat="46.5052747" lon="11.7118796"/><trkpt lat="46.5053472" lon="11.7117129"/><trkpt lat="46.5055923" lon="11.7111788"/><trkpt lat="46.5056274" lon="11.7109911"/><trkpt lat="46.5056071" lon="11.7108301"/><trkpt lat="46.505661" lon="11.7106829"/><trkpt lat="46.5057071" lon="11.7104388"/><trkpt lat="46.5057661" lon="11.710249"/><trkpt lat="46.5057943" lon="11.7100974"/><trkpt lat="46.5058308" lon="11.7098916"/><trkpt lat="46.5057367" lon="11.7097307"/><trkpt lat="46.5057658" lon="11.7094542"/><trkpt lat="46.505798" lon="11.7092988"/><trkpt lat="46.5058769" lon="11.7090742"/><trkpt lat="46.505888" lon="11.7089937"/><trkpt lat="46.5058663" lon="11.7089092"/><trkpt lat="46.5058363" lon="11.7088234"/><trkpt lat="46.5056988" lon="11.7085478"/><trkpt lat="46.5056535" lon="11.7083795"/><trkpt lat="46.5055645" lon="11.7082306"/><trkpt lat="46.5055598" lon="11.7077119"/><trkpt lat="46.5055589" lon="11.7076254"/><trkpt lat="46.5055407" lon="11.7074544"/><trkpt lat="46.5055227" lon="11.707372"/><trkpt lat="46.5054975" lon="11.7073254"/><trkpt lat="46.5054381" lon="11.7072717"/><trkpt lat="46.5054345" lon="11.7072234"/><trkpt lat="46.5053406" lon="11.7071798"/><trkpt lat="46.5053236" lon="11.7071486"/><trkpt lat="46.5053434" lon="11.7069881"/><trkpt lat="46.5053489" lon="11.7069291"/><trkpt lat="46.5053369" lon="11.7068419"/><trkpt lat="46.5053166" lon="11.7067561"/><trkpt lat="46.5052739" lon="11.7066565"/><trkpt lat="46.5051459" lon="11.7064366"/><trkpt lat="46.5050775" lon="11.7062464"/><trkpt lat="46.5050406" lon="11.7060707"/><trkpt lat="46.5049954" lon="11.7059661"/><trkpt lat="46.5049548" lon="11.7058615"/><trkpt lat="46.5049326" lon="11.7057891"/><trkpt lat="46.5049105" lon="11.7057234"/><trkpt lat="46.5049003" lon="11.7056617"/><trkpt lat="46.5048648" lon="11.7054733"/><trkpt lat="46.50484" lon="11.7053473"/><trkpt lat="46.5047955" lon="11.705264"/><trkpt lat="46.5047005" lon="11.7051313"/><trkpt lat="46.5046206" lon="11.7049427"/><trkpt lat="46.5045705" lon="11.7047731"/><trkpt lat="46.5045297" lon="11.7045387"/><trkpt lat="46.5045341" lon="11.703868"/><trkpt lat="46.5045703" lon="11.7035005"/><trkpt lat="46.5046196" lon="11.7031366"/><trkpt lat="46.5046765" lon="11.7028755"/><trkpt lat="46.5047457" lon="11.7026325"/><trkpt lat="46.504872" lon="11.7022362"/><trkpt lat="46.5048906" lon="11.7021527"/><trkpt lat="46.5049081" lon="11.701977"/><trkpt lat="46.5049346" lon="11.7017242"/><trkpt lat="46.5049322" lon="11.7016269"/><trkpt lat="46.5049182" lon="11.7015466"/><trkpt lat="46.5048915" lon="11.7014674"/><trkpt lat="46.5048467" lon="11.7013934"/><trkpt lat="46.5048001" lon="11.7013092"/><trkpt lat="46.5047141" lon="11.7011033"/><trkpt lat="46.5046832" lon="11.7009145"/><trkpt lat="46.5046855" lon="11.700823"/><trkpt lat="46.5046832" lon="11.7009145"/><trkpt lat="46.5047141" lon="11.7011033"/><trkpt lat="46.5048001" lon="11.7013092"/><trkpt lat="46.5048467" lon="11.7013934"/><trkpt lat="46.5048915" lon="11.7014674"/><trkpt lat="46.5049182" lon="11.7015466"/><trkpt lat="46.5049322" lon="11.7016269"/><trkpt lat="46.5049346" lon="11.7017242"/><trkpt lat="46.5049081" lon="11.701977"/><trkpt lat="46.5048906" lon="11.7021527"/><trkpt lat="46.504872" lon="11.7022362"/><trkpt lat="46.5047457" lon="11.7026325"/><trkpt lat="46.5046765" lon="11.7028755"/><trkpt lat="46.5046196" lon="11.7031366"/><trkpt lat="46.5045703" lon="11.7035005"/><trkpt lat="46.5045341" lon="11.703868"/><trkpt lat="46.5045297" lon="11.7045387"/><trkpt lat="46.5045705" lon="11.7047731"/><trkpt lat="46.5046206" lon="11.7049427"/><trkpt lat="46.5047005" lon="11.7051313"/><trkpt lat="46.5047955" lon="11.705264"/><trkpt lat="46.50484" lon="11.7053473"/><trkpt lat="46.5048648" lon="11.7054733"/><trkpt lat="46.5049003" lon="11.7056617"/><trkpt lat="46.5049105" lon="11.7057234"/><trkpt lat="46.5049326" lon="11.7057891"/><trkpt lat="46.5049548" lon="11.7058615"/><trkpt lat="46.5049954" lon="11.7059661"/><trkpt lat="46.5050406" lon="11.7060707"/><trkpt lat="46.5050775" lon="11.7062464"/><trkpt lat="46.5051459" lon="11.7064366"/><trkpt lat="46.5052739" lon="11.7066565"/><trkpt lat="46.5053166" lon="11.7067561"/><trkpt lat="46.5053369" lon="11.7068419"/><trkpt lat="46.5053489" lon="11.7069291"/><trkpt lat="46.5053434" lon="11.7069881"/><trkpt lat="46.5053236" lon="11.7071486"/><trkpt lat="46.5053406" lon="11.7071798"/><trkpt lat="46.5054345" lon="11.7072234"/><trkpt lat="46.5054381" lon="11.7072717"/><trkpt lat="46.5054975" lon="11.7073254"/><trkpt lat="46.5055227" lon="11.707372"/><trkpt lat="46.5055407" lon="11.7074544"/><trkpt lat="46.5055589" lon="11.7076254"/><trkpt lat="46.5055598" lon="11.7077119"/><trkpt lat="46.5055645" lon="11.7082306"/><trkpt lat="46.5056535" lon="11.7083795"/><trkpt lat="46.5056988" lon="11.7085478"/><trkpt lat="46.5058363" lon="11.7088234"/><trkpt lat="46.5058663" lon="11.7089092"/><trkpt lat="46.505888" lon="11.7089937"/><trkpt lat="46.5058769" lon="11.7090742"/><trkpt lat="46.505798" lon="11.7092988"/><trkpt lat="46.5057658" lon="11.7094542"/><trkpt lat="46.5057367" lon="11.7097307"/><trkpt lat="46.5058308" lon="11.7098916"/><trkpt lat="46.5057943" lon="11.7100974"/><trkpt lat="46.5057661" lon="11.710249"/><trkpt lat="46.5057071" lon="11.7104388"/><trkpt lat="46.505661" lon="11.7106829"/><trkpt lat="46.5056071" lon="11.7108301"/><trkpt lat="46.5056274" lon="11.7109911"/><trkpt lat="46.5055923" lon="11.7111788"/><trkpt lat="46.5053472" lon="11.7117129"/><trkpt lat="46.5052747" lon="11.7118796"/><trkpt lat="46.5052697" lon="11.7119427"/><trkpt lat="46.5051293" lon="11.7123733"/><trkpt lat="46.5050968" lon="11.712473"/><trkpt lat="46.5050713" lon="11.7125121"/><trkpt lat="46.5050276" lon="11.7124866"/><trkpt lat="46.5049795" lon="11.7124804"/><trkpt lat="46.5049464" lon="11.712499"/><trkpt lat="46.504877" lon="11.7125731"/><trkpt lat="46.5048165" lon="11.7125829"/><trkpt lat="46.5047336" lon="11.7125662"/><trkpt lat="46.5046206" lon="11.7124128"/><trkpt lat="46.5045725" lon="11.7124332"/><trkpt lat="46.504524" lon="11.7124479"/><trkpt lat="46.5045196" lon="11.7125238"/><trkpt lat="46.5044709" lon="11.7125611"/><trkpt lat="46.5045388" lon="11.7127399"/><trkpt lat="46.504555" lon="11.712896"/><trkpt lat="46.5045601" lon="11.7129933"/><trkpt lat="46.5044756" lon="11.7132195"/><trkpt lat="46.5044651" lon="11.7133446"/><trkpt lat="46.5045442" lon="11.713485"/><trkpt lat="46.5045563" lon="11.7137588"/><trkpt lat="46.5045761" lon="11.71383"/><trkpt lat="46.5045718" lon="11.7139081"/><trkpt lat="46.5045195" lon="11.7140137"/><trkpt lat="46.5044253" lon="11.7144451"/><trkpt lat="46.5042486" lon="11.7149364"/><trkpt lat="46.5041714" lon="11.7153814"/><trkpt lat="46.5041547" lon="11.715529"/><trkpt lat="46.5041332" lon="11.7156911"/><trkpt lat="46.5040741" lon="11.7159873"/><trkpt lat="46.5040057" lon="11.7160753"/><trkpt lat="46.5038992" lon="11.7166626"/><trkpt lat="46.503969" lon="11.7167463"/><trkpt lat="46.503978" lon="11.7167819"/><trkpt lat="46.5039592" lon="11.7168024"/><trkpt lat="46.5039438" lon="11.7168375"/><trkpt lat="46.5039415" lon="11.7168824"/><trkpt lat="46.5038983" lon="11.7169918"/><trkpt lat="46.5038369" lon="11.7169934"/><trkpt lat="46.5038334" lon="11.7170691"/><trkpt lat="46.5038457" lon="11.7171541"/><trkpt lat="46.5038059" lon="11.7172159"/><trkpt lat="46.5037417" lon="11.7172205"/><trkpt lat="46.503706" lon="11.7172281"/><trkpt lat="46.5036951" lon="11.7172532"/><trkpt lat="46.5037199" lon="11.7173527"/><trkpt lat="46.5037711" lon="11.7173711"/><trkpt lat="46.5037949" lon="11.7173847"/><trkpt lat="46.5038124" lon="11.7174179"/><trkpt lat="46.5038227" lon="11.7174791"/><trkpt lat="46.5038461" lon="11.7175547"/><trkpt lat="46.5038636" lon="11.7177538"/><trkpt lat="46.503834" lon="11.7178813"/><trkpt lat="46.5038205" lon="11.7179765"/><trkpt lat="46.5037779" lon="11.7181025"/><trkpt lat="46.5037336" lon="11.7181829"/><trkpt lat="46.5037082" lon="11.7183253"/><trkpt lat="46.5036906" lon="11.7184415"/><trkpt lat="46.5036854" lon="11.718525"/><trkpt lat="46.5036762" lon="11.718658"/><trkpt lat="46.503724" lon="11.7188085"/><trkpt lat="46.503775" lon="11.7189477"/><trkpt lat="46.5038079" lon="11.7189644"/><trkpt lat="46.5038733" lon="11.7189655"/><trkpt lat="46.5038949" lon="11.7189668"/><trkpt lat="46.503927" lon="11.7189991"/><trkpt lat="46.5039491" lon="11.7190467"/><trkpt lat="46.5039468" lon="11.7191601"/><trkpt lat="46.5039035" lon="11.7191974"/><trkpt lat="46.5039161" lon="11.7192509"/><trkpt lat="46.5038909" lon="11.7193297"/><trkpt lat="46.5038917" lon="11.7194414"/><trkpt lat="46.5039234" lon="11.7195275"/><trkpt lat="46.5040165" lon="11.7196183"/><trkpt lat="46.5040876" lon="11.7196969"/><trkpt lat="46.5041394" lon="11.7198187"/><trkpt lat="46.5042137" lon="11.7198732"/><trkpt lat="46.5042275" lon="11.7199258"/><trkpt lat="46.5041998" lon="11.719978"/><trkpt lat="46.5042275" lon="11.7201413"/><trkpt lat="46.5041791" lon="11.7202256"/><trkpt lat="46.5041662" lon="11.7202482"/><trkpt lat="46.5041064" lon="11.7202762"/><trkpt lat="46.5040719" lon="11.7203521"/><trkpt lat="46.5039287" lon="11.7205165"/><trkpt lat="46.5038421" lon="11.7205506"/><trkpt lat="46.503809" lon="11.7206066"/><trkpt lat="46.5037892" lon="11.7208388"/><trkpt lat="46.5036454" lon="11.7209998"/><trkpt lat="46.5035842" lon="11.7211268"/><trkpt lat="46.5034848" lon="11.7211922"/><trkpt lat="46.5033812" lon="11.7214022"/><trkpt lat="46.5032902" lon="11.7214972"/><trkpt lat="46.5031167" lon="11.7215062"/><trkpt lat="46.5030043" lon="11.7215422"/><trkpt lat="46.5029637" lon="11.7216173"/><trkpt lat="46.5029277" lon="11.7217411"/><trkpt lat="46.5029277" lon="11.7218819"/><trkpt lat="46.5029074" lon="11.7220495"/><trkpt lat="46.5029149" lon="11.7221732"/><trkpt lat="46.5029021" lon="11.7223015"/><trkpt lat="46.5029794" lon="11.7224429"/><trkpt lat="46.503086" lon="11.7225382"/><trkpt lat="46.5030765" lon="11.7227479"/><trkpt lat="46.5030196" lon="11.7228895"/><trkpt lat="46.5029628" lon="11.7229307"/><trkpt lat="46.5028947" lon="11.7231108"/><trkpt lat="46.5028887" lon="11.7233015"/><trkpt lat="46.5028378" lon="11.7235213"/><trkpt lat="46.5026786" lon="11.7238635"/><trkpt lat="46.5025302" lon="11.7242851"/><trkpt lat="46.5025141" lon="11.724452"/><trkpt lat="46.5024515" lon="11.7245743"/><trkpt lat="46.5023379" lon="11.7246941"/><trkpt lat="46.5022076" lon="11.7247507"/><trkpt lat="46.5021588" lon="11.7249001"/><trkpt lat="46.5020881" lon="11.7249965"/><trkpt lat="46.5020035" lon="11.7247877"/><trkpt lat="46.5019769" lon="11.7246029"/><trkpt lat="46.5020035" lon="11.7247877"/><trkpt lat="46.5020881" lon="11.7249965"/><trkpt lat="46.5020597" lon="11.7250731"/><trkpt lat="46.5020158" lon="11.7252826"/><trkpt lat="46.501846" lon="11.7255484"/><trkpt lat="46.5018082" lon="11.7256811"/><trkpt lat="46.5018169" lon="11.7257822"/><trkpt lat="46.5017418" lon="11.7259399"/><trkpt lat="46.5017456" lon="11.7260483"/><trkpt lat="46.5016744" lon="11.7262173"/><trkpt lat="46.5016705" lon="11.7263304"/><trkpt lat="46.5017055" lon="11.7264189"/><trkpt lat="46.5017314" lon="11.7264913"/><trkpt lat="46.5017258" lon="11.7265342"/><trkpt lat="46.5017175" lon="11.7265695"/><trkpt lat="46.5016259" lon="11.7267014"/><trkpt lat="46.50147" lon="11.7270397"/><trkpt lat="46.5013253" lon="11.7276335"/><trkpt lat="46.5013003" lon="11.728381"/><trkpt lat="46.5013101" lon="11.7286704"/><trkpt lat="46.5013494" lon="11.7287907"/><trkpt lat="46.5013508" lon="11.7288743"/><trkpt lat="46.5013299" lon="11.7290334"/><trkpt lat="46.5013726" lon="11.7291642"/><trkpt lat="46.501526" lon="11.7294938"/><trkpt lat="46.5015896" lon="11.7295732"/><trkpt lat="46.5016014" lon="11.7296629"/><trkpt lat="46.50168" lon="11.7298702"/><trkpt lat="46.5020143" lon="11.7305783"/><trkpt lat="46.5021018" lon="11.7310215"/><trkpt lat="46.5020959" lon="11.7314376"/><trkpt lat="46.5020573" lon="11.7316776"/><trkpt lat="46.5018671" lon="11.7322503"/><trkpt lat="46.5016908" lon="11.7327716"/><trkpt lat="46.5015327" lon="11.7331572"/><trkpt lat="46.5013252" lon="11.7334671"/><trkpt lat="46.5010791" lon="11.7336304"/><trkpt lat="46.500871" lon="11.7337271"/><trkpt lat="46.5006823" lon="11.7338392"/><trkpt lat="46.5005612" lon="11.7339502"/><trkpt lat="46.5003998" lon="11.7340679"/><trkpt lat="46.5003735" lon="11.7341482"/><trkpt lat="46.5003821" lon="11.73426"/><trkpt lat="46.5004488" lon="11.7346161"/><trkpt lat="46.5005792" lon="11.734938"/><trkpt lat="46.5006286" lon="11.7351559"/><trkpt lat="46.5007121" lon="11.7353784"/><trkpt lat="46.5007627" lon="11.735509"/><trkpt lat="46.5008235" lon="11.735588"/><trkpt lat="46.5009552" lon="11.7358092"/><trkpt lat="46.500988" lon="11.7359465"/><trkpt lat="46.5009724" lon="11.735977"/><trkpt lat="46.5009512" lon="11.7360081"/><trkpt lat="46.5009337" lon="11.7360216"/><trkpt lat="46.5007578" lon="11.735964"/><trkpt lat="46.5006742" lon="11.7359363"/><trkpt lat="46.5005958" lon="11.7359707"/><trkpt lat="46.500533" lon="11.7359824"/><trkpt lat="46.5004699" lon="11.7359633"/><trkpt lat="46.5004435" lon="11.7359774"/><trkpt lat="46.5004288" lon="11.7360143"/><trkpt lat="46.5003933" lon="11.7361017"/><trkpt lat="46.5003046" lon="11.7362174"/><trkpt lat="46.5002517" lon="11.7363276"/><trkpt lat="46.500223" lon="11.7365075"/><trkpt lat="46.5001724" lon="11.7366401"/><trkpt lat="46.5000861" lon="11.7367792"/><trkpt lat="46.5000736" lon="11.7368313"/><trkpt lat="46.5000174" lon="11.7370119"/><trkpt lat="46.4998474" lon="11.7373536"/><trkpt lat="46.4997959" lon="11.73747"/><trkpt lat="46.4997826" lon="11.7376156"/><trkpt lat="46.4998292" lon="11.737863"/><trkpt lat="46.4999656" lon="11.7381995"/><trkpt lat="46.5001037" lon="11.738378"/><trkpt lat="46.5001789" lon="11.7384799"/><trkpt lat="46.5002239" lon="11.7386069"/><trkpt lat="46.5002478" lon="11.7387017"/><trkpt lat="46.5002685" lon="11.7388034"/><trkpt lat="46.5002945" lon="11.7388114"/><trkpt lat="46.5003041" lon="11.7388418"/><trkpt lat="46.500276" lon="11.7389834"/><trkpt lat="46.5002788" lon="11.7390812"/><trkpt lat="46.5003034" lon="11.7391999"/><trkpt lat="46.5003026" lon="11.7393057"/><trkpt lat="46.5002687" lon="11.7394407"/><trkpt lat="46.5002779" lon="11.7395292"/><trkpt lat="46.5003" lon="11.7396476"/><trkpt lat="46.5003342" lon="11.7397817"/><trkpt lat="46.5003526" lon="11.7398684"/><trkpt lat="46.5003541" lon="11.7399653"/><trkpt lat="46.5003637" lon="11.7400007"/><trkpt lat="46.500383" lon="11.7400554"/><trkpt lat="46.5004307" lon="11.7401423"/><trkpt lat="46.5004528" lon="11.7401838"/><trkpt lat="46.5004678" lon="11.7402316"/><trkpt lat="46.5004675" lon="11.7402615"/><trkpt lat="46.5004579" lon="11.7403006"/><trkpt lat="46.5004574" lon="11.7403881"/><trkpt lat="46.5004815" lon="11.7404951"/><trkpt lat="46.500552" lon="11.740606"/><trkpt lat="46.5006332" lon="11.7407101"/><trkpt lat="46.500671" lon="11.7407702"/><trkpt lat="46.5006919" lon="11.7408959"/><trkpt lat="46.5007382" lon="11.7409976"/><trkpt lat="46.5008372" lon="11.7412452"/><trkpt lat="46.5009434" lon="11.7414822"/><trkpt lat="46.5010478" lon="11.74186"/><trkpt lat="46.501045" lon="11.742013"/><trkpt lat="46.5010606" lon="11.7420934"/><trkpt lat="46.5011077" lon="11.7421672"/><trkpt lat="46.5011822" lon="11.7422416"/><trkpt lat="46.5013025" lon="11.7423117"/><trkpt lat="46.5013087" lon="11.7423541"/><trkpt lat="46.5013274" lon="11.7424341"/><trkpt lat="46.5014906" lon="11.7426951"/><trkpt lat="46.5016117" lon="11.7428477"/><trkpt lat="46.5017716" lon="11.7428512"/><trkpt lat="46.5019544" lon="11.7427148"/><trkpt lat="46.5019845" lon="11.7426906"/><trkpt lat="46.5020134" lon="11.7426964"/><trkpt lat="46.5020343" lon="11.7427291"/><trkpt lat="46.5020361" lon="11.742753"/><trkpt lat="46.5020184" lon="11.7427874"/><trkpt lat="46.5019854" lon="11.7428436"/><trkpt lat="46.5014636" lon="11.7433647"/><trkpt lat="46.5013028" lon="11.7435112"/><trkpt lat="46.5012313" lon="11.7436236"/><trkpt lat="46.501207" lon="11.7436968"/><trkpt lat="46.5012005" lon="11.7437518"/><trkpt lat="46.5011855" lon="11.7439676"/><trkpt lat="46.5011608" lon="11.7442511"/><trkpt lat="46.5011771" lon="11.7444325"/><trkpt lat="46.5011442" lon="11.7444722"/><trkpt lat="46.50111" lon="11.7445366"/><trkpt lat="46.5011039" lon="11.7445534"/><trkpt lat="46.5010989" lon="11.7445674"/><trkpt lat="46.5010989" lon="11.744617"/><trkpt lat="46.5010878" lon="11.7446827"/><trkpt lat="46.5010805" lon="11.7447364"/><trkpt lat="46.5010518" lon="11.7448477"/><trkpt lat="46.5010361" lon="11.7448852"/><trkpt lat="46.5010186" lon="11.7449107"/><trkpt lat="46.5010103" lon="11.7449523"/><trkpt lat="46.5010011" lon="11.7449942"/><trkpt lat="46.5009991" lon="11.7450237"/><trkpt lat="46.500906" lon="11.7450419"/><trkpt lat="46.500786" lon="11.745113"/><trkpt lat="46.5006882" lon="11.7451894"/><trkpt lat="46.5005846" lon="11.7452736"/><trkpt lat="46.5005063" lon="11.745349"/><trkpt lat="46.5004417" lon="11.7454255"/><trkpt lat="46.5003743" lon="11.7455391"/><trkpt lat="46.5003051" lon="11.7457272"/><trkpt lat="46.5002695" lon="11.7458637"/><trkpt lat="46.5002464" lon="11.7459525"/><trkpt lat="46.5002" lon="11.7464395"/><trkpt lat="46.5001906" lon="11.74656"/><trkpt lat="46.5001647" lon="11.7467572"/><trkpt lat="46.5001435" lon="11.7469034"/><trkpt lat="46.500128" lon="11.7469842"/><trkpt lat="46.5000461" lon="11.747296"/><trkpt lat="46.4998763" lon="11.7476745"/><trkpt lat="46.4997447" lon="11.7480648"/><trkpt lat="46.4996797" lon="11.7482598"/><trkpt lat="46.4996277" lon="11.7483548"/><trkpt lat="46.4997488" lon="11.748498"/><trkpt lat="46.4998471" lon="11.7486141"/><trkpt lat="46.5001856" lon="11.7488951"/><trkpt lat="46.5006994" lon="11.7493425"/><trkpt lat="46.5008852" lon="11.7494549"/><trkpt lat="46.5010579" lon="11.7495323"/><trkpt lat="46.5011283" lon="11.7496"/><trkpt lat="46.5012891" lon="11.7498757"/><trkpt lat="46.5013759" lon="11.7499841"/><trkpt lat="46.5014461" lon="11.7500523"/><trkpt lat="46.5015105" lon="11.7501111"/><trkpt lat="46.5020087" lon="11.7505225"/><trkpt lat="46.5022636" lon="11.7507683"/><trkpt lat="46.5024065" lon="11.7509134"/><trkpt lat="46.5025787" lon="11.7511226"/><trkpt lat="46.5026315" lon="11.7511834"/><trkpt lat="46.5029133" lon="11.7515715"/><trkpt lat="46.5030045" lon="11.7516768"/><trkpt lat="46.5031201" lon="11.7517688"/><trkpt lat="46.503193" lon="11.7518034"/><trkpt lat="46.5032675" lon="11.7518133"/><trkpt lat="46.5033364" lon="11.7518056"/><trkpt lat="46.5035067" lon="11.7516629"/><trkpt lat="46.503567" lon="11.7516514"/><trkpt lat="46.5036272" lon="11.7516825"/><trkpt lat="46.503747" lon="11.7517854"/><trkpt lat="46.5038874" lon="11.7520293"/><trkpt lat="46.5039782" lon="11.7523793"/><trkpt lat="46.5040449" lon="11.7525293"/><trkpt lat="46.504134" lon="11.7526598"/><trkpt lat="46.5043221" lon="11.7528234"/><trkpt lat="46.5043766" lon="11.7528873"/><trkpt lat="46.5044955" lon="11.7530958"/><trkpt lat="46.5046825" lon="11.7535636"/><trkpt lat="46.5049481" lon="11.7540723"/><trkpt lat="46.505089" lon="11.754332"/><trkpt lat="46.5051721" lon="11.7545894"/><trkpt lat="46.5051979" lon="11.7547878"/><trkpt lat="46.5052423" lon="11.7549406"/><trkpt lat="46.5053858" lon="11.7552203"/><trkpt lat="46.5056435" lon="11.7555531"/><trkpt lat="46.5059127" lon="11.7558677"/><trkpt lat="46.5063119" lon="11.7564559"/><trkpt lat="46.5065049" lon="11.7568009"/><trkpt lat="46.506574" lon="11.7569071"/><trkpt lat="46.5066131" lon="11.7569677"/><trkpt lat="46.5066577" lon="11.7570298"/><trkpt lat="46.5067054" lon="11.7570791"/><trkpt lat="46.506781" lon="11.757164"/><trkpt lat="46.5068763" lon="11.7571435"/><trkpt lat="46.5070492" lon="11.7570769"/><trkpt lat="46.5072095" lon="11.7569857"/><trkpt lat="46.5075195" lon="11.7567715"/><trkpt lat="46.5080071" lon="11.7566116"/><trkpt lat="46.5081363" lon="11.7565816"/><trkpt lat="46.5083264" lon="11.7565751"/><trkpt lat="46.5084" lon="11.7566029"/><trkpt lat="46.5084818" lon="11.7566655"/><trkpt lat="46.5085584" lon="11.7567516"/><trkpt lat="46.5085894" lon="11.7567864"/><trkpt lat="46.5087307" lon="11.7568604"/><trkpt lat="46.5087628" lon="11.756864"/><trkpt lat="46.5088008" lon="11.7568576"/><trkpt lat="46.5088823" lon="11.7568015"/><trkpt lat="46.5089556" lon="11.7567698"/><trkpt lat="46.5090147" lon="11.7567653"/><trkpt lat="46.5089949" lon="11.7568188"/><trkpt lat="46.5089836" lon="11.7568818"/><trkpt lat="46.5089854" lon="11.7569278"/><trkpt lat="46.5090083" lon="11.7570572"/><trkpt lat="46.5090373" lon="11.7571318"/><trkpt lat="46.5092633" lon="11.757408"/><trkpt lat="46.5092544" lon="11.7574789"/><trkpt lat="46.5092313" lon="11.7576422"/><trkpt lat="46.5093208" lon="11.7576553"/><trkpt lat="46.509418" lon="11.7576593"/><trkpt lat="46.5094738" lon="11.757652"/><trkpt lat="46.5095136" lon="11.7576331"/><trkpt lat="46.5095479" lon="11.7576007"/><trkpt lat="46.5095704" lon="11.7575494"/><trkpt lat="46.5095754" lon="11.757503"/><trkpt lat="46.5096153" lon="11.7571505"/></trkseg></trk></gpx>