<?xml version="1.0" encoding="UTF-8"?><kml xmlns="http://www.opengis.net/kml/2.2"><Document><name>Sella · Friedrich August Weg</name><description>Планировочная реконструкция по OpenStreetMap, 09.09.2026. Не запись GPS и не проверенный навигационный трек. Высоты не экспортированы. Данные © OpenStreetMap contributors, ODbL. Автопереезды и канатки в пеший трек не включены.</description><Style id="track"><LineStyle><color>ff395e86</color><width>4</width></LineStyle></Style><Placemark><name>Passo Sella — парковка у Mountain Resort</name><Point><coordinates>11.7572704,46.5094868</coordinates></Point></Placemark><Placemark><name>Rifugio Friedrich August</name><Point><coordinates>11.74521874,46.5003983</coordinates></Point></Placemark><Placemark><name>Rifugio Sandro Pertini</name><Point><coordinates>11.7246021,46.50209656</coordinates></Point></Placemark><Placemark><name>Rifugio Sasso Piatto (не вершина)</name><Point><coordinates>11.70085032,46.504445759999996</coordinates></Point></Placemark><Placemark><name>Friedrich August — Sasso Piatto — обратно</name><description>Планировочная реконструкция по OpenStreetMap, 09.09.2026. Не запись GPS и не проверенный навигационный трек. Высоты не экспортированы. Данные © OpenStreetMap contributors, ODbL. Автопереезды и канатки в пеший трек не включены.</description><styleUrl>#track</styleUrl><LineString><tessellate>1</tessellate><altitudeMode>clampToGround</altitudeMode><coordinates>11.7571505,46.5096153,0 11.757503,46.5095754,0 11.7575494,46.5095704,0 11.7576007,46.5095479,0 11.7576331,46.5095136,0 11.757652,46.5094738,0 11.7576593,46.509418,0 11.7576553,46.5093208,0 11.7576422,46.5092313,0 11.7574789,46.5092544,0 11.757408,46.5092633,0 11.7571318,46.5090373,0 11.7570572,46.5090083,0 11.7569278,46.5089854,0 11.7568818,46.5089836,0 11.7568188,46.5089949,0 11.7567653,46.5090147,0 11.7567698,46.5089556,0 11.7568015,46.5088823,0 11.7568576,46.5088008,0 11.756864,46.5087628,0 11.7568604,46.5087307,0 11.7567864,46.5085894,0 11.7567516,46.5085584,0 11.7566655,46.5084818,0 11.7566029,46.5084,0 11.7565751,46.5083264,0 11.7565816,46.5081363,0 11.7566116,46.5080071,0 11.7567715,46.5075195,0 11.7569857,46.5072095,0 11.7570769,46.5070492,0 11.7571435,46.5068763,0 11.757164,46.506781,0 11.7570791,46.5067054,0 11.7570298,46.5066577,0 11.7569677,46.5066131,0 11.7569071,46.506574,0 11.7568009,46.5065049,0 11.7564559,46.5063119,0 11.7558677,46.5059127,0 11.7555531,46.5056435,0 11.7552203,46.5053858,0 11.7549406,46.5052423,0 11.7547878,46.5051979,0 11.7545894,46.5051721,0 11.754332,46.505089,0 11.7540723,46.5049481,0 11.7535636,46.5046825,0 11.7530958,46.5044955,0 11.7528873,46.5043766,0 11.7528234,46.5043221,0 11.7526598,46.504134,0 11.7525293,46.5040449,0 11.7523793,46.5039782,0 11.7520293,46.5038874,0 11.7517854,46.503747,0 11.7516825,46.5036272,0 11.7516514,46.503567,0 11.7516629,46.5035067,0 11.7518056,46.5033364,0 11.7518133,46.5032675,0 11.7518034,46.503193,0 11.7517688,46.5031201,0 11.7516768,46.5030045,0 11.7515715,46.5029133,0 11.7511834,46.5026315,0 11.7511226,46.5025787,0 11.7509134,46.5024065,0 11.7507683,46.5022636,0 11.7505225,46.5020087,0 11.7501111,46.5015105,0 11.7500523,46.5014461,0 11.7499841,46.5013759,0 11.7498757,46.5012891,0 11.7496,46.5011283,0 11.7495323,46.5010579,0 11.7494549,46.5008852,0 11.7493425,46.5006994,0 11.7488951,46.5001856,0 11.7486141,46.4998471,0 11.748498,46.4997488,0 11.7483548,46.4996277,0 11.7482598,46.4996797,0 11.7480648,46.4997447,0 11.7476745,46.4998763,0 11.747296,46.5000461,0 11.7469842,46.500128,0 11.7469034,46.5001435,0 11.7467572,46.5001647,0 11.74656,46.5001906,0 11.7464395,46.5002,0 11.7459525,46.5002464,0 11.7458637,46.5002695,0 11.7457272,46.5003051,0 11.7455391,46.5003743,0 11.7454255,46.5004417,0 11.745349,46.5005063,0 11.7452736,46.5005846,0 11.7451894,46.5006882,0 11.745113,46.500786,0 11.7450419,46.500906,0 11.7450237,46.5009991,0 11.7449942,46.5010011,0 11.7449523,46.5010103,0 11.7449107,46.5010186,0 11.7448852,46.5010361,0 11.7448477,46.5010518,0 11.7447364,46.5010805,0 11.7446827,46.5010878,0 11.744617,46.5010989,0 11.7445674,46.5010989,0 11.7445534,46.5011039,0 11.7445366,46.50111,0 11.7444722,46.5011442,0 11.7444325,46.5011771,0 11.7442511,46.5011608,0 11.7439676,46.5011855,0 11.7437518,46.5012005,0 11.7436968,46.501207,0 11.7436236,46.5012313,0 11.7435112,46.5013028,0 11.7433647,46.5014636,0 11.7428436,46.5019854,0 11.7427874,46.5020184,0 11.742753,46.5020361,0 11.7427291,46.5020343,0 11.7426964,46.5020134,0 11.7426906,46.5019845,0 11.7427148,46.5019544,0 11.7428512,46.5017716,0 11.7428477,46.5016117,0 11.7426951,46.5014906,0 11.7424341,46.5013274,0 11.7423541,46.5013087,0 11.7423117,46.5013025,0 11.7422416,46.5011822,0 11.7421672,46.5011077,0 11.7420934,46.5010606,0 11.742013,46.501045,0 11.74186,46.5010478,0 11.7414822,46.5009434,0 11.7412452,46.5008372,0 11.7409976,46.5007382,0 11.7408959,46.5006919,0 11.7407702,46.500671,0 11.7407101,46.5006332,0 11.740606,46.500552,0 11.7404951,46.5004815,0 11.7403881,46.5004574,0 11.7403006,46.5004579,0 11.7402615,46.5004675,0 11.7402316,46.5004678,0 11.7401838,46.5004528,0 11.7401423,46.5004307,0 11.7400554,46.500383,0 11.7400007,46.5003637,0 11.7399653,46.5003541,0 11.7398684,46.5003526,0 11.7397817,46.5003342,0 11.7396476,46.5003,0 11.7395292,46.5002779,0 11.7394407,46.5002687,0 11.7393057,46.5003026,0 11.7391999,46.5003034,0 11.7390812,46.5002788,0 11.7389834,46.500276,0 11.7388418,46.5003041,0 11.7388114,46.5002945,0 11.7388034,46.5002685,0 11.7387017,46.5002478,0 11.7386069,46.5002239,0 11.7384799,46.5001789,0 11.738378,46.5001037,0 11.7381995,46.4999656,0 11.737863,46.4998292,0 11.7376156,46.4997826,0 11.73747,46.4997959,0 11.7373536,46.4998474,0 11.7370119,46.5000174,0 11.7368313,46.5000736,0 11.7367792,46.5000861,0 11.7366401,46.5001724,0 11.7365075,46.500223,0 11.7363276,46.5002517,0 11.7362174,46.5003046,0 11.7361017,46.5003933,0 11.7360143,46.5004288,0 11.7359774,46.5004435,0 11.7359633,46.5004699,0 11.7359824,46.500533,0 11.7359707,46.5005958,0 11.7359363,46.5006742,0 11.735964,46.5007578,0 11.7360216,46.5009337,0 11.7360081,46.5009512,0 11.735977,46.5009724,0 11.7359465,46.500988,0 11.7358092,46.5009552,0 11.735588,46.5008235,0 11.735509,46.5007627,0 11.7353784,46.5007121,0 11.7351559,46.5006286,0 11.734938,46.5005792,0 11.7346161,46.5004488,0 11.73426,46.5003821,0 11.7341482,46.5003735,0 11.7340679,46.5003998,0 11.7339502,46.5005612,0 11.7338392,46.5006823,0 11.7337271,46.500871,0 11.7336304,46.5010791,0 11.7334671,46.5013252,0 11.7331572,46.5015327,0 11.7327716,46.5016908,0 11.7322503,46.5018671,0 11.7316776,46.5020573,0 11.7314376,46.5020959,0 11.7310215,46.5021018,0 11.7305783,46.5020143,0 11.7298702,46.50168,0 11.7296629,46.5016014,0 11.7295732,46.5015896,0 11.7294938,46.501526,0 11.7291642,46.5013726,0 11.7290334,46.5013299,0 11.7288743,46.5013508,0 11.7287907,46.5013494,0 11.7286704,46.5013101,0 11.728381,46.5013003,0 11.7276335,46.5013253,0 11.7270397,46.50147,0 11.7267014,46.5016259,0 11.7265695,46.5017175,0 11.7265342,46.5017258,0 11.7264913,46.5017314,0 11.7264189,46.5017055,0 11.7263304,46.5016705,0 11.7262173,46.5016744,0 11.7260483,46.5017456,0 11.7259399,46.5017418,0 11.7257822,46.5018169,0 11.7256811,46.5018082,0 11.7255484,46.501846,0 11.7252826,46.5020158,0 11.7250731,46.5020597,0 11.7249965,46.5020881,0 11.7247877,46.5020035,0 11.7246029,46.5019769,0 11.7247877,46.5020035,0 11.7249965,46.5020881,0 11.7249001,46.5021588,0 11.7247507,46.5022076,0 11.7246941,46.5023379,0 11.7245743,46.5024515,0 11.724452,46.5025141,0 11.7242851,46.5025302,0 11.7238635,46.5026786,0 11.7235213,46.5028378,0 11.7233015,46.5028887,0 11.7231108,46.5028947,0 11.7229307,46.5029628,0 11.7228895,46.5030196,0 11.7227479,46.5030765,0 11.7225382,46.503086,0 11.7224429,46.5029794,0 11.7223015,46.5029021,0 11.7221732,46.5029149,0 11.7220495,46.5029074,0 11.7218819,46.5029277,0 11.7217411,46.5029277,0 11.7216173,46.5029637,0 11.7215422,46.5030043,0 11.7215062,46.5031167,0 11.7214972,46.5032902,0 11.7214022,46.5033812,0 11.7211922,46.5034848,0 11.7211268,46.5035842,0 11.7209998,46.5036454,0 11.7208388,46.5037892,0 11.7206066,46.503809,0 11.7205506,46.5038421,0 11.7205165,46.5039287,0 11.7203521,46.5040719,0 11.7202762,46.5041064,0 11.7202482,46.5041662,0 11.7202256,46.5041791,0 11.7201413,46.5042275,0 11.719978,46.5041998,0 11.7199258,46.5042275,0 11.7198732,46.5042137,0 11.7198187,46.5041394,0 11.7196969,46.5040876,0 11.7196183,46.5040165,0 11.7195275,46.5039234,0 11.7194414,46.5038917,0 11.7193297,46.5038909,0 11.7192509,46.5039161,0 11.7191974,46.5039035,0 11.7191601,46.5039468,0 11.7190467,46.5039491,0 11.7189991,46.503927,0 11.7189668,46.5038949,0 11.7189655,46.5038733,0 11.7189644,46.5038079,0 11.7189477,46.503775,0 11.7188085,46.503724,0 11.718658,46.5036762,0 11.718525,46.5036854,0 11.7184415,46.5036906,0 11.7183253,46.5037082,0 11.7181829,46.5037336,0 11.7181025,46.5037779,0 11.7179765,46.5038205,0 11.7178813,46.503834,0 11.7177538,46.5038636,0 11.7175547,46.5038461,0 11.7174791,46.5038227,0 11.7174179,46.5038124,0 11.7173847,46.5037949,0 11.7173711,46.5037711,0 11.7173527,46.5037199,0 11.7172532,46.5036951,0 11.7172281,46.503706,0 11.7172205,46.5037417,0 11.7172159,46.5038059,0 11.7171541,46.5038457,0 11.7170691,46.5038334,0 11.7169934,46.5038369,0 11.7169918,46.5038983,0 11.7168824,46.5039415,0 11.7168375,46.5039438,0 11.7168024,46.5039592,0 11.7167819,46.503978,0 11.7167463,46.503969,0 11.7166626,46.5038992,0 11.7160753,46.5040057,0 11.7159873,46.5040741,0 11.7156911,46.5041332,0 11.715529,46.5041547,0 11.7153814,46.5041714,0 11.7149364,46.5042486,0 11.7144451,46.5044253,0 11.7140137,46.5045195,0 11.7139081,46.5045718,0 11.71383,46.5045761,0 11.7137588,46.5045563,0 11.713485,46.5045442,0 11.7133446,46.5044651,0 11.7132195,46.5044756,0 11.7129933,46.5045601,0 11.712896,46.504555,0 11.7127399,46.5045388,0 11.7125611,46.5044709,0 11.7125238,46.5045196,0 11.7124479,46.504524,0 11.7124332,46.5045725,0 11.7124128,46.5046206,0 11.7125662,46.5047336,0 11.7125829,46.5048165,0 11.7125731,46.504877,0 11.712499,46.5049464,0 11.7124804,46.5049795,0 11.7124866,46.5050276,0 11.7125121,46.5050713,0 11.712473,46.5050968,0 11.7123733,46.5051293,0 11.7119427,46.5052697,0 11.7118796,46.5052747,0 11.7117129,46.5053472,0 11.7111788,46.5055923,0 11.7109911,46.5056274,0 11.7108301,46.5056071,0 11.7106829,46.505661,0 11.7104388,46.5057071,0 11.710249,46.5057661,0 11.7100974,46.5057943,0 11.7098916,46.5058308,0 11.7097307,46.5057367,0 11.7094542,46.5057658,0 11.7092988,46.505798,0 11.7090742,46.5058769,0 11.7089937,46.505888,0 11.7089092,46.5058663,0 11.7088234,46.5058363,0 11.7085478,46.5056988,0 11.7083795,46.5056535,0 11.7082306,46.5055645,0 11.7077119,46.5055598,0 11.7076254,46.5055589,0 11.7074544,46.5055407,0 11.707372,46.5055227,0 11.7073254,46.5054975,0 11.7072717,46.5054381,0 11.7072234,46.5054345,0 11.7071798,46.5053406,0 11.7071486,46.5053236,0 11.7069881,46.5053434,0 11.7069291,46.5053489,0 11.7068419,46.5053369,0 11.7067561,46.5053166,0 11.7066565,46.5052739,0 11.7064366,46.5051459,0 11.7062464,46.5050775,0 11.7060707,46.5050406,0 11.7059661,46.5049954,0 11.7058615,46.5049548,0 11.7057891,46.5049326,0 11.7057234,46.5049105,0 11.7056617,46.5049003,0 11.7054733,46.5048648,0 11.7053473,46.50484,0 11.705264,46.5047955,0 11.7051313,46.5047005,0 11.7049427,46.5046206,0 11.7047731,46.5045705,0 11.7045387,46.5045297,0 11.703868,46.5045341,0 11.7035005,46.5045703,0 11.7031366,46.5046196,0 11.7028755,46.5046765,0 11.7026325,46.5047457,0 11.7022362,46.504872,0 11.7021527,46.5048906,0 11.701977,46.5049081,0 11.7017242,46.5049346,0 11.7016269,46.5049322,0 11.7015466,46.5049182,0 11.7014674,46.5048915,0 11.7013934,46.5048467,0 11.7013092,46.5048001,0 11.7011033,46.5047141,0 11.7009145,46.5046832,0 11.700823,46.5046855,0 11.7009145,46.5046832,0 11.7011033,46.5047141,0 11.7013092,46.5048001,0 11.7013934,46.5048467,0 11.7014674,46.5048915,0 11.7015466,46.5049182,0 11.7016269,46.5049322,0 11.7017242,46.5049346,0 11.701977,46.5049081,0 11.7021527,46.5048906,0 11.7022362,46.504872,0 11.7026325,46.5047457,0 11.7028755,46.5046765,0 11.7031366,46.5046196,0 11.7035005,46.5045703,0 11.703868,46.5045341,0 11.7045387,46.5045297,0 11.7047731,46.5045705,0 11.7049427,46.5046206,0 11.7051313,46.5047005,0 11.705264,46.5047955,0 11.7053473,46.50484,0 11.7054733,46.5048648,0 11.7056617,46.5049003,0 11.7057234,46.5049105,0 11.7057891,46.5049326,0 11.7058615,46.5049548,0 11.7059661,46.5049954,0 11.7060707,46.5050406,0 11.7062464,46.5050775,0 11.7064366,46.5051459,0 11.7066565,46.5052739,0 11.7067561,46.5053166,0 11.7068419,46.5053369,0 11.7069291,46.5053489,0 11.7069881,46.5053434,0 11.7071486,46.5053236,0 11.7071798,46.5053406,0 11.7072234,46.5054345,0 11.7072717,46.5054381,0 11.7073254,46.5054975,0 11.707372,46.5055227,0 11.7074544,46.5055407,0 11.7076254,46.5055589,0 11.7077119,46.5055598,0 11.7082306,46.5055645,0 11.7083795,46.5056535,0 11.7085478,46.5056988,0 11.7088234,46.5058363,0 11.7089092,46.5058663,0 11.7089937,46.505888,0 11.7090742,46.5058769,0 11.7092988,46.505798,0 11.7094542,46.5057658,0 11.7097307,46.5057367,0 11.7098916,46.5058308,0 11.7100974,46.5057943,0 11.710249,46.5057661,0 11.7104388,46.5057071,0 11.7106829,46.505661,0 11.7108301,46.5056071,0 11.7109911,46.5056274,0 11.7111788,46.5055923,0 11.7117129,46.5053472,0 11.7118796,46.5052747,0 11.7119427,46.5052697,0 11.7123733,46.5051293,0 11.712473,46.5050968,0 11.7125121,46.5050713,0 11.7124866,46.5050276,0 11.7124804,46.5049795,0 11.712499,46.5049464,0 11.7125731,46.504877,0 11.7125829,46.5048165,0 11.7125662,46.5047336,0 11.7124128,46.5046206,0 11.7124332,46.5045725,0 11.7124479,46.504524,0 11.7125238,46.5045196,0 11.7125611,46.5044709,0 11.7127399,46.5045388,0 11.712896,46.504555,0 11.7129933,46.5045601,0 11.7132195,46.5044756,0 11.7133446,46.5044651,0 11.713485,46.5045442,0 11.7137588,46.5045563,0 11.71383,46.5045761,0 11.7139081,46.5045718,0 11.7140137,46.5045195,0 11.7144451,46.5044253,0 11.7149364,46.5042486,0 11.7153814,46.5041714,0 11.715529,46.5041547,0 11.7156911,46.5041332,0 11.7159873,46.5040741,0 11.7160753,46.5040057,0 11.7166626,46.5038992,0 11.7167463,46.503969,0 11.7167819,46.503978,0 11.7168024,46.5039592,0 11.7168375,46.5039438,0 11.7168824,46.5039415,0 11.7169918,46.5038983,0 11.7169934,46.5038369,0 11.7170691,46.5038334,0 11.7171541,46.5038457,0 11.7172159,46.5038059,0 11.7172205,46.5037417,0 11.7172281,46.503706,0 11.7172532,46.5036951,0 11.7173527,46.5037199,0 11.7173711,46.5037711,0 11.7173847,46.5037949,0 11.7174179,46.5038124,0 11.7174791,46.5038227,0 11.7175547,46.5038461,0 11.7177538,46.5038636,0 11.7178813,46.503834,0 11.7179765,46.5038205,0 11.7181025,46.5037779,0 11.7181829,46.5037336,0 11.7183253,46.5037082,0 11.7184415,46.5036906,0 11.718525,46.5036854,0 11.718658,46.5036762,0 11.7188085,46.503724,0 11.7189477,46.503775,0 11.7189644,46.5038079,0 11.7189655,46.5038733,0 11.7189668,46.5038949,0 11.7189991,46.503927,0 11.7190467,46.5039491,0 11.7191601,46.5039468,0 11.7191974,46.5039035,0 11.7192509,46.5039161,0 11.7193297,46.5038909,0 11.7194414,46.5038917,0 11.7195275,46.5039234,0 11.7196183,46.5040165,0 11.7196969,46.5040876,0 11.7198187,46.5041394,0 11.7198732,46.5042137,0 11.7199258,46.5042275,0 11.719978,46.5041998,0 11.7201413,46.5042275,0 11.7202256,46.5041791,0 11.7202482,46.5041662,0 11.7202762,46.5041064,0 11.7203521,46.5040719,0 11.7205165,46.5039287,0 11.7205506,46.5038421,0 11.7206066,46.503809,0 11.7208388,46.5037892,0 11.7209998,46.5036454,0 11.7211268,46.5035842,0 11.7211922,46.5034848,0 11.7214022,46.5033812,0 11.7214972,46.5032902,0 11.7215062,46.5031167,0 11.7215422,46.5030043,0 11.7216173,46.5029637,0 11.7217411,46.5029277,0 11.7218819,46.5029277,0 11.7220495,46.5029074,0 11.7221732,46.5029149,0 11.7223015,46.5029021,0 11.7224429,46.5029794,0 11.7225382,46.503086,0 11.7227479,46.5030765,0 11.7228895,46.5030196,0 11.7229307,46.5029628,0 11.7231108,46.5028947,0 11.7233015,46.5028887,0 11.7235213,46.5028378,0 11.7238635,46.5026786,0 11.7242851,46.5025302,0 11.724452,46.5025141,0 11.7245743,46.5024515,0 11.7246941,46.5023379,0 11.7247507,46.5022076,0 11.7249001,46.5021588,0 11.7249965,46.5020881,0 11.7247877,46.5020035,0 11.7246029,46.5019769,0 11.7247877,46.5020035,0 11.7249965,46.5020881,0 11.7250731,46.5020597,0 11.7252826,46.5020158,0 11.7255484,46.501846,0 11.7256811,46.5018082,0 11.7257822,46.5018169,0 11.7259399,46.5017418,0 11.7260483,46.5017456,0 11.7262173,46.5016744,0 11.7263304,46.5016705,0 11.7264189,46.5017055,0 11.7264913,46.5017314,0 11.7265342,46.5017258,0 11.7265695,46.5017175,0 11.7267014,46.5016259,0 11.7270397,46.50147,0 11.7276335,46.5013253,0 11.728381,46.5013003,0 11.7286704,46.5013101,0 11.7287907,46.5013494,0 11.7288743,46.5013508,0 11.7290334,46.5013299,0 11.7291642,46.5013726,0 11.7294938,46.501526,0 11.7295732,46.5015896,0 11.7296629,46.5016014,0 11.7298702,46.50168,0 11.7305783,46.5020143,0 11.7310215,46.5021018,0 11.7314376,46.5020959,0 11.7316776,46.5020573,0 11.7322503,46.5018671,0 11.7327716,46.5016908,0 11.7331572,46.5015327,0 11.7334671,46.5013252,0 11.7336304,46.5010791,0 11.7337271,46.500871,0 11.7338392,46.5006823,0 11.7339502,46.5005612,0 11.7340679,46.5003998,0 11.7341482,46.5003735,0 11.73426,46.5003821,0 11.7346161,46.5004488,0 11.734938,46.5005792,0 11.7351559,46.5006286,0 11.7353784,46.5007121,0 11.735509,46.5007627,0 11.735588,46.5008235,0 11.7358092,46.5009552,0 11.7359465,46.500988,0 11.735977,46.5009724,0 11.7360081,46.5009512,0 11.7360216,46.5009337,0 11.735964,46.5007578,0 11.7359363,46.5006742,0 11.7359707,46.5005958,0 11.7359824,46.500533,0 11.7359633,46.5004699,0 11.7359774,46.5004435,0 11.7360143,46.5004288,0 11.7361017,46.5003933,0 11.7362174,46.5003046,0 11.7363276,46.5002517,0 11.7365075,46.500223,0 11.7366401,46.5001724,0 11.7367792,46.5000861,0 11.7368313,46.5000736,0 11.7370119,46.5000174,0 11.7373536,46.4998474,0 11.73747,46.4997959,0 11.7376156,46.4997826,0 11.737863,46.4998292,0 11.7381995,46.4999656,0 11.738378,46.5001037,0 11.7384799,46.5001789,0 11.7386069,46.5002239,0 11.7387017,46.5002478,0 11.7388034,46.5002685,0 11.7388114,46.5002945,0 11.7388418,46.5003041,0 11.7389834,46.500276,0 11.7390812,46.5002788,0 11.7391999,46.5003034,0 11.7393057,46.5003026,0 11.7394407,46.5002687,0 11.7395292,46.5002779,0 11.7396476,46.5003,0 11.7397817,46.5003342,0 11.7398684,46.5003526,0 11.7399653,46.5003541,0 11.7400007,46.5003637,0 11.7400554,46.500383,0 11.7401423,46.5004307,0 11.7401838,46.5004528,0 11.7402316,46.5004678,0 11.7402615,46.5004675,0 11.7403006,46.5004579,0 11.7403881,46.5004574,0 11.7404951,46.5004815,0 11.740606,46.500552,0 11.7407101,46.5006332,0 11.7407702,46.500671,0 11.7408959,46.5006919,0 11.7409976,46.5007382,0 11.7412452,46.5008372,0 11.7414822,46.5009434,0 11.74186,46.5010478,0 11.742013,46.501045,0 11.7420934,46.5010606,0 11.7421672,46.5011077,0 11.7422416,46.5011822,0 11.7423117,46.5013025,0 11.7423541,46.5013087,0 11.7424341,46.5013274,0 11.7426951,46.5014906,0 11.7428477,46.5016117,0 11.7428512,46.5017716,0 11.7427148,46.5019544,0 11.7426906,46.5019845,0 11.7426964,46.5020134,0 11.7427291,46.5020343,0 11.742753,46.5020361,0 11.7427874,46.5020184,0 11.7428436,46.5019854,0 11.7433647,46.5014636,0 11.7435112,46.5013028,0 11.7436236,46.5012313,0 11.7436968,46.501207,0 11.7437518,46.5012005,0 11.7439676,46.5011855,0 11.7442511,46.5011608,0 11.7444325,46.5011771,0 11.7444722,46.5011442,0 11.7445366,46.50111,0 11.7445534,46.5011039,0 11.7445674,46.5010989,0 11.744617,46.5010989,0 11.7446827,46.5010878,0 11.7447364,46.5010805,0 11.7448477,46.5010518,0 11.7448852,46.5010361,0 11.7449107,46.5010186,0 11.7449523,46.5010103,0 11.7449942,46.5010011,0 11.7450237,46.5009991,0 11.7450419,46.500906,0 11.745113,46.500786,0 11.7451894,46.5006882,0 11.7452736,46.5005846,0 11.745349,46.5005063,0 11.7454255,46.5004417,0 11.7455391,46.5003743,0 11.7457272,46.5003051,0 11.7458637,46.5002695,0 11.7459525,46.5002464,0 11.7464395,46.5002,0 11.74656,46.5001906,0 11.7467572,46.5001647,0 11.7469034,46.5001435,0 11.7469842,46.500128,0 11.747296,46.5000461,0 11.7476745,46.4998763,0 11.7480648,46.4997447,0 11.7482598,46.4996797,0 11.7483548,46.4996277,0 11.748498,46.4997488,0 11.7486141,46.4998471,0 11.7488951,46.5001856,0 11.7493425,46.5006994,0 11.7494549,46.5008852,0 11.7495323,46.5010579,0 11.7496,46.5011283,0 11.7498757,46.5012891,0 11.7499841,46.5013759,0 11.7500523,46.5014461,0 11.7501111,46.5015105,0 11.7505225,46.5020087,0 11.7507683,46.5022636,0 11.7509134,46.5024065,0 11.7511226,46.5025787,0 11.7511834,46.5026315,0 11.7515715,46.5029133,0 11.7516768,46.5030045,0 11.7517688,46.5031201,0 11.7518034,46.503193,0 11.7518133,46.5032675,0 11.7518056,46.5033364,0 11.7516629,46.5035067,0 11.7516514,46.503567,0 11.7516825,46.5036272,0 11.7517854,46.503747,0 11.7520293,46.5038874,0 11.7523793,46.5039782,0 11.7525293,46.5040449,0 11.7526598,46.504134,0 11.7528234,46.5043221,0 11.7528873,46.5043766,0 11.7530958,46.5044955,0 11.7535636,46.5046825,0 11.7540723,46.5049481,0 11.754332,46.505089,0 11.7545894,46.5051721,0 11.7547878,46.5051979,0 11.7549406,46.5052423,0 11.7552203,46.5053858,0 11.7555531,46.5056435,0 11.7558677,46.5059127,0 11.7564559,46.5063119,0 11.7568009,46.5065049,0 11.7569071,46.506574,0 11.7569677,46.5066131,0 11.7570298,46.5066577,0 11.7570791,46.5067054,0 11.757164,46.506781,0 11.7571435,46.5068763,0 11.7570769,46.5070492,0 11.7569857,46.5072095,0 11.7567715,46.5075195,0 11.7566116,46.5080071,0 11.7565816,46.5081363,0 11.7565751,46.5083264,0 11.7566029,46.5084,0 11.7566655,46.5084818,0 11.7567516,46.5085584,0 11.7567864,46.5085894,0 11.7568604,46.5087307,0 11.756864,46.5087628,0 11.7568576,46.5088008,0 11.7568015,46.5088823,0 11.7567698,46.5089556,0 11.7567653,46.5090147,0 11.7568188,46.5089949,0 11.7568818,46.5089836,0 11.7569278,46.5089854,0 11.7570572,46.5090083,0 11.7571318,46.5090373,0 11.757408,46.5092633,0 11.7574789,46.5092544,0 11.7576422,46.5092313,0 11.7576553,46.5093208,0 11.7576593,46.509418,0 11.757652,46.5094738,0 11.7576331,46.5095136,0 11.7576007,46.5095479,0 11.7575494,46.5095704,0 11.757503,46.5095754,0 11.7571505,46.5096153,0</coordinates></LineString></Placemark></Document></kml>