<?xml version="1.0" encoding="UTF-8"?><gpx version="1.1" creator="Dolomites Atlas" xmlns="http://www.topografix.com/GPX/1/1"><metadata><name>Alpe di Siusi · Steger Trail</name><desc>Планировочная реконструкция по OpenStreetMap, 09.09.2026. Не запись GPS и не проверенный навигационный трек. Высоты не экспортированы. Данные © OpenStreetMap contributors, ODbL. Автопереезды и канатки в пеший трек не включены.</desc><link href="https://www.openstreetmap.org/copyright"><text>OpenStreetMap contributors · ODbL</text></link></metadata><wpt lat="46.5423625" lon="11.6170037"><name>Compatsch — верхняя станция</name></wpt><wpt lat="46.5268297" lon="11.6504229"><name>Malga Laranz</name></wpt><wpt lat="46.532685605" lon="11.668893295"><name>Saltria — район остановки</name></wpt><trk><name>Hans &amp; Paula Steger — Compatsch → Saltria</name><desc>Планировочная реконструкция по OpenStreetMap, 09.09.2026. Не запись GPS и не проверенный навигационный трек. Высоты не экспортированы. Данные © OpenStreetMap contributors, ODbL. Автопереезды и канатки в пеший трек не включены.</desc><type>hiking</type><trkseg><trkpt lat="46.5423625" lon="11.6170037"/><trkpt lat="46.5423664" lon="11.6171604"/><trkpt lat="46.5423692" lon="11.6172561"/><trkpt lat="46.5424163" lon="11.6173071"/><trkpt lat="46.5425882" lon="11.6173024"/><trkpt lat="46.5426391" lon="11.6173178"/><trkpt lat="46.5427133" lon="11.6173732"/><trkpt lat="46.5427599" lon="11.6174472"/><trkpt lat="46.5427832" lon="11.6175458"/><trkpt lat="46.5427968" lon="11.6176299"/><trkpt lat="46.5427448" lon="11.617639"/><trkpt lat="46.5425486" lon="11.6176756"/><trkpt lat="46.542487" lon="11.6176849"/><trkpt lat="46.542403" lon="11.6176919"/><trkpt lat="46.5423853" lon="11.6176927"/><trkpt lat="46.5422991" lon="11.6176964"/><trkpt lat="46.5422801" lon="11.6176975"/><trkpt lat="46.5421798" lon="11.6177015"/><trkpt lat="46.5420771" lon="11.6176829"/><trkpt lat="46.5420116" lon="11.6176536"/><trkpt lat="46.5417035" lon="11.6175154"/><trkpt lat="46.5415978" lon="11.6174952"/><trkpt lat="46.5415096" lon="11.6175094"/><trkpt lat="46.5414699" lon="11.6175211"/><trkpt lat="46.5412115" lon="11.6177167"/><trkpt lat="46.5409841" lon="11.6178889"/><trkpt lat="46.54083" lon="11.6179445"/><trkpt lat="46.5407106" lon="11.6179669"/><trkpt lat="46.5406218" lon="11.6179787"/><trkpt lat="46.540424" lon="11.6180076"/><trkpt lat="46.5401735" lon="11.618069"/><trkpt lat="46.5401944" lon="11.6183839"/><trkpt lat="46.5402083" lon="11.6187594"/><trkpt lat="46.5402139" lon="11.6189727"/><trkpt lat="46.5402137" lon="11.6192421"/><trkpt lat="46.5404717" lon="11.6192622"/><trkpt lat="46.5404955" lon="11.6192667"/><trkpt lat="46.5405177" lon="11.6192772"/><trkpt lat="46.540546" lon="11.6193308"/><trkpt lat="46.5405631" lon="11.6194115"/><trkpt lat="46.5405907" lon="11.6195805"/><trkpt lat="46.5406486" lon="11.6199976"/><trkpt lat="46.5407685" lon="11.6202166"/><trkpt lat="46.5408138" lon="11.6203321"/><trkpt lat="46.5408566" lon="11.62046"/><trkpt lat="46.5409276" lon="11.6207068"/><trkpt lat="46.5410111" lon="11.621015"/><trkpt lat="46.5410448" lon="11.6211584"/><trkpt lat="46.5410782" lon="11.6213147"/><trkpt lat="46.5411031" lon="11.6214967"/><trkpt lat="46.5411319" lon="11.6217267"/><trkpt lat="46.5411529" lon="11.6219681"/><trkpt lat="46.5411653" lon="11.6222089"/><trkpt lat="46.5411635" lon="11.6223539"/><trkpt lat="46.5411544" lon="11.6224827"/><trkpt lat="46.541146" lon="11.622583"/><trkpt lat="46.5411347" lon="11.6227115"/><trkpt lat="46.5411161" lon="11.622823"/><trkpt lat="46.5410994" lon="11.6229029"/><trkpt lat="46.5410803" lon="11.6229894"/><trkpt lat="46.5410676" lon="11.6230557"/><trkpt lat="46.5410616" lon="11.6231248"/><trkpt lat="46.5410514" lon="11.6232163"/><trkpt lat="46.5410451" lon="11.6233507"/><trkpt lat="46.5410325" lon="11.6234872"/><trkpt lat="46.5410185" lon="11.6235928"/><trkpt lat="46.54101" lon="11.6236294"/><trkpt lat="46.5409988" lon="11.6236641"/><trkpt lat="46.5409765" lon="11.6237025"/><trkpt lat="46.5409508" lon="11.623732"/><trkpt lat="46.5409186" lon="11.6237497"/><trkpt lat="46.5408367" lon="11.6237809"/><trkpt lat="46.5407766" lon="11.6238075"/><trkpt lat="46.5407197" lon="11.6238342"/><trkpt lat="46.5406725" lon="11.6238692"/><trkpt lat="46.5406401" lon="11.6239026"/><trkpt lat="46.5406173" lon="11.6239319"/><trkpt lat="46.5405957" lon="11.6239622"/><trkpt lat="46.5405774" lon="11.6239934"/><trkpt lat="46.5405644" lon="11.6240179"/><trkpt lat="46.5405542" lon="11.6240519"/><trkpt lat="46.5405494" lon="11.6240873"/><trkpt lat="46.5405432" lon="11.6241373"/><trkpt lat="46.5405464" lon="11.6242988"/><trkpt lat="46.5405589" lon="11.6244939"/><trkpt lat="46.5405658" lon="11.6246241"/><trkpt lat="46.540569" lon="11.6247354"/><trkpt lat="46.5405781" lon="11.6248978"/><trkpt lat="46.540599" lon="11.625003"/><trkpt lat="46.5406064" lon="11.6250848"/><trkpt lat="46.5406098" lon="11.6252157"/><trkpt lat="46.5406147" lon="11.6253269"/><trkpt lat="46.5406278" lon="11.6254408"/><trkpt lat="46.5406576" lon="11.6255528"/><trkpt lat="46.5406866" lon="11.6256569"/><trkpt lat="46.540755" lon="11.6258237"/><trkpt lat="46.5407874" lon="11.6259182"/><trkpt lat="46.5407978" lon="11.6260135"/><trkpt lat="46.5407976" lon="11.6261398"/><trkpt lat="46.5408061" lon="11.6263893"/><trkpt lat="46.5408059" lon="11.6265591"/><trkpt lat="46.5407954" lon="11.6268203"/><trkpt lat="46.5407937" lon="11.6269586"/><trkpt lat="46.5408001" lon="11.6269999"/><trkpt lat="46.5408107" lon="11.6270361"/><trkpt lat="46.540819" lon="11.6270609"/><trkpt lat="46.5408334" lon="11.6270915"/><trkpt lat="46.540861" lon="11.6271246"/><trkpt lat="46.5408905" lon="11.6271488"/><trkpt lat="46.5409376" lon="11.6271944"/><trkpt lat="46.5409666" lon="11.6272259"/><trkpt lat="46.5409912" lon="11.6272653"/><trkpt lat="46.5410132" lon="11.6273157"/><trkpt lat="46.5410299" lon="11.6273709"/><trkpt lat="46.5410901" lon="11.6275745"/><trkpt lat="46.5411133" lon="11.6276946"/><trkpt lat="46.5411292" lon="11.6278015"/><trkpt lat="46.5411419" lon="11.6279896"/><trkpt lat="46.54114" lon="11.6280993"/><trkpt lat="46.5411287" lon="11.6282304"/><trkpt lat="46.5411141" lon="11.6283247"/><trkpt lat="46.5411137" lon="11.6283678"/><trkpt lat="46.5411145" lon="11.6283911"/><trkpt lat="46.5411247" lon="11.628437"/><trkpt lat="46.5411488" lon="11.6285019"/><trkpt lat="46.5411861" lon="11.628555"/><trkpt lat="46.5412044" lon="11.6285928"/><trkpt lat="46.5412162" lon="11.6286309"/><trkpt lat="46.5412286" lon="11.6286973"/><trkpt lat="46.5412362" lon="11.6287736"/><trkpt lat="46.5412584" lon="11.6288776"/><trkpt lat="46.5412759" lon="11.628946"/><trkpt lat="46.5413043" lon="11.6290517"/><trkpt lat="46.5413216" lon="11.6291185"/><trkpt lat="46.5413471" lon="11.6292051"/><trkpt lat="46.5413582" lon="11.6292911"/><trkpt lat="46.5413673" lon="11.629371"/><trkpt lat="46.5413655" lon="11.62945"/><trkpt lat="46.5413638" lon="11.6295065"/><trkpt lat="46.5413483" lon="11.629646"/><trkpt lat="46.5413298" lon="11.6297566"/><trkpt lat="46.5412998" lon="11.62989"/><trkpt lat="46.5412722" lon="11.6300021"/><trkpt lat="46.5412317" lon="11.6301017"/><trkpt lat="46.5412128" lon="11.6301819"/><trkpt lat="46.5411858" lon="11.6302368"/><trkpt lat="46.5411775" lon="11.630271"/><trkpt lat="46.5411469" lon="11.6303661"/><trkpt lat="46.5411292" lon="11.6304513"/><trkpt lat="46.5410682" lon="11.6306401"/><trkpt lat="46.5410932" lon="11.6307044"/><trkpt lat="46.5411123" lon="11.6307607"/><trkpt lat="46.5410915" lon="11.6309999"/><trkpt lat="46.541104" lon="11.6311848"/><trkpt lat="46.5411684" lon="11.6315496"/><trkpt lat="46.541179" lon="11.6316612"/><trkpt lat="46.5411802" lon="11.6317396"/><trkpt lat="46.5411775" lon="11.6318552"/><trkpt lat="46.5411707" lon="11.6319903"/><trkpt lat="46.5411578" lon="11.6321479"/><trkpt lat="46.5411493" lon="11.6322305"/><trkpt lat="46.5411353" lon="11.6323041"/><trkpt lat="46.5411213" lon="11.6323566"/><trkpt lat="46.5410991" lon="11.6324388"/><trkpt lat="46.5410088" lon="11.6327802"/><trkpt lat="46.5409305" lon="11.6330516"/><trkpt lat="46.5409146" lon="11.6330831"/><trkpt lat="46.5408342" lon="11.6333803"/><trkpt lat="46.5407818" lon="11.6335697"/><trkpt lat="46.540748" lon="11.6337786"/><trkpt lat="46.540719" lon="11.6340196"/><trkpt lat="46.5406954" lon="11.6341634"/><trkpt lat="46.540689" lon="11.6343339"/><trkpt lat="46.5406779" lon="11.6344343"/><trkpt lat="46.5406532" lon="11.6345482"/><trkpt lat="46.5406262" lon="11.6346422"/><trkpt lat="46.5405813" lon="11.6347314"/><trkpt lat="46.5405461" lon="11.6348045"/><trkpt lat="46.5405166" lon="11.6348786"/><trkpt lat="46.5404911" lon="11.6349564"/><trkpt lat="46.5403334" lon="11.6355185"/><trkpt lat="46.5403144" lon="11.6356668"/><trkpt lat="46.5402803" lon="11.6357647"/><trkpt lat="46.5402379" lon="11.6358358"/><trkpt lat="46.540178" lon="11.6359769"/><trkpt lat="46.5400292" lon="11.6365403"/><trkpt lat="46.539935" lon="11.6369231"/><trkpt lat="46.5397878" lon="11.6372665"/><trkpt lat="46.539677" lon="11.6375392"/><trkpt lat="46.5392946" lon="11.6383105"/><trkpt lat="46.5391264" lon="11.6390205"/><trkpt lat="46.5390155" lon="11.6393404"/><trkpt lat="46.5388934" lon="11.6396453"/><trkpt lat="46.538708" lon="11.6398655"/><trkpt lat="46.5386195" lon="11.6400443"/><trkpt lat="46.5385008" lon="11.640193"/><trkpt lat="46.5383874" lon="11.6403612"/><trkpt lat="46.5379893" lon="11.6409471"/><trkpt lat="46.5378207" lon="11.6411379"/><trkpt lat="46.5377942" lon="11.6411747"/><trkpt lat="46.5377656" lon="11.6412263"/><trkpt lat="46.5377204" lon="11.6413678"/><trkpt lat="46.5373162" lon="11.6423834"/><trkpt lat="46.5372997" lon="11.6424166"/><trkpt lat="46.5371497" lon="11.6425933"/><trkpt lat="46.5371153" lon="11.6426482"/><trkpt lat="46.5370852" lon="11.642707"/><trkpt lat="46.536949" lon="11.643067"/><trkpt lat="46.5368709" lon="11.6431834"/><trkpt lat="46.5368335" lon="11.6432568"/><trkpt lat="46.5368268" lon="11.6433524"/><trkpt lat="46.5368286" lon="11.6435592"/><trkpt lat="46.5368219" lon="11.6438097"/><trkpt lat="46.5367844" lon="11.6441517"/><trkpt lat="46.5366984" lon="11.6447531"/><trkpt lat="46.5366937" lon="11.6447745"/><trkpt lat="46.5366853" lon="11.6447916"/><trkpt lat="46.5366789" lon="11.644943"/><trkpt lat="46.5363831" lon="11.6458671"/><trkpt lat="46.5363455" lon="11.6460551"/><trkpt lat="46.5363361" lon="11.6461432"/><trkpt lat="46.5363318" lon="11.6461994"/><trkpt lat="46.536337" lon="11.6462874"/><trkpt lat="46.5363304" lon="11.6463534"/><trkpt lat="46.5363136" lon="11.6464141"/><trkpt lat="46.5362866" lon="11.6464937"/><trkpt lat="46.5362462" lon="11.6465951"/><trkpt lat="46.5360679" lon="11.6471659"/><trkpt lat="46.5360644" lon="11.6472163"/><trkpt lat="46.5360893" lon="11.647282"/><trkpt lat="46.5360856" lon="11.6473263"/><trkpt lat="46.5360469" lon="11.6474001"/><trkpt lat="46.536015" lon="11.6474669"/><trkpt lat="46.5359777" lon="11.6476951"/><trkpt lat="46.5359616" lon="11.6481195"/><trkpt lat="46.5359786" lon="11.64841"/><trkpt lat="46.5360064" lon="11.6485114"/><trkpt lat="46.5360672" lon="11.6486782"/><trkpt lat="46.5361133" lon="11.6487774"/><trkpt lat="46.5361429" lon="11.6488297"/><trkpt lat="46.5361612" lon="11.6488767"/><trkpt lat="46.5362878" lon="11.6492565"/><trkpt lat="46.536351" lon="11.6496007"/><trkpt lat="46.5364174" lon="11.6497632"/><trkpt lat="46.5364832" lon="11.6498639"/><trkpt lat="46.5366568" lon="11.6500607"/><trkpt lat="46.5367969" lon="11.6501386"/><trkpt lat="46.5369225" lon="11.6501912"/><trkpt lat="46.5370275" lon="11.6502659"/><trkpt lat="46.5370884" lon="11.6503277"/><trkpt lat="46.5371447" lon="11.6503961"/><trkpt lat="46.5371844" lon="11.6504712"/><trkpt lat="46.5372646" lon="11.6506536"/><trkpt lat="46.5373071" lon="11.6507434"/><trkpt lat="46.5373108" lon="11.6507756"/><trkpt lat="46.5372886" lon="11.6509352"/><trkpt lat="46.5372969" lon="11.6510116"/><trkpt lat="46.5373041" lon="11.6511368"/><trkpt lat="46.5373624" lon="11.6512447"/><trkpt lat="46.5374556" lon="11.6513067"/><trkpt lat="46.5374842" lon="11.6513657"/><trkpt lat="46.5375613" lon="11.651641"/><trkpt lat="46.5376217" lon="11.651748"/><trkpt lat="46.5376851" lon="11.6518391"/><trkpt lat="46.5377349" lon="11.6519443"/><trkpt lat="46.5377667" lon="11.6520226"/><trkpt lat="46.5378036" lon="11.6520968"/><trkpt lat="46.53788" lon="11.6521879"/><trkpt lat="46.5379685" lon="11.6522844"/><trkpt lat="46.5380082" lon="11.6523555"/><trkpt lat="46.538034" lon="11.6524577"/><trkpt lat="46.538028" lon="11.6526418"/><trkpt lat="46.5379944" lon="11.6528021"/><trkpt lat="46.5379791" lon="11.6529559"/><trkpt lat="46.5379732" lon="11.6530623"/><trkpt lat="46.5379349" lon="11.6532037"/><trkpt lat="46.5378633" lon="11.6534528"/><trkpt lat="46.5378659" lon="11.6535854"/><trkpt lat="46.5377415" lon="11.6535101"/><trkpt lat="46.5376436" lon="11.6534111"/><trkpt lat="46.5375929" lon="11.6533298"/><trkpt lat="46.5375265" lon="11.6532005"/><trkpt lat="46.53748" lon="11.6530598"/><trkpt lat="46.5374432" lon="11.6529498"/><trkpt lat="46.537419" lon="11.6528536"/><trkpt lat="46.5373996" lon="11.6527814"/><trkpt lat="46.5373702" lon="11.6526842"/><trkpt lat="46.5373303" lon="11.6525791"/><trkpt lat="46.5372854" lon="11.6524986"/><trkpt lat="46.5372347" lon="11.6524311"/><trkpt lat="46.5371587" lon="11.6523445"/><trkpt lat="46.5370774" lon="11.6522729"/><trkpt lat="46.5370075" lon="11.6522145"/><trkpt lat="46.5369098" lon="11.6521366"/><trkpt lat="46.5368751" lon="11.6521184"/><trkpt lat="46.5368315" lon="11.6521074"/><trkpt lat="46.5367485" lon="11.6520984"/><trkpt lat="46.5366604" lon="11.6520944"/><trkpt lat="46.5365241" lon="11.6521011"/><trkpt lat="46.5364463" lon="11.6521134"/><trkpt lat="46.5363105" lon="11.6521448"/><trkpt lat="46.5361593" lon="11.6521784"/><trkpt lat="46.5361077" lon="11.6521759"/><trkpt lat="46.5360546" lon="11.6521684"/><trkpt lat="46.5359858" lon="11.6521544"/><trkpt lat="46.5359043" lon="11.652119"/><trkpt lat="46.5357061" lon="11.6520423"/><trkpt lat="46.5356458" lon="11.6520043"/><trkpt lat="46.5355913" lon="11.6519645"/><trkpt lat="46.5354751" lon="11.6518542"/><trkpt lat="46.5353997" lon="11.6517928"/><trkpt lat="46.5353152" lon="11.6517456"/><trkpt lat="46.5352082" lon="11.6516877"/><trkpt lat="46.5350942" lon="11.6515822"/><trkpt lat="46.5348492" lon="11.6512973"/><trkpt lat="46.5346657" lon="11.6510662"/><trkpt lat="46.5344682" lon="11.6507842"/><trkpt lat="46.5344078" lon="11.6506809"/><trkpt lat="46.5343295" lon="11.6505426"/><trkpt lat="46.5342539" lon="11.6504308"/><trkpt lat="46.5341361" lon="11.6503269"/><trkpt lat="46.5340645" lon="11.650276"/><trkpt lat="46.5338303" lon="11.6501846"/><trkpt lat="46.5337925" lon="11.6501624"/><trkpt lat="46.5337564" lon="11.6501296"/><trkpt lat="46.5337269" lon="11.6500889"/><trkpt lat="46.5337019" lon="11.6500374"/><trkpt lat="46.5336856" lon="11.6499761"/><trkpt lat="46.5336785" lon="11.64992"/><trkpt lat="46.5336829" lon="11.6498625"/><trkpt lat="46.533696" lon="11.6497722"/><trkpt lat="46.5337002" lon="11.6497011"/><trkpt lat="46.5336932" lon="11.6496096"/><trkpt lat="46.533675" lon="11.6495425"/><trkpt lat="46.5336331" lon="11.6494368"/><trkpt lat="46.5335454" lon="11.6492141"/><trkpt lat="46.5334876" lon="11.6490608"/><trkpt lat="46.5334423" lon="11.6489855"/><trkpt lat="46.5332625" lon="11.6487152"/><trkpt lat="46.5332136" lon="11.6486339"/><trkpt lat="46.5331646" lon="11.648518"/><trkpt lat="46.5331446" lon="11.6484451"/><trkpt lat="46.533109" lon="11.6482879"/><trkpt lat="46.5330416" lon="11.6480973"/><trkpt lat="46.5329353" lon="11.647833"/><trkpt lat="46.5328446" lon="11.6475043"/><trkpt lat="46.5328248" lon="11.6473919"/><trkpt lat="46.5328066" lon="11.6473451"/><trkpt lat="46.5327982" lon="11.647336"/><trkpt lat="46.5327745" lon="11.6473106"/><trkpt lat="46.5327269" lon="11.6473533"/><trkpt lat="46.5326714" lon="11.647534"/><trkpt lat="46.5326066" lon="11.6477042"/><trkpt lat="46.5325282" lon="11.6478194"/><trkpt lat="46.5323936" lon="11.6479997"/><trkpt lat="46.5323058" lon="11.6481136"/><trkpt lat="46.5321918" lon="11.648169"/><trkpt lat="46.5321228" lon="11.6481847"/><trkpt lat="46.5320836" lon="11.6482375"/><trkpt lat="46.5320417" lon="11.6483432"/><trkpt lat="46.5320095" lon="11.6484652"/><trkpt lat="46.531976" lon="11.6486646"/><trkpt lat="46.5319299" lon="11.6488296"/><trkpt lat="46.5318727" lon="11.6489851"/><trkpt lat="46.531833" lon="11.6490535"/><trkpt lat="46.5318016" lon="11.6490897"/><trkpt lat="46.5317638" lon="11.6491058"/><trkpt lat="46.5317287" lon="11.6491139"/><trkpt lat="46.5316762" lon="11.6490897"/><trkpt lat="46.5315827" lon="11.648988"/><trkpt lat="46.5314217" lon="11.6487824"/><trkpt lat="46.5313726" lon="11.6486826"/><trkpt lat="46.5311527" lon="11.6483656"/><trkpt lat="46.5310558" lon="11.6482334"/><trkpt lat="46.5310197" lon="11.6481129"/><trkpt lat="46.5310145" lon="11.6480614"/><trkpt lat="46.5310371" lon="11.647958"/><trkpt lat="46.5310588" lon="11.6479001"/><trkpt lat="46.5311169" lon="11.6477927"/><trkpt lat="46.5311651" lon="11.6477016"/><trkpt lat="46.5312069" lon="11.6476526"/><trkpt lat="46.5312637" lon="11.6475884"/><trkpt lat="46.5313356" lon="11.6474847"/><trkpt lat="46.5313835" lon="11.6474083"/><trkpt lat="46.5314035" lon="11.6473404"/><trkpt lat="46.5314094" lon="11.6472664"/><trkpt lat="46.5314071" lon="11.6472053"/><trkpt lat="46.5313996" lon="11.6471602"/><trkpt lat="46.531379" lon="11.647118"/><trkpt lat="46.5313386" lon="11.6470479"/><trkpt lat="46.5312977" lon="11.6470271"/><trkpt lat="46.5312582" lon="11.6470191"/><trkpt lat="46.5311492" lon="11.6470394"/><trkpt lat="46.5310755" lon="11.6470352"/><trkpt lat="46.5310245" lon="11.6469996"/><trkpt lat="46.5309609" lon="11.6469421"/><trkpt lat="46.5308437" lon="11.6468056"/><trkpt lat="46.5307664" lon="11.6467505"/><trkpt lat="46.5306818" lon="11.6467218"/><trkpt lat="46.5305736" lon="11.6467053"/><trkpt lat="46.5304978" lon="11.6466977"/><trkpt lat="46.5304471" lon="11.6466826"/><trkpt lat="46.5303967" lon="11.6466391"/><trkpt lat="46.5303614" lon="11.6466033"/><trkpt lat="46.530295" lon="11.6466141"/><trkpt lat="46.5302159" lon="11.6466761"/><trkpt lat="46.5301041" lon="11.6468463"/><trkpt lat="46.5300569" lon="11.6469276"/><trkpt lat="46.5300079" lon="11.6470724"/><trkpt lat="46.5299377" lon="11.6473412"/><trkpt lat="46.5298953" lon="11.6476385"/><trkpt lat="46.5298336" lon="11.6478218"/><trkpt lat="46.5297353" lon="11.6479362"/><trkpt lat="46.5295203" lon="11.6482665"/><trkpt lat="46.5292948" lon="11.6486806"/><trkpt lat="46.5291497" lon="11.6489524"/><trkpt lat="46.5289802" lon="11.6491099"/><trkpt lat="46.5288946" lon="11.6491811"/><trkpt lat="46.5288229" lon="11.6493513"/><trkpt lat="46.5287984" lon="11.649552"/><trkpt lat="46.5287774" lon="11.6496562"/><trkpt lat="46.5287442" lon="11.6497375"/><trkpt lat="46.5286533" lon="11.6498086"/><trkpt lat="46.5285223" lon="11.6498823"/><trkpt lat="46.5283422" lon="11.6500118"/><trkpt lat="46.5281587" lon="11.6501084"/><trkpt lat="46.5279385" lon="11.6501922"/><trkpt lat="46.5278668" lon="11.6502379"/><trkpt lat="46.5277881" lon="11.650305"/><trkpt lat="46.5275794" lon="11.6505249"/><trkpt lat="46.5274438" lon="11.6505784"/><trkpt lat="46.526902" lon="11.6507664"/><trkpt lat="46.5268066" lon="11.6507891"/><trkpt lat="46.5267459" lon="11.6507613"/><trkpt lat="46.5266728" lon="11.6506859"/><trkpt lat="46.5266177" lon="11.6505305"/><trkpt lat="46.5266073" lon="11.6504538"/><trkpt lat="46.5266298" lon="11.650382"/><trkpt lat="46.5266631" lon="11.6503636"/><trkpt lat="46.5267109" lon="11.6503476"/><trkpt lat="46.5266631" lon="11.6503636"/><trkpt lat="46.5266298" lon="11.650382"/><trkpt lat="46.5266073" lon="11.6504538"/><trkpt lat="46.5266177" lon="11.6505305"/><trkpt lat="46.5266728" lon="11.6506859"/><trkpt lat="46.5267459" lon="11.6507613"/><trkpt lat="46.5267002" lon="11.6507754"/><trkpt lat="46.5265095" lon="11.6508343"/><trkpt lat="46.5264571" lon="11.6508842"/><trkpt lat="46.5263461" lon="11.6509264"/><trkpt lat="46.5262871" lon="11.6510147"/><trkpt lat="46.5261997" lon="11.65113"/><trkpt lat="46.5261598" lon="11.6511772"/><trkpt lat="46.5261265" lon="11.6512011"/><trkpt lat="46.5260686" lon="11.6512367"/><trkpt lat="46.5259909" lon="11.6514288"/><trkpt lat="46.5259557" lon="11.6514861"/><trkpt lat="46.5259206" lon="11.6515287"/><trkpt lat="46.5258965" lon="11.6515639"/><trkpt lat="46.5258746" lon="11.6515833"/><trkpt lat="46.5258503" lon="11.6515957"/><trkpt lat="46.5258178" lon="11.6515984"/><trkpt lat="46.5257943" lon="11.6515839"/><trkpt lat="46.5257719" lon="11.6515619"/><trkpt lat="46.5257376" lon="11.6515191"/><trkpt lat="46.5257134" lon="11.6514789"/><trkpt lat="46.5256484" lon="11.6513482"/><trkpt lat="46.5256263" lon="11.6513022"/><trkpt lat="46.5255985" lon="11.651248"/><trkpt lat="46.5255821" lon="11.6512121"/><trkpt lat="46.5255635" lon="11.6511791"/><trkpt lat="46.5255571" lon="11.6511735"/><trkpt lat="46.5255486" lon="11.6511714"/><trkpt lat="46.5255427" lon="11.651172"/><trkpt lat="46.5255365" lon="11.6511758"/><trkpt lat="46.5255124" lon="11.6512058"/><trkpt lat="46.5254996" lon="11.6512273"/><trkpt lat="46.5254663" lon="11.6512946"/><trkpt lat="46.5254454" lon="11.6513361"/><trkpt lat="46.5254333" lon="11.6513579"/><trkpt lat="46.5254168" lon="11.6513828"/><trkpt lat="46.5253874" lon="11.6514098"/><trkpt lat="46.5253503" lon="11.6514422"/><trkpt lat="46.5253065" lon="11.6514789"/><trkpt lat="46.5252778" lon="11.6515062"/><trkpt lat="46.5252679" lon="11.6515192"/><trkpt lat="46.5252597" lon="11.6515347"/><trkpt lat="46.5252549" lon="11.651557"/><trkpt lat="46.5252469" lon="11.6516096"/><trkpt lat="46.5252441" lon="11.6516302"/><trkpt lat="46.5252407" lon="11.6516464"/><trkpt lat="46.5252342" lon="11.6516626"/><trkpt lat="46.525225" lon="11.6516729"/><trkpt lat="46.5252153" lon="11.6516759"/><trkpt lat="46.5252095" lon="11.651677"/><trkpt lat="46.5251944" lon="11.6516765"/><trkpt lat="46.5251779" lon="11.6516723"/><trkpt lat="46.5251521" lon="11.651656"/><trkpt lat="46.5251156" lon="11.6516261"/><trkpt lat="46.5250777" lon="11.6515989"/><trkpt lat="46.5250255" lon="11.6515627"/><trkpt lat="46.5249725" lon="11.6515325"/><trkpt lat="46.5249382" lon="11.6515076"/><trkpt lat="46.5249203" lon="11.651495"/><trkpt lat="46.5249052" lon="11.6514879"/><trkpt lat="46.5248818" lon="11.6514773"/><trkpt lat="46.5248579" lon="11.6514725"/><trkpt lat="46.5248242" lon="11.6514622"/><trkpt lat="46.524778" lon="11.6514531"/><trkpt lat="46.5247206" lon="11.6514555"/><trkpt lat="46.5246625" lon="11.6514901"/><trkpt lat="46.5245953" lon="11.6515319"/><trkpt lat="46.5245677" lon="11.6515504"/><trkpt lat="46.5245475" lon="11.6515704"/><trkpt lat="46.5245341" lon="11.651591"/><trkpt lat="46.5245067" lon="11.6516444"/><trkpt lat="46.5244742" lon="11.651744"/><trkpt lat="46.524453" lon="11.651789"/><trkpt lat="46.5244419" lon="11.6518115"/><trkpt lat="46.5244205" lon="11.6518368"/><trkpt lat="46.5243836" lon="11.6518594"/><trkpt lat="46.5242979" lon="11.6518997"/><trkpt lat="46.5242539" lon="11.6519122"/><trkpt lat="46.5241911" lon="11.6519151"/><trkpt lat="46.5241582" lon="11.6519116"/><trkpt lat="46.5241402" lon="11.6519071"/><trkpt lat="46.5240868" lon="11.6518886"/><trkpt lat="46.5240528" lon="11.6518698"/><trkpt lat="46.5240196" lon="11.6518613"/><trkpt lat="46.523996" lon="11.651858"/><trkpt lat="46.5239749" lon="11.6518503"/><trkpt lat="46.5239469" lon="11.6518468"/><trkpt lat="46.5239266" lon="11.6518492"/><trkpt lat="46.523908" lon="11.6518456"/><trkpt lat="46.5238918" lon="11.6518391"/><trkpt lat="46.5238769" lon="11.6518287"/><trkpt lat="46.5238451" lon="11.6517938"/><trkpt lat="46.5238134" lon="11.6517654"/><trkpt lat="46.5237847" lon="11.6517342"/><trkpt lat="46.5237564" lon="11.651708"/><trkpt lat="46.5237296" lon="11.6516794"/><trkpt lat="46.5237174" lon="11.651657"/><trkpt lat="46.523701" lon="11.6516376"/><trkpt lat="46.5236769" lon="11.6516217"/><trkpt lat="46.5236526" lon="11.6516099"/><trkpt lat="46.5236217" lon="11.6515951"/><trkpt lat="46.5235779" lon="11.6515641"/><trkpt lat="46.5235183" lon="11.6515392"/><trkpt lat="46.5234592" lon="11.6515228"/><trkpt lat="46.5234032" lon="11.6514891"/><trkpt lat="46.5233715" lon="11.6514731"/><trkpt lat="46.5233463" lon="11.6514625"/><trkpt lat="46.5232965" lon="11.6514295"/><trkpt lat="46.5232483" lon="11.6513785"/><trkpt lat="46.5232235" lon="11.6513529"/><trkpt lat="46.5232022" lon="11.6513306"/><trkpt lat="46.5231789" lon="11.6513058"/><trkpt lat="46.5231554" lon="11.6512789"/><trkpt lat="46.5231176" lon="11.651205"/><trkpt lat="46.523071" lon="11.6511365"/><trkpt lat="46.523052" lon="11.6511013"/><trkpt lat="46.5230292" lon="11.6510538"/><trkpt lat="46.52302" lon="11.6510267"/><trkpt lat="46.523016" lon="11.651006"/><trkpt lat="46.5230078" lon="11.6509881"/><trkpt lat="46.5230001" lon="11.6509753"/><trkpt lat="46.5229835" lon="11.6509634"/><trkpt lat="46.5229653" lon="11.650953"/><trkpt lat="46.5229381" lon="11.6509273"/><trkpt lat="46.5228878" lon="11.6509183"/><trkpt lat="46.5228687" lon="11.6509192"/><trkpt lat="46.5228534" lon="11.6509242"/><trkpt lat="46.5228338" lon="11.6509298"/><trkpt lat="46.522812" lon="11.6509358"/><trkpt lat="46.522783" lon="11.6509398"/><trkpt lat="46.5227572" lon="11.6509368"/><trkpt lat="46.5227211" lon="11.6509298"/><trkpt lat="46.5226949" lon="11.6509221"/><trkpt lat="46.5226585" lon="11.6509059"/><trkpt lat="46.522625" lon="11.650886"/><trkpt lat="46.522584" lon="11.6508502"/><trkpt lat="46.5225432" lon="11.6508253"/><trkpt lat="46.5225062" lon="11.6508054"/><trkpt lat="46.5224742" lon="11.6507874"/><trkpt lat="46.52242" lon="11.650759"/><trkpt lat="46.522392" lon="11.6507462"/><trkpt lat="46.5223744" lon="11.65074"/><trkpt lat="46.5223278" lon="11.6507254"/><trkpt lat="46.5222973" lon="11.6507153"/><trkpt lat="46.5222666" lon="11.650704"/><trkpt lat="46.5222193" lon="11.6506778"/><trkpt lat="46.5221806" lon="11.6506512"/><trkpt lat="46.5221599" lon="11.650631"/><trkpt lat="46.5221384" lon="11.6506105"/><trkpt lat="46.5221197" lon="11.6505891"/><trkpt lat="46.5221082" lon="11.6505752"/><trkpt lat="46.5220926" lon="11.6505467"/><trkpt lat="46.5220784" lon="11.650523"/><trkpt lat="46.5220613" lon="11.6504872"/><trkpt lat="46.5220431" lon="11.6504546"/><trkpt lat="46.5220133" lon="11.6503985"/><trkpt lat="46.5219758" lon="11.6503538"/><trkpt lat="46.5219334" lon="11.6503217"/><trkpt lat="46.5218978" lon="11.650307"/><trkpt lat="46.5218461" lon="11.6502915"/><trkpt lat="46.5217898" lon="11.6502835"/><trkpt lat="46.5217224" lon="11.6502762"/><trkpt lat="46.5216749" lon="11.6502598"/><trkpt lat="46.5216244" lon="11.6502363"/><trkpt lat="46.5215587" lon="11.6501964"/><trkpt lat="46.5214982" lon="11.6501528"/><trkpt lat="46.5214191" lon="11.6500749"/><trkpt lat="46.5213575" lon="11.6499778"/><trkpt lat="46.52128" lon="11.6498973"/><trkpt lat="46.5211933" lon="11.6498695"/><trkpt lat="46.5211706" lon="11.6498517"/><trkpt lat="46.5211466" lon="11.6498732"/><trkpt lat="46.5211117" lon="11.6498549"/><trkpt lat="46.5211047" lon="11.6498566"/><trkpt lat="46.5210929" lon="11.6498553"/><trkpt lat="46.52106" lon="11.6498438"/><trkpt lat="46.5210092" lon="11.6497942"/><trkpt lat="46.5209449" lon="11.6497398"/><trkpt lat="46.520891" lon="11.6496903"/><trkpt lat="46.5208521" lon="11.6496587"/><trkpt lat="46.5208302" lon="11.6496434"/><trkpt lat="46.5207989" lon="11.649635"/><trkpt lat="46.5207555" lon="11.6496504"/><trkpt lat="46.5207013" lon="11.6496658"/><trkpt lat="46.5206304" lon="11.6496458"/><trkpt lat="46.5205933" lon="11.6496507"/><trkpt lat="46.520523" lon="11.6495768"/><trkpt lat="46.5204806" lon="11.6495654"/><trkpt lat="46.520432" lon="11.649545"/><trkpt lat="46.5204081" lon="11.6495263"/><trkpt lat="46.5203923" lon="11.6495093"/><trkpt lat="46.5203594" lon="11.6494807"/><trkpt lat="46.5203472" lon="11.64948"/><trkpt lat="46.5203352" lon="11.6494881"/><trkpt lat="46.5203015" lon="11.6495642"/><trkpt lat="46.5202858" lon="11.6495894"/><trkpt lat="46.5202694" lon="11.6496068"/><trkpt lat="46.5202456" lon="11.6496139"/><trkpt lat="46.5202401" lon="11.6496155"/><trkpt lat="46.5201819" lon="11.6496062"/><trkpt lat="46.5200767" lon="11.6496142"/><trkpt lat="46.5199863" lon="11.649629"/><trkpt lat="46.5198626" lon="11.6496663"/><trkpt lat="46.519771" lon="11.6497348"/><trkpt lat="46.5196757" lon="11.6498117"/><trkpt lat="46.5195773" lon="11.6498769"/><trkpt lat="46.519507" lon="11.649899"/><trkpt lat="46.5194909" lon="11.6499688"/><trkpt lat="46.5194972" lon="11.6500728"/><trkpt lat="46.519505" lon="11.6502097"/><trkpt lat="46.519505" lon="11.6502875"/><trkpt lat="46.5195073" lon="11.6503687"/><trkpt lat="46.5195004" lon="11.6504277"/><trkpt lat="46.5195013" lon="11.6504806"/><trkpt lat="46.5195313" lon="11.6505537"/><trkpt lat="46.5195731" lon="11.6506269"/><trkpt lat="46.5196315" lon="11.6507442"/><trkpt lat="46.5196721" lon="11.6508447"/><trkpt lat="46.5197002" lon="11.6509058"/><trkpt lat="46.5197178" lon="11.6509413"/><trkpt lat="46.519736" lon="11.6509588"/><trkpt lat="46.5198765" lon="11.6510928"/><trkpt lat="46.5199575" lon="11.6511908"/><trkpt lat="46.519996" lon="11.6513"/><trkpt lat="46.5200204" lon="11.6513731"/><trkpt lat="46.5200269" lon="11.6514174"/><trkpt lat="46.520012" lon="11.6514804"/><trkpt lat="46.5200248" lon="11.6515065"/><trkpt lat="46.5200479" lon="11.65153"/><trkpt lat="46.5200821" lon="11.651543"/><trkpt lat="46.5201079" lon="11.6515463"/><trkpt lat="46.5201307" lon="11.6515731"/><trkpt lat="46.5201479" lon="11.6515947"/><trkpt lat="46.5201607" lon="11.6516382"/><trkpt lat="46.5201512" lon="11.651673"/><trkpt lat="46.5201375" lon="11.6516969"/><trkpt lat="46.5201217" lon="11.6517128"/><trkpt lat="46.5200983" lon="11.6517253"/><trkpt lat="46.5200739" lon="11.6517482"/><trkpt lat="46.5200615" lon="11.6517711"/><trkpt lat="46.5200587" lon="11.6517988"/><trkpt lat="46.520064" lon="11.6518425"/><trkpt lat="46.520062" lon="11.6518935"/><trkpt lat="46.5200521" lon="11.6519254"/><trkpt lat="46.5200217" lon="11.6519791"/><trkpt lat="46.5199976" lon="11.6520397"/><trkpt lat="46.5199781" lon="11.6521269"/><trkpt lat="46.5199815" lon="11.652225"/><trkpt lat="46.5199801" lon="11.6522866"/><trkpt lat="46.5199666" lon="11.6523515"/><trkpt lat="46.519969" lon="11.6524057"/><trkpt lat="46.5199944" lon="11.6524617"/><trkpt lat="46.5200236" lon="11.6525337"/><trkpt lat="46.5200676" lon="11.6525947"/><trkpt lat="46.5200848" lon="11.6526319"/><trkpt lat="46.520092" lon="11.6526704"/><trkpt lat="46.5200832" lon="11.6527099"/><trkpt lat="46.5200746" lon="11.6527438"/><trkpt lat="46.5200814" lon="11.6527687"/><trkpt lat="46.52008" lon="11.6528139"/><trkpt lat="46.5200685" lon="11.6528703"/><trkpt lat="46.5200721" lon="11.6529674"/><trkpt lat="46.5200947" lon="11.6530373"/><trkpt lat="46.5201099" lon="11.6531204"/><trkpt lat="46.5201475" lon="11.653174"/><trkpt lat="46.5202162" lon="11.6532339"/><trkpt lat="46.5202569" lon="11.653273"/><trkpt lat="46.5202597" lon="11.6532971"/><trkpt lat="46.5202556" lon="11.6533233"/><trkpt lat="46.520259" lon="11.6533578"/><trkpt lat="46.5202773" lon="11.6533919"/><trkpt lat="46.5202852" lon="11.6534313"/><trkpt lat="46.5202807" lon="11.6534692"/><trkpt lat="46.5202673" lon="11.6535233"/><trkpt lat="46.5202686" lon="11.653594"/><trkpt lat="46.5202622" lon="11.6536778"/><trkpt lat="46.5202682" lon="11.6537334"/><trkpt lat="46.5202636" lon="11.653803"/><trkpt lat="46.5202496" lon="11.6538753"/><trkpt lat="46.5202233" lon="11.6539562"/><trkpt lat="46.5202138" lon="11.6540165"/><trkpt lat="46.5202281" lon="11.6540805"/><trkpt lat="46.5202644" lon="11.6541419"/><trkpt lat="46.5202984" lon="11.6541992"/><trkpt lat="46.5204112" lon="11.6543343"/><trkpt lat="46.5204468" lon="11.6544514"/><trkpt lat="46.5204613" lon="11.6546091"/><trkpt lat="46.5205051" lon="11.6547519"/><trkpt lat="46.5205831" lon="11.6549394"/><trkpt lat="46.5206705" lon="11.6551627"/><trkpt lat="46.5207158" lon="11.6553691"/><trkpt lat="46.5207363" lon="11.6555373"/><trkpt lat="46.5207356" lon="11.6557702"/><trkpt lat="46.5207042" lon="11.6559761"/><trkpt lat="46.5206542" lon="11.6561303"/><trkpt lat="46.5206652" lon="11.6562329"/><trkpt lat="46.5207143" lon="11.6563877"/><trkpt lat="46.5207368" lon="11.6564624"/><trkpt lat="46.5207715" lon="11.6565534"/><trkpt lat="46.5207926" lon="11.6566087"/><trkpt lat="46.5208266" lon="11.6567233"/><trkpt lat="46.5208633" lon="11.65683"/><trkpt lat="46.5209245" lon="11.6569071"/><trkpt lat="46.5209939" lon="11.656919"/><trkpt lat="46.5210729" lon="11.6568307"/><trkpt lat="46.5211491" lon="11.6567192"/><trkpt lat="46.5212218" lon="11.656637"/><trkpt lat="46.5212394" lon="11.6565008"/><trkpt lat="46.5212459" lon="11.6563356"/><trkpt lat="46.5212739" lon="11.6562006"/><trkpt lat="46.5212738" lon="11.6559825"/><trkpt lat="46.5213065" lon="11.6556795"/><trkpt lat="46.5213275" lon="11.6556478"/><trkpt lat="46.5213471" lon="11.6556277"/><trkpt lat="46.52138" lon="11.6556304"/><trkpt lat="46.5214069" lon="11.6556462"/><trkpt lat="46.5214881" lon="11.65587"/><trkpt lat="46.5215672" lon="11.6560673"/><trkpt lat="46.5216378" lon="11.6563202"/><trkpt lat="46.5217354" lon="11.6566305"/><trkpt lat="46.5218047" lon="11.656684"/><trkpt lat="46.5218695" lon="11.6566884"/><trkpt lat="46.5219351" lon="11.6566921"/><trkpt lat="46.521991" lon="11.6567152"/><trkpt lat="46.5220353" lon="11.6567945"/><trkpt lat="46.5220456" lon="11.6569278"/><trkpt lat="46.5220092" lon="11.6570951"/><trkpt lat="46.5220059" lon="11.6571883"/><trkpt lat="46.52202" lon="11.6572591"/><trkpt lat="46.5220623" lon="11.6573063"/><trkpt lat="46.5222138" lon="11.6573974"/><trkpt lat="46.5222996" lon="11.6574567"/><trkpt lat="46.5223643" lon="11.6574402"/><trkpt lat="46.522453" lon="11.6575016"/><trkpt lat="46.5225312" lon="11.6574003"/><trkpt lat="46.5226325" lon="11.6573082"/><trkpt lat="46.5228205" lon="11.6574126"/><trkpt lat="46.5229915" lon="11.6577226"/><trkpt lat="46.5230829" lon="11.6578084"/><trkpt lat="46.5231478" lon="11.6577809"/><trkpt lat="46.523171" lon="11.6576213"/><trkpt lat="46.5232428" lon="11.6576243"/><trkpt lat="46.5232787" lon="11.6577471"/><trkpt lat="46.5233463" lon="11.6577962"/><trkpt lat="46.52341" lon="11.6580683"/><trkpt lat="46.5234772" lon="11.6583026"/><trkpt lat="46.5236364" lon="11.6585368"/><trkpt lat="46.5236953" lon="11.6587625"/><trkpt lat="46.52381" lon="11.6588673"/><trkpt lat="46.523783" lon="11.6593651"/><trkpt lat="46.5237455" lon="11.6595205"/><trkpt lat="46.5238015" lon="11.6599869"/><trkpt lat="46.523843" lon="11.660291"/><trkpt lat="46.5238586" lon="11.6607531"/><trkpt lat="46.5240446" lon="11.6610451"/><trkpt lat="46.5242291" lon="11.6615188"/><trkpt lat="46.5244419" lon="11.6621125"/><trkpt lat="46.5245755" lon="11.6623735"/><trkpt lat="46.5248053" lon="11.6628531"/><trkpt lat="46.5249798" lon="11.6626075"/><trkpt lat="46.5250889" lon="11.6627813"/><trkpt lat="46.5252987" lon="11.6631159"/><trkpt lat="46.5254181" lon="11.6635169"/><trkpt lat="46.5254433" lon="11.6635841"/><trkpt lat="46.525479" lon="11.6636597"/><trkpt lat="46.5257631" lon="11.6640676"/><trkpt lat="46.5257941" lon="11.6641242"/><trkpt lat="46.5258221" lon="11.6641943"/><trkpt lat="46.52587" lon="11.6643481"/><trkpt lat="46.5259061" lon="11.664459"/><trkpt lat="46.5259618" lon="11.6645325"/><trkpt lat="46.5260529" lon="11.6646251"/><trkpt lat="46.5261515" lon="11.6647914"/><trkpt lat="46.5262184" lon="11.6648573"/><trkpt lat="46.5263846" lon="11.6649728"/><trkpt lat="46.5264548" lon="11.6650498"/><trkpt lat="46.5265094" lon="11.665124"/><trkpt lat="46.5266439" lon="11.6652672"/><trkpt lat="46.5266932" lon="11.6653345"/><trkpt lat="46.5267236" lon="11.6654167"/><trkpt lat="46.5267797" lon="11.6656292"/><trkpt lat="46.5268134" lon="11.6657255"/><trkpt lat="46.5268608" lon="11.6658091"/><trkpt lat="46.5269344" lon="11.665873"/><trkpt lat="46.527033" lon="11.6659699"/><trkpt lat="46.5271222" lon="11.6660902"/><trkpt lat="46.5271999" lon="11.6662827"/><trkpt lat="46.5272832" lon="11.6664857"/><trkpt lat="46.5273428" lon="11.666624"/><trkpt lat="46.5275324" lon="11.6669565"/><trkpt lat="46.5275599" lon="11.6669982"/><trkpt lat="46.5275844" lon="11.6670656"/><trkpt lat="46.527697" lon="11.6671091"/><trkpt lat="46.5277267" lon="11.6671267"/><trkpt lat="46.5279278" lon="11.6672806"/><trkpt lat="46.5280418" lon="11.6673563"/><trkpt lat="46.5282374" lon="11.6674411"/><trkpt lat="46.5285863" lon="11.6675576"/><trkpt lat="46.5287551" lon="11.6676548"/><trkpt lat="46.5289649" lon="11.6677731"/><trkpt lat="46.5291274" lon="11.6678886"/><trkpt lat="46.5291942" lon="11.6679361"/><trkpt lat="46.5292295" lon="11.6679612"/><trkpt lat="46.5294639" lon="11.6680414"/><trkpt lat="46.5295868" lon="11.6680775"/><trkpt lat="46.5296686" lon="11.6680935"/><trkpt lat="46.5297552" lon="11.6681026"/><trkpt lat="46.5298224" lon="11.6680877"/><trkpt lat="46.5298983" lon="11.6680537"/><trkpt lat="46.5299811" lon="11.6679944"/><trkpt lat="46.5300449" lon="11.667972"/><trkpt lat="46.5300971" lon="11.6679684"/><trkpt lat="46.5309016" lon="11.6681572"/><trkpt lat="46.5310184" lon="11.6681785"/><trkpt lat="46.5311236" lon="11.6682281"/><trkpt lat="46.5312248" lon="11.6682878"/><trkpt lat="46.5314257" lon="11.6684139"/><trkpt lat="46.5315546" lon="11.6684933"/><trkpt lat="46.5316461" lon="11.6685135"/><trkpt lat="46.5317363" lon="11.6685292"/><trkpt lat="46.5318717" lon="11.6685463"/><trkpt lat="46.5321289" lon="11.668582"/><trkpt lat="46.5322281" lon="11.6686165"/><trkpt lat="46.5323519" lon="11.6686719"/><trkpt lat="46.5323185" lon="11.6689743"/><trkpt lat="46.5325623" lon="11.6693405"/></trkseg></trk></gpx>