<?xml version="1.0" encoding="UTF-8"?><kml xmlns="http://www.opengis.net/kml/2.2"><Document><name>Alpe di Siusi · Steger Trail</name><description>Планировочная реконструкция по OpenStreetMap, 09.09.2026. Не запись GPS и не проверенный навигационный трек. Высоты не экспортированы. Данные © OpenStreetMap contributors, ODbL. Автопереезды и канатки в пеший трек не включены.</description><Style id="track"><LineStyle><color>ff227d63</color><width>4</width></LineStyle></Style><Placemark><name>Compatsch — верхняя станция</name><Point><coordinates>11.6170037,46.5423625</coordinates></Point></Placemark><Placemark><name>Malga Laranz</name><Point><coordinates>11.6504229,46.5268297</coordinates></Point></Placemark><Placemark><name>Saltria — район остановки</name><Point><coordinates>11.668893295,46.532685605</coordinates></Point></Placemark><Placemark><name>Hans &amp; Paula Steger — Compatsch → Saltria</name><description>Планировочная реконструкция по OpenStreetMap, 09.09.2026. Не запись GPS и не проверенный навигационный трек. Высоты не экспортированы. Данные © OpenStreetMap contributors, ODbL. Автопереезды и канатки в пеший трек не включены.</description><styleUrl>#track</styleUrl><LineString><tessellate>1</tessellate><altitudeMode>clampToGround</altitudeMode><coordinates>11.6170037,46.5423625,0 11.6171604,46.5423664,0 11.6172561,46.5423692,0 11.6173071,46.5424163,0 11.6173024,46.5425882,0 11.6173178,46.5426391,0 11.6173732,46.5427133,0 11.6174472,46.5427599,0 11.6175458,46.5427832,0 11.6176299,46.5427968,0 11.617639,46.5427448,0 11.6176756,46.5425486,0 11.6176849,46.542487,0 11.6176919,46.542403,0 11.6176927,46.5423853,0 11.6176964,46.5422991,0 11.6176975,46.5422801,0 11.6177015,46.5421798,0 11.6176829,46.5420771,0 11.6176536,46.5420116,0 11.6175154,46.5417035,0 11.6174952,46.5415978,0 11.6175094,46.5415096,0 11.6175211,46.5414699,0 11.6177167,46.5412115,0 11.6178889,46.5409841,0 11.6179445,46.54083,0 11.6179669,46.5407106,0 11.6179787,46.5406218,0 11.6180076,46.540424,0 11.618069,46.5401735,0 11.6183839,46.5401944,0 11.6187594,46.5402083,0 11.6189727,46.5402139,0 11.6192421,46.5402137,0 11.6192622,46.5404717,0 11.6192667,46.5404955,0 11.6192772,46.5405177,0 11.6193308,46.540546,0 11.6194115,46.5405631,0 11.6195805,46.5405907,0 11.6199976,46.5406486,0 11.6202166,46.5407685,0 11.6203321,46.5408138,0 11.62046,46.5408566,0 11.6207068,46.5409276,0 11.621015,46.5410111,0 11.6211584,46.5410448,0 11.6213147,46.5410782,0 11.6214967,46.5411031,0 11.6217267,46.5411319,0 11.6219681,46.5411529,0 11.6222089,46.5411653,0 11.6223539,46.5411635,0 11.6224827,46.5411544,0 11.622583,46.541146,0 11.6227115,46.5411347,0 11.622823,46.5411161,0 11.6229029,46.5410994,0 11.6229894,46.5410803,0 11.6230557,46.5410676,0 11.6231248,46.5410616,0 11.6232163,46.5410514,0 11.6233507,46.5410451,0 11.6234872,46.5410325,0 11.6235928,46.5410185,0 11.6236294,46.54101,0 11.6236641,46.5409988,0 11.6237025,46.5409765,0 11.623732,46.5409508,0 11.6237497,46.5409186,0 11.6237809,46.5408367,0 11.6238075,46.5407766,0 11.6238342,46.5407197,0 11.6238692,46.5406725,0 11.6239026,46.5406401,0 11.6239319,46.5406173,0 11.6239622,46.5405957,0 11.6239934,46.5405774,0 11.6240179,46.5405644,0 11.6240519,46.5405542,0 11.6240873,46.5405494,0 11.6241373,46.5405432,0 11.6242988,46.5405464,0 11.6244939,46.5405589,0 11.6246241,46.5405658,0 11.6247354,46.540569,0 11.6248978,46.5405781,0 11.625003,46.540599,0 11.6250848,46.5406064,0 11.6252157,46.5406098,0 11.6253269,46.5406147,0 11.6254408,46.5406278,0 11.6255528,46.5406576,0 11.6256569,46.5406866,0 11.6258237,46.540755,0 11.6259182,46.5407874,0 11.6260135,46.5407978,0 11.6261398,46.5407976,0 11.6263893,46.5408061,0 11.6265591,46.5408059,0 11.6268203,46.5407954,0 11.6269586,46.5407937,0 11.6269999,46.5408001,0 11.6270361,46.5408107,0 11.6270609,46.540819,0 11.6270915,46.5408334,0 11.6271246,46.540861,0 11.6271488,46.5408905,0 11.6271944,46.5409376,0 11.6272259,46.5409666,0 11.6272653,46.5409912,0 11.6273157,46.5410132,0 11.6273709,46.5410299,0 11.6275745,46.5410901,0 11.6276946,46.5411133,0 11.6278015,46.5411292,0 11.6279896,46.5411419,0 11.6280993,46.54114,0 11.6282304,46.5411287,0 11.6283247,46.5411141,0 11.6283678,46.5411137,0 11.6283911,46.5411145,0 11.628437,46.5411247,0 11.6285019,46.5411488,0 11.628555,46.5411861,0 11.6285928,46.5412044,0 11.6286309,46.5412162,0 11.6286973,46.5412286,0 11.6287736,46.5412362,0 11.6288776,46.5412584,0 11.628946,46.5412759,0 11.6290517,46.5413043,0 11.6291185,46.5413216,0 11.6292051,46.5413471,0 11.6292911,46.5413582,0 11.629371,46.5413673,0 11.62945,46.5413655,0 11.6295065,46.5413638,0 11.629646,46.5413483,0 11.6297566,46.5413298,0 11.62989,46.5412998,0 11.6300021,46.5412722,0 11.6301017,46.5412317,0 11.6301819,46.5412128,0 11.6302368,46.5411858,0 11.630271,46.5411775,0 11.6303661,46.5411469,0 11.6304513,46.5411292,0 11.6306401,46.5410682,0 11.6307044,46.5410932,0 11.6307607,46.5411123,0 11.6309999,46.5410915,0 11.6311848,46.541104,0 11.6315496,46.5411684,0 11.6316612,46.541179,0 11.6317396,46.5411802,0 11.6318552,46.5411775,0 11.6319903,46.5411707,0 11.6321479,46.5411578,0 11.6322305,46.5411493,0 11.6323041,46.5411353,0 11.6323566,46.5411213,0 11.6324388,46.5410991,0 11.6327802,46.5410088,0 11.6330516,46.5409305,0 11.6330831,46.5409146,0 11.6333803,46.5408342,0 11.6335697,46.5407818,0 11.6337786,46.540748,0 11.6340196,46.540719,0 11.6341634,46.5406954,0 11.6343339,46.540689,0 11.6344343,46.5406779,0 11.6345482,46.5406532,0 11.6346422,46.5406262,0 11.6347314,46.5405813,0 11.6348045,46.5405461,0 11.6348786,46.5405166,0 11.6349564,46.5404911,0 11.6355185,46.5403334,0 11.6356668,46.5403144,0 11.6357647,46.5402803,0 11.6358358,46.5402379,0 11.6359769,46.540178,0 11.6365403,46.5400292,0 11.6369231,46.539935,0 11.6372665,46.5397878,0 11.6375392,46.539677,0 11.6383105,46.5392946,0 11.6390205,46.5391264,0 11.6393404,46.5390155,0 11.6396453,46.5388934,0 11.6398655,46.538708,0 11.6400443,46.5386195,0 11.640193,46.5385008,0 11.6403612,46.5383874,0 11.6409471,46.5379893,0 11.6411379,46.5378207,0 11.6411747,46.5377942,0 11.6412263,46.5377656,0 11.6413678,46.5377204,0 11.6423834,46.5373162,0 11.6424166,46.5372997,0 11.6425933,46.5371497,0 11.6426482,46.5371153,0 11.642707,46.5370852,0 11.643067,46.536949,0 11.6431834,46.5368709,0 11.6432568,46.5368335,0 11.6433524,46.5368268,0 11.6435592,46.5368286,0 11.6438097,46.5368219,0 11.6441517,46.5367844,0 11.6447531,46.5366984,0 11.6447745,46.5366937,0 11.6447916,46.5366853,0 11.644943,46.5366789,0 11.6458671,46.5363831,0 11.6460551,46.5363455,0 11.6461432,46.5363361,0 11.6461994,46.5363318,0 11.6462874,46.536337,0 11.6463534,46.5363304,0 11.6464141,46.5363136,0 11.6464937,46.5362866,0 11.6465951,46.5362462,0 11.6471659,46.5360679,0 11.6472163,46.5360644,0 11.647282,46.5360893,0 11.6473263,46.5360856,0 11.6474001,46.5360469,0 11.6474669,46.536015,0 11.6476951,46.5359777,0 11.6481195,46.5359616,0 11.64841,46.5359786,0 11.6485114,46.5360064,0 11.6486782,46.5360672,0 11.6487774,46.5361133,0 11.6488297,46.5361429,0 11.6488767,46.5361612,0 11.6492565,46.5362878,0 11.6496007,46.536351,0 11.6497632,46.5364174,0 11.6498639,46.5364832,0 11.6500607,46.5366568,0 11.6501386,46.5367969,0 11.6501912,46.5369225,0 11.6502659,46.5370275,0 11.6503277,46.5370884,0 11.6503961,46.5371447,0 11.6504712,46.5371844,0 11.6506536,46.5372646,0 11.6507434,46.5373071,0 11.6507756,46.5373108,0 11.6509352,46.5372886,0 11.6510116,46.5372969,0 11.6511368,46.5373041,0 11.6512447,46.5373624,0 11.6513067,46.5374556,0 11.6513657,46.5374842,0 11.651641,46.5375613,0 11.651748,46.5376217,0 11.6518391,46.5376851,0 11.6519443,46.5377349,0 11.6520226,46.5377667,0 11.6520968,46.5378036,0 11.6521879,46.53788,0 11.6522844,46.5379685,0 11.6523555,46.5380082,0 11.6524577,46.538034,0 11.6526418,46.538028,0 11.6528021,46.5379944,0 11.6529559,46.5379791,0 11.6530623,46.5379732,0 11.6532037,46.5379349,0 11.6534528,46.5378633,0 11.6535854,46.5378659,0 11.6535101,46.5377415,0 11.6534111,46.5376436,0 11.6533298,46.5375929,0 11.6532005,46.5375265,0 11.6530598,46.53748,0 11.6529498,46.5374432,0 11.6528536,46.537419,0 11.6527814,46.5373996,0 11.6526842,46.5373702,0 11.6525791,46.5373303,0 11.6524986,46.5372854,0 11.6524311,46.5372347,0 11.6523445,46.5371587,0 11.6522729,46.5370774,0 11.6522145,46.5370075,0 11.6521366,46.5369098,0 11.6521184,46.5368751,0 11.6521074,46.5368315,0 11.6520984,46.5367485,0 11.6520944,46.5366604,0 11.6521011,46.5365241,0 11.6521134,46.5364463,0 11.6521448,46.5363105,0 11.6521784,46.5361593,0 11.6521759,46.5361077,0 11.6521684,46.5360546,0 11.6521544,46.5359858,0 11.652119,46.5359043,0 11.6520423,46.5357061,0 11.6520043,46.5356458,0 11.6519645,46.5355913,0 11.6518542,46.5354751,0 11.6517928,46.5353997,0 11.6517456,46.5353152,0 11.6516877,46.5352082,0 11.6515822,46.5350942,0 11.6512973,46.5348492,0 11.6510662,46.5346657,0 11.6507842,46.5344682,0 11.6506809,46.5344078,0 11.6505426,46.5343295,0 11.6504308,46.5342539,0 11.6503269,46.5341361,0 11.650276,46.5340645,0 11.6501846,46.5338303,0 11.6501624,46.5337925,0 11.6501296,46.5337564,0 11.6500889,46.5337269,0 11.6500374,46.5337019,0 11.6499761,46.5336856,0 11.64992,46.5336785,0 11.6498625,46.5336829,0 11.6497722,46.533696,0 11.6497011,46.5337002,0 11.6496096,46.5336932,0 11.6495425,46.533675,0 11.6494368,46.5336331,0 11.6492141,46.5335454,0 11.6490608,46.5334876,0 11.6489855,46.5334423,0 11.6487152,46.5332625,0 11.6486339,46.5332136,0 11.648518,46.5331646,0 11.6484451,46.5331446,0 11.6482879,46.533109,0 11.6480973,46.5330416,0 11.647833,46.5329353,0 11.6475043,46.5328446,0 11.6473919,46.5328248,0 11.6473451,46.5328066,0 11.647336,46.5327982,0 11.6473106,46.5327745,0 11.6473533,46.5327269,0 11.647534,46.5326714,0 11.6477042,46.5326066,0 11.6478194,46.5325282,0 11.6479997,46.5323936,0 11.6481136,46.5323058,0 11.648169,46.5321918,0 11.6481847,46.5321228,0 11.6482375,46.5320836,0 11.6483432,46.5320417,0 11.6484652,46.5320095,0 11.6486646,46.531976,0 11.6488296,46.5319299,0 11.6489851,46.5318727,0 11.6490535,46.531833,0 11.6490897,46.5318016,0 11.6491058,46.5317638,0 11.6491139,46.5317287,0 11.6490897,46.5316762,0 11.648988,46.5315827,0 11.6487824,46.5314217,0 11.6486826,46.5313726,0 11.6483656,46.5311527,0 11.6482334,46.5310558,0 11.6481129,46.5310197,0 11.6480614,46.5310145,0 11.647958,46.5310371,0 11.6479001,46.5310588,0 11.6477927,46.5311169,0 11.6477016,46.5311651,0 11.6476526,46.5312069,0 11.6475884,46.5312637,0 11.6474847,46.5313356,0 11.6474083,46.5313835,0 11.6473404,46.5314035,0 11.6472664,46.5314094,0 11.6472053,46.5314071,0 11.6471602,46.5313996,0 11.647118,46.531379,0 11.6470479,46.5313386,0 11.6470271,46.5312977,0 11.6470191,46.5312582,0 11.6470394,46.5311492,0 11.6470352,46.5310755,0 11.6469996,46.5310245,0 11.6469421,46.5309609,0 11.6468056,46.5308437,0 11.6467505,46.5307664,0 11.6467218,46.5306818,0 11.6467053,46.5305736,0 11.6466977,46.5304978,0 11.6466826,46.5304471,0 11.6466391,46.5303967,0 11.6466033,46.5303614,0 11.6466141,46.530295,0 11.6466761,46.5302159,0 11.6468463,46.5301041,0 11.6469276,46.5300569,0 11.6470724,46.5300079,0 11.6473412,46.5299377,0 11.6476385,46.5298953,0 11.6478218,46.5298336,0 11.6479362,46.5297353,0 11.6482665,46.5295203,0 11.6486806,46.5292948,0 11.6489524,46.5291497,0 11.6491099,46.5289802,0 11.6491811,46.5288946,0 11.6493513,46.5288229,0 11.649552,46.5287984,0 11.6496562,46.5287774,0 11.6497375,46.5287442,0 11.6498086,46.5286533,0 11.6498823,46.5285223,0 11.6500118,46.5283422,0 11.6501084,46.5281587,0 11.6501922,46.5279385,0 11.6502379,46.5278668,0 11.650305,46.5277881,0 11.6505249,46.5275794,0 11.6505784,46.5274438,0 11.6507664,46.526902,0 11.6507891,46.5268066,0 11.6507613,46.5267459,0 11.6506859,46.5266728,0 11.6505305,46.5266177,0 11.6504538,46.5266073,0 11.650382,46.5266298,0 11.6503636,46.5266631,0 11.6503476,46.5267109,0 11.6503636,46.5266631,0 11.650382,46.5266298,0 11.6504538,46.5266073,0 11.6505305,46.5266177,0 11.6506859,46.5266728,0 11.6507613,46.5267459,0 11.6507754,46.5267002,0 11.6508343,46.5265095,0 11.6508842,46.5264571,0 11.6509264,46.5263461,0 11.6510147,46.5262871,0 11.65113,46.5261997,0 11.6511772,46.5261598,0 11.6512011,46.5261265,0 11.6512367,46.5260686,0 11.6514288,46.5259909,0 11.6514861,46.5259557,0 11.6515287,46.5259206,0 11.6515639,46.5258965,0 11.6515833,46.5258746,0 11.6515957,46.5258503,0 11.6515984,46.5258178,0 11.6515839,46.5257943,0 11.6515619,46.5257719,0 11.6515191,46.5257376,0 11.6514789,46.5257134,0 11.6513482,46.5256484,0 11.6513022,46.5256263,0 11.651248,46.5255985,0 11.6512121,46.5255821,0 11.6511791,46.5255635,0 11.6511735,46.5255571,0 11.6511714,46.5255486,0 11.651172,46.5255427,0 11.6511758,46.5255365,0 11.6512058,46.5255124,0 11.6512273,46.5254996,0 11.6512946,46.5254663,0 11.6513361,46.5254454,0 11.6513579,46.5254333,0 11.6513828,46.5254168,0 11.6514098,46.5253874,0 11.6514422,46.5253503,0 11.6514789,46.5253065,0 11.6515062,46.5252778,0 11.6515192,46.5252679,0 11.6515347,46.5252597,0 11.651557,46.5252549,0 11.6516096,46.5252469,0 11.6516302,46.5252441,0 11.6516464,46.5252407,0 11.6516626,46.5252342,0 11.6516729,46.525225,0 11.6516759,46.5252153,0 11.651677,46.5252095,0 11.6516765,46.5251944,0 11.6516723,46.5251779,0 11.651656,46.5251521,0 11.6516261,46.5251156,0 11.6515989,46.5250777,0 11.6515627,46.5250255,0 11.6515325,46.5249725,0 11.6515076,46.5249382,0 11.651495,46.5249203,0 11.6514879,46.5249052,0 11.6514773,46.5248818,0 11.6514725,46.5248579,0 11.6514622,46.5248242,0 11.6514531,46.524778,0 11.6514555,46.5247206,0 11.6514901,46.5246625,0 11.6515319,46.5245953,0 11.6515504,46.5245677,0 11.6515704,46.5245475,0 11.651591,46.5245341,0 11.6516444,46.5245067,0 11.651744,46.5244742,0 11.651789,46.524453,0 11.6518115,46.5244419,0 11.6518368,46.5244205,0 11.6518594,46.5243836,0 11.6518997,46.5242979,0 11.6519122,46.5242539,0 11.6519151,46.5241911,0 11.6519116,46.5241582,0 11.6519071,46.5241402,0 11.6518886,46.5240868,0 11.6518698,46.5240528,0 11.6518613,46.5240196,0 11.651858,46.523996,0 11.6518503,46.5239749,0 11.6518468,46.5239469,0 11.6518492,46.5239266,0 11.6518456,46.523908,0 11.6518391,46.5238918,0 11.6518287,46.5238769,0 11.6517938,46.5238451,0 11.6517654,46.5238134,0 11.6517342,46.5237847,0 11.651708,46.5237564,0 11.6516794,46.5237296,0 11.651657,46.5237174,0 11.6516376,46.523701,0 11.6516217,46.5236769,0 11.6516099,46.5236526,0 11.6515951,46.5236217,0 11.6515641,46.5235779,0 11.6515392,46.5235183,0 11.6515228,46.5234592,0 11.6514891,46.5234032,0 11.6514731,46.5233715,0 11.6514625,46.5233463,0 11.6514295,46.5232965,0 11.6513785,46.5232483,0 11.6513529,46.5232235,0 11.6513306,46.5232022,0 11.6513058,46.5231789,0 11.6512789,46.5231554,0 11.651205,46.5231176,0 11.6511365,46.523071,0 11.6511013,46.523052,0 11.6510538,46.5230292,0 11.6510267,46.52302,0 11.651006,46.523016,0 11.6509881,46.5230078,0 11.6509753,46.5230001,0 11.6509634,46.5229835,0 11.650953,46.5229653,0 11.6509273,46.5229381,0 11.6509183,46.5228878,0 11.6509192,46.5228687,0 11.6509242,46.5228534,0 11.6509298,46.5228338,0 11.6509358,46.522812,0 11.6509398,46.522783,0 11.6509368,46.5227572,0 11.6509298,46.5227211,0 11.6509221,46.5226949,0 11.6509059,46.5226585,0 11.650886,46.522625,0 11.6508502,46.522584,0 11.6508253,46.5225432,0 11.6508054,46.5225062,0 11.6507874,46.5224742,0 11.650759,46.52242,0 11.6507462,46.522392,0 11.65074,46.5223744,0 11.6507254,46.5223278,0 11.6507153,46.5222973,0 11.650704,46.5222666,0 11.6506778,46.5222193,0 11.6506512,46.5221806,0 11.650631,46.5221599,0 11.6506105,46.5221384,0 11.6505891,46.5221197,0 11.6505752,46.5221082,0 11.6505467,46.5220926,0 11.650523,46.5220784,0 11.6504872,46.5220613,0 11.6504546,46.5220431,0 11.6503985,46.5220133,0 11.6503538,46.5219758,0 11.6503217,46.5219334,0 11.650307,46.5218978,0 11.6502915,46.5218461,0 11.6502835,46.5217898,0 11.6502762,46.5217224,0 11.6502598,46.5216749,0 11.6502363,46.5216244,0 11.6501964,46.5215587,0 11.6501528,46.5214982,0 11.6500749,46.5214191,0 11.6499778,46.5213575,0 11.6498973,46.52128,0 11.6498695,46.5211933,0 11.6498517,46.5211706,0 11.6498732,46.5211466,0 11.6498549,46.5211117,0 11.6498566,46.5211047,0 11.6498553,46.5210929,0 11.6498438,46.52106,0 11.6497942,46.5210092,0 11.6497398,46.5209449,0 11.6496903,46.520891,0 11.6496587,46.5208521,0 11.6496434,46.5208302,0 11.649635,46.5207989,0 11.6496504,46.5207555,0 11.6496658,46.5207013,0 11.6496458,46.5206304,0 11.6496507,46.5205933,0 11.6495768,46.520523,0 11.6495654,46.5204806,0 11.649545,46.520432,0 11.6495263,46.5204081,0 11.6495093,46.5203923,0 11.6494807,46.5203594,0 11.64948,46.5203472,0 11.6494881,46.5203352,0 11.6495642,46.5203015,0 11.6495894,46.5202858,0 11.6496068,46.5202694,0 11.6496139,46.5202456,0 11.6496155,46.5202401,0 11.6496062,46.5201819,0 11.6496142,46.5200767,0 11.649629,46.5199863,0 11.6496663,46.5198626,0 11.6497348,46.519771,0 11.6498117,46.5196757,0 11.6498769,46.5195773,0 11.649899,46.519507,0 11.6499688,46.5194909,0 11.6500728,46.5194972,0 11.6502097,46.519505,0 11.6502875,46.519505,0 11.6503687,46.5195073,0 11.6504277,46.5195004,0 11.6504806,46.5195013,0 11.6505537,46.5195313,0 11.6506269,46.5195731,0 11.6507442,46.5196315,0 11.6508447,46.5196721,0 11.6509058,46.5197002,0 11.6509413,46.5197178,0 11.6509588,46.519736,0 11.6510928,46.5198765,0 11.6511908,46.5199575,0 11.6513,46.519996,0 11.6513731,46.5200204,0 11.6514174,46.5200269,0 11.6514804,46.520012,0 11.6515065,46.5200248,0 11.65153,46.5200479,0 11.651543,46.5200821,0 11.6515463,46.5201079,0 11.6515731,46.5201307,0 11.6515947,46.5201479,0 11.6516382,46.5201607,0 11.651673,46.5201512,0 11.6516969,46.5201375,0 11.6517128,46.5201217,0 11.6517253,46.5200983,0 11.6517482,46.5200739,0 11.6517711,46.5200615,0 11.6517988,46.5200587,0 11.6518425,46.520064,0 11.6518935,46.520062,0 11.6519254,46.5200521,0 11.6519791,46.5200217,0 11.6520397,46.5199976,0 11.6521269,46.5199781,0 11.652225,46.5199815,0 11.6522866,46.5199801,0 11.6523515,46.5199666,0 11.6524057,46.519969,0 11.6524617,46.5199944,0 11.6525337,46.5200236,0 11.6525947,46.5200676,0 11.6526319,46.5200848,0 11.6526704,46.520092,0 11.6527099,46.5200832,0 11.6527438,46.5200746,0 11.6527687,46.5200814,0 11.6528139,46.52008,0 11.6528703,46.5200685,0 11.6529674,46.5200721,0 11.6530373,46.5200947,0 11.6531204,46.5201099,0 11.653174,46.5201475,0 11.6532339,46.5202162,0 11.653273,46.5202569,0 11.6532971,46.5202597,0 11.6533233,46.5202556,0 11.6533578,46.520259,0 11.6533919,46.5202773,0 11.6534313,46.5202852,0 11.6534692,46.5202807,0 11.6535233,46.5202673,0 11.653594,46.5202686,0 11.6536778,46.5202622,0 11.6537334,46.5202682,0 11.653803,46.5202636,0 11.6538753,46.5202496,0 11.6539562,46.5202233,0 11.6540165,46.5202138,0 11.6540805,46.5202281,0 11.6541419,46.5202644,0 11.6541992,46.5202984,0 11.6543343,46.5204112,0 11.6544514,46.5204468,0 11.6546091,46.5204613,0 11.6547519,46.5205051,0 11.6549394,46.5205831,0 11.6551627,46.5206705,0 11.6553691,46.5207158,0 11.6555373,46.5207363,0 11.6557702,46.5207356,0 11.6559761,46.5207042,0 11.6561303,46.5206542,0 11.6562329,46.5206652,0 11.6563877,46.5207143,0 11.6564624,46.5207368,0 11.6565534,46.5207715,0 11.6566087,46.5207926,0 11.6567233,46.5208266,0 11.65683,46.5208633,0 11.6569071,46.5209245,0 11.656919,46.5209939,0 11.6568307,46.5210729,0 11.6567192,46.5211491,0 11.656637,46.5212218,0 11.6565008,46.5212394,0 11.6563356,46.5212459,0 11.6562006,46.5212739,0 11.6559825,46.5212738,0 11.6556795,46.5213065,0 11.6556478,46.5213275,0 11.6556277,46.5213471,0 11.6556304,46.52138,0 11.6556462,46.5214069,0 11.65587,46.5214881,0 11.6560673,46.5215672,0 11.6563202,46.5216378,0 11.6566305,46.5217354,0 11.656684,46.5218047,0 11.6566884,46.5218695,0 11.6566921,46.5219351,0 11.6567152,46.521991,0 11.6567945,46.5220353,0 11.6569278,46.5220456,0 11.6570951,46.5220092,0 11.6571883,46.5220059,0 11.6572591,46.52202,0 11.6573063,46.5220623,0 11.6573974,46.5222138,0 11.6574567,46.5222996,0 11.6574402,46.5223643,0 11.6575016,46.522453,0 11.6574003,46.5225312,0 11.6573082,46.5226325,0 11.6574126,46.5228205,0 11.6577226,46.5229915,0 11.6578084,46.5230829,0 11.6577809,46.5231478,0 11.6576213,46.523171,0 11.6576243,46.5232428,0 11.6577471,46.5232787,0 11.6577962,46.5233463,0 11.6580683,46.52341,0 11.6583026,46.5234772,0 11.6585368,46.5236364,0 11.6587625,46.5236953,0 11.6588673,46.52381,0 11.6593651,46.523783,0 11.6595205,46.5237455,0 11.6599869,46.5238015,0 11.660291,46.523843,0 11.6607531,46.5238586,0 11.6610451,46.5240446,0 11.6615188,46.5242291,0 11.6621125,46.5244419,0 11.6623735,46.5245755,0 11.6628531,46.5248053,0 11.6626075,46.5249798,0 11.6627813,46.5250889,0 11.6631159,46.5252987,0 11.6635169,46.5254181,0 11.6635841,46.5254433,0 11.6636597,46.525479,0 11.6640676,46.5257631,0 11.6641242,46.5257941,0 11.6641943,46.5258221,0 11.6643481,46.52587,0 11.664459,46.5259061,0 11.6645325,46.5259618,0 11.6646251,46.5260529,0 11.6647914,46.5261515,0 11.6648573,46.5262184,0 11.6649728,46.5263846,0 11.6650498,46.5264548,0 11.665124,46.5265094,0 11.6652672,46.5266439,0 11.6653345,46.5266932,0 11.6654167,46.5267236,0 11.6656292,46.5267797,0 11.6657255,46.5268134,0 11.6658091,46.5268608,0 11.665873,46.5269344,0 11.6659699,46.527033,0 11.6660902,46.5271222,0 11.6662827,46.5271999,0 11.6664857,46.5272832,0 11.666624,46.5273428,0 11.6669565,46.5275324,0 11.6669982,46.5275599,0 11.6670656,46.5275844,0 11.6671091,46.527697,0 11.6671267,46.5277267,0 11.6672806,46.5279278,0 11.6673563,46.5280418,0 11.6674411,46.5282374,0 11.6675576,46.5285863,0 11.6676548,46.5287551,0 11.6677731,46.5289649,0 11.6678886,46.5291274,0 11.6679361,46.5291942,0 11.6679612,46.5292295,0 11.6680414,46.5294639,0 11.6680775,46.5295868,0 11.6680935,46.5296686,0 11.6681026,46.5297552,0 11.6680877,46.5298224,0 11.6680537,46.5298983,0 11.6679944,46.5299811,0 11.667972,46.5300449,0 11.6679684,46.5300971,0 11.6681572,46.5309016,0 11.6681785,46.5310184,0 11.6682281,46.5311236,0 11.6682878,46.5312248,0 11.6684139,46.5314257,0 11.6684933,46.5315546,0 11.6685135,46.5316461,0 11.6685292,46.5317363,0 11.6685463,46.5318717,0 11.668582,46.5321289,0 11.6686165,46.5322281,0 11.6686719,46.5323519,0 11.6689743,46.5323185,0 11.6693405,46.5325623,0</coordinates></LineString></Placemark></Document></kml>