<?xml version="1.0" encoding="UTF-8"?><kml xmlns="http://www.opengis.net/kml/2.2"><Document><name>Lago di Sorapis · тропа 215</name><description>Планировочная реконструкция по OpenStreetMap, 09.09.2026. Не запись GPS и не проверенный навигационный трек. Высоты не экспортированы. Данные © OpenStreetMap contributors, ODbL. Автопереезды и канатки в пеший трек не включены.</description><Style id="track"><LineStyle><color>ff8e8514</color><width>4</width></LineStyle></Style><Placemark><name>Passo Tre Croci</name><Point><coordinates>12.2018532,46.5570248</coordinates></Point></Placemark><Placemark><name>Rifugio Vandelli</name><Point><coordinates>12.226609999999999,46.5216879</coordinates></Point></Placemark><Placemark><name>Lago di Sorapis — берег у тропы</name><Point><coordinates>12.2253,46.5205</coordinates></Point></Placemark><Placemark><name>Тропа 215 — Sorapis — обратно</name><description>Планировочная реконструкция по OpenStreetMap, 09.09.2026. Не запись GPS и не проверенный навигационный трек. Высоты не экспортированы. Данные © OpenStreetMap contributors, ODbL. Автопереезды и канатки в пеший трек не включены.</description><styleUrl>#track</styleUrl><LineString><tessellate>1</tessellate><altitudeMode>clampToGround</altitudeMode><coordinates>12.2018532,46.5570248,0 12.2017565,46.5569609,0 12.2016492,46.5568484,0 12.2014829,46.556664,0 12.2013354,46.5563855,0 12.2013086,46.5562306,0 12.2013112,46.5561605,0 12.2013327,46.5560793,0 12.2016278,46.5559647,0 12.2020739,46.5558625,0 12.2028027,46.5556954,0 12.2031236,46.5556439,0 12.203537,46.5555775,0 12.2045112,46.5556247,0 12.2050128,46.5556852,0 12.2051691,46.5555172,0 12.2052794,46.5553712,0 12.2052849,46.555342,0 12.2053029,46.5549673,0 12.205317,46.5548285,0 12.2053585,46.5547201,0 12.2054433,46.5546128,0 12.2055494,46.5545768,0 12.2057383,46.5545604,0 12.2059952,46.5545467,0 12.2062065,46.5544498,0 12.2063254,46.5543453,0 12.2066117,46.5541696,0 12.2069399,46.5539929,0 12.2073817,46.5537253,0 12.2076203,46.5535689,0 12.2078717,46.5533532,0 12.2077628,46.5532519,0 12.2075818,46.5532141,0 12.2073647,46.5531893,0 12.2071317,46.5531712,0 12.2069815,46.5531198,0 12.2068425,46.5529927,0 12.2068238,46.5529155,0 12.2069219,46.5527943,0 12.2070574,46.5526462,0 12.2071888,46.5525101,0 12.2073881,46.5523826,0 12.2075475,46.5522804,0 12.207814,46.5521685,0 12.2080298,46.5521037,0 12.2081946,46.5520442,0 12.2085959,46.5518537,0 12.2088889,46.5517202,0 12.2091382,46.5516155,0 12.2093505,46.5515777,0 12.209588,46.5515122,0 12.2098407,46.5514372,0 12.2100427,46.5513449,0 12.2102576,46.5512456,0 12.2104817,46.5512367,0 12.2107152,46.5511907,0 12.210923,46.5511457,0 12.2110931,46.5510586,0 12.2111504,46.5509855,0 12.2114788,46.5508318,0 12.21167,46.550788,0 12.211828,46.550766,0 12.2120473,46.5506798,0 12.212226,46.5506106,0 12.2124188,46.5504904,0 12.2125829,46.5503922,0 12.2127947,46.5502699,0 12.2129439,46.5501381,0 12.212942,46.5500222,0 12.2130208,46.5498914,0 12.2130932,46.5497793,0 12.2131002,46.5496468,0 12.2131721,46.5494311,0 12.2132834,46.5491911,0 12.2133898,46.5489303,0 12.2134178,46.5487066,0 12.2134563,46.5485304,0 12.2134563,46.5483672,0 12.2134322,46.5482049,0 12.2134021,46.5480267,0 12.2132834,46.5478257,0 12.2132065,46.5476627,0 12.2130272,46.5474998,0 12.2129695,46.5473324,0 12.2128799,46.547187,0 12.2127774,46.5471033,0 12.2126301,46.5470152,0 12.2124921,46.5469346,0 12.2124188,46.5468038,0 12.2123925,46.5466754,0 12.2124251,46.5466053,0 12.2125541,46.5465829,0 12.2127287,46.5465668,0 12.2130528,46.5465528,0 12.2132705,46.5465307,0 12.2135965,46.5465237,0 12.2138661,46.5464206,0 12.2141834,46.5463159,0 12.2143398,46.5462742,0 12.2144361,46.5461712,0 12.2145203,46.546125,0 12.2146754,46.5460304,0 12.2147564,46.5460066,0 12.2149421,46.5461167,0 12.2150125,46.5461651,0 12.2150331,46.5461932,0 12.2151997,46.5462311,0 12.2153937,46.5462591,0 12.2152922,46.5461792,0 12.2154551,46.5461933,0 12.2155946,46.5461917,0 12.2157994,46.5462381,0 12.2160513,46.5462443,0 12.2162093,46.5462984,0 12.2162973,46.5463636,0 12.2163338,46.546416,0 12.2165034,46.5464341,0 12.2166334,46.5463636,0 12.2167553,46.5463348,0 12.2168816,46.5463302,0 12.2169826,46.5462668,0 12.2172252,46.5462217,0 12.2173128,46.5461813,0 12.2175629,46.5461924,0 12.2176876,46.5462014,0 12.2178684,46.5461715,0 12.2180318,46.5461721,0 12.2181532,46.546136,0 12.218249,46.5460122,0 12.2183794,46.5459037,0 12.2184516,46.5458293,0 12.2186002,46.5457353,0 12.2187139,46.5456805,0 12.2188254,46.5456489,0 12.2188975,46.5455903,0 12.2190811,46.5455587,0 12.2192385,46.5454955,0 12.2193008,46.5454121,0 12.2195796,46.5453444,0 12.2196058,46.5452655,0 12.2198288,46.5452046,0 12.2198845,46.5452272,0 12.2199599,46.5451888,0 12.2200583,46.5450986,0 12.2201928,46.5450783,0 12.2203701,46.5450468,0 12.2204583,46.5449881,0 12.2208026,46.5448934,0 12.2209272,46.5448573,0 12.2209633,46.544819,0 12.221019,46.5447874,0 12.2210892,46.54472,0 12.2212519,46.5446521,0 12.2213444,46.5446591,0 12.2214158,46.5446115,0 12.221442,46.5445641,0 12.2214191,46.5444829,0 12.221665,46.5443273,0 12.2218664,46.5443517,0 12.2220585,46.5442957,0 12.22211,46.5442931,0 12.222299,46.5442248,0 12.2224258,46.5441063,0 12.2223536,46.543962,0 12.2224225,46.5438018,0 12.2225417,46.5437588,0 12.2227143,46.5438734,0 12.2228431,46.5439046,0 12.2229445,46.5438511,0 12.2229799,46.5437951,0 12.2230824,46.5436976,0 12.2231324,46.5435283,0 12.2231858,46.5433714,0 12.2232408,46.5431771,0 12.2233329,46.5429608,0 12.2233859,46.5428735,0 12.2234843,46.5427834,0 12.2236637,46.5425848,0 12.2237516,46.5424797,0 12.2238718,46.5423201,0 12.2239505,46.542275,0 12.2239505,46.5421802,0 12.2239735,46.5420945,0 12.2239669,46.5420224,0 12.2240587,46.5418036,0 12.2240784,46.5417156,0 12.2240888,46.5416238,0 12.224103,46.5414488,0 12.2240593,46.541297,0 12.224045,46.5411073,0 12.2241374,46.5409375,0 12.2241505,46.5408383,0 12.2242227,46.5406714,0 12.2243178,46.5405699,0 12.2244818,46.5404756,0 12.2245834,46.5403218,0 12.2247112,46.5401887,0 12.2246948,46.5400669,0 12.2246645,46.5399219,0 12.2246522,46.5398504,0 12.2247148,46.5396794,0 12.2247621,46.5395221,0 12.2247867,46.5394038,0 12.2247869,46.5391896,0 12.224939,46.5390326,0 12.2251346,46.538885,0 12.2253697,46.5386081,0 12.2255042,46.5383923,0 12.2255618,46.5381764,0 12.2256454,46.5380378,0 12.2257198,46.5379142,0 12.2258176,46.5378123,0 12.2258767,46.5376681,0 12.225848,46.5374412,0 12.2258891,46.5373698,0 12.2260077,46.5373203,0 12.2262084,46.5372502,0 12.2263044,46.5371731,0 12.2264365,46.5371384,0 12.2265677,46.537113,0 12.226685,46.5370246,0 12.2268218,46.5369798,0 12.2269447,46.5369157,0 12.2270367,46.5368192,0 12.2271861,46.5366931,0 12.2273289,46.5365037,0 12.2271646,46.5364824,0 12.2271638,46.536363,0 12.2272272,46.5362093,0 12.227371,46.536067,0 12.2273962,46.5358508,0 12.2275003,46.5357075,0 12.227603,46.5355341,0 12.2277235,46.5354072,0 12.2278711,46.535317,0 12.228022,46.535203,0 12.2281785,46.5350745,0 12.2282828,46.5349156,0 12.2283522,46.5347622,0 12.2283327,46.5347174,0 12.2283522,46.5346054,0 12.228476,46.5344889,0 12.2285346,46.5342918,0 12.2286138,46.5340959,0 12.2286129,46.5339676,0 12.2286199,46.5338709,0 12.2286762,46.5337742,0 12.2287131,46.5336485,0 12.2287623,46.5334938,0 12.2288044,46.5333488,0 12.2287482,46.5332376,0 12.2287061,46.5330926,0 12.2288832,46.5329137,0 12.2288677,46.5327638,0 12.2287834,46.5326284,0 12.2287652,46.5325639,0 12.2287318,46.5324664,0 12.22862,46.5324766,0 12.2285573,46.5325853,0 12.228553,46.5326177,0 12.2285187,46.5327398,0 12.2284953,46.5327718,0 12.2284692,46.5328055,0 12.2284358,46.5328401,0 12.2284064,46.5328147,0 12.2283818,46.5328434,0 12.2283738,46.5328107,0 12.2283656,46.5327768,0 12.2283641,46.5327413,0 12.2283062,46.5326574,0 12.2283163,46.5325081,0 12.2282501,46.5324536,0 12.2281787,46.5323583,0 12.2281449,46.532254,0 12.2281724,46.5321282,0 12.2280993,46.5320224,0 12.2279528,46.5318911,0 12.2278889,46.5317515,0 12.2279842,46.5315533,0 12.2279719,46.5314649,0 12.2278878,46.5314343,0 12.2277989,46.531368,0 12.2277791,46.5312949,0 12.2279146,46.5312181,0 12.228088,46.5311045,0 12.2281597,46.5310092,0 12.2282298,46.5308869,0 12.2282137,46.5307088,0 12.228157,46.5305474,0 12.2281369,46.5304473,0 12.2281347,46.5303925,0 12.2282117,46.5303275,0 12.228275,46.5302764,0 12.2284177,46.5301321,0 12.2284356,46.5300077,0 12.2284105,46.5298959,0 12.228381,46.5297916,0 12.2283858,46.5295288,0 12.2283722,46.529334,0 12.2284082,46.5291901,0 12.2284403,46.5290794,0 12.2284364,46.5290374,0 12.2284364,46.5287471,0 12.2284823,46.5286092,0 12.2284916,46.5285358,0 12.2285333,46.5284402,0 12.2285237,46.5283533,0 12.2285884,46.5282031,0 12.2285431,46.5281496,0 12.2285678,46.5280785,0 12.2285521,46.5280018,0 12.228489,46.5278541,0 12.2285018,46.5275721,0 12.228616,46.5273628,0 12.2286844,46.5272811,0 12.2286363,46.5271976,0 12.228517,46.5270256,0 12.228542,46.5269325,0 12.2284253,46.5268784,0 12.2283871,46.5268127,0 12.2282994,46.5267584,0 12.2283169,46.5266335,0 12.2283109,46.5265191,0 12.2283374,46.5264539,0 12.2285125,46.5261497,0 12.2285852,46.5260918,0 12.2286683,46.5259854,0 12.2286059,46.5258409,0 12.2284777,46.5256861,0 12.228336,46.5255289,0 12.2283093,46.5255075,0 12.2282631,46.5255042,0 12.2280759,46.5253704,0 12.2280589,46.525352,0 12.228003,46.5252516,0 12.2278882,46.5250762,0 12.2278199,46.5250265,0 12.2277418,46.5250035,0 12.2276214,46.524924,0 12.2276648,46.5248856,0 12.227657,46.5248578,0 12.2275624,46.5248183,0 12.2275764,46.5247521,0 12.2274693,46.5247244,0 12.2274569,46.5246795,0 12.2273716,46.5246123,0 12.2273762,46.5245813,0 12.2273436,46.5245536,0 12.2273312,46.5245066,0 12.2273111,46.5244746,0 12.2272405,46.5242918,0 12.227136,46.5241362,0 12.2270525,46.5240356,0 12.2269863,46.5240787,0 12.2269132,46.5240571,0 12.2268889,46.5239637,0 12.2268815,46.5236857,0 12.2267869,46.5234127,0 12.2267218,46.5232559,0 12.2266567,46.5231484,0 12.2267283,46.5230185,0 12.2265461,46.5228797,0 12.2264289,46.5226513,0 12.2260969,46.5222706,0 12.2260176,46.5221827,0 12.2259471,46.5220844,0 12.2258354,46.521992,0 12.225752,46.5219376,0 12.2257195,46.5218815,0 12.2256982,46.5217742,0 12.2256756,46.5217228,0 12.2258716,46.5217895,0 12.2260487,46.521809,0 12.2261756,46.5217214,0 12.2264421,46.5217788,0 12.2266556,46.5217588,0 12.2264421,46.5217788,0 12.2261756,46.5217214,0 12.2260487,46.521809,0 12.2258716,46.5217895,0 12.2256756,46.5217228,0 12.2256676,46.5216227,0 12.2255514,46.5214653,0 12.2252477,46.5212872,0 12.2252056,46.5212169,0 12.2250411,46.5211199,0 12.2248895,46.520914,0 12.2249535,46.5209133,0 12.2250394,46.5208838,0 12.2251073,46.5208414,0 12.2251332,46.5208137,0 12.2251798,46.5207916,0 12.225169,46.5207787,0 12.225169,46.5207178,0 12.2251717,46.5206846,0 12.2251905,46.5206421,0 12.2252146,46.5205941,0 12.2252254,46.5205554,0 12.2252039,46.5204945,0 12.2252254,46.5205554,0 12.2252146,46.5205941,0 12.2251905,46.5206421,0 12.2251717,46.5206846,0 12.225169,46.5207178,0 12.225169,46.5207787,0 12.2251798,46.5207916,0 12.2251332,46.5208137,0 12.2251073,46.5208414,0 12.2250394,46.5208838,0 12.2249535,46.5209133,0 12.2248895,46.520914,0 12.2250411,46.5211199,0 12.2252056,46.5212169,0 12.2252477,46.5212872,0 12.2255514,46.5214653,0 12.2256676,46.5216227,0 12.2256756,46.5217228,0 12.2258716,46.5217895,0 12.2260487,46.521809,0 12.2261756,46.5217214,0 12.2264421,46.5217788,0 12.2266556,46.5217588,0 12.2264421,46.5217788,0 12.2261756,46.5217214,0 12.2260487,46.521809,0 12.2258716,46.5217895,0 12.2256756,46.5217228,0 12.2256982,46.5217742,0 12.2257195,46.5218815,0 12.225752,46.5219376,0 12.2258354,46.521992,0 12.2259471,46.5220844,0 12.2260176,46.5221827,0 12.2260969,46.5222706,0 12.2264289,46.5226513,0 12.2265461,46.5228797,0 12.2267283,46.5230185,0 12.2266567,46.5231484,0 12.2267218,46.5232559,0 12.2267869,46.5234127,0 12.2268815,46.5236857,0 12.2268889,46.5239637,0 12.2269132,46.5240571,0 12.2269863,46.5240787,0 12.2270525,46.5240356,0 12.227136,46.5241362,0 12.2272405,46.5242918,0 12.2273111,46.5244746,0 12.2273312,46.5245066,0 12.2273436,46.5245536,0 12.2273762,46.5245813,0 12.2273716,46.5246123,0 12.2274569,46.5246795,0 12.2274693,46.5247244,0 12.2275764,46.5247521,0 12.2275624,46.5248183,0 12.227657,46.5248578,0 12.2276648,46.5248856,0 12.2276214,46.524924,0 12.2277418,46.5250035,0 12.2278199,46.5250265,0 12.2278882,46.5250762,0 12.228003,46.5252516,0 12.2280589,46.525352,0 12.2280759,46.5253704,0 12.2282631,46.5255042,0 12.2283093,46.5255075,0 12.228336,46.5255289,0 12.2284777,46.5256861,0 12.2286059,46.5258409,0 12.2286683,46.5259854,0 12.2285852,46.5260918,0 12.2285125,46.5261497,0 12.2283374,46.5264539,0 12.2283109,46.5265191,0 12.2283169,46.5266335,0 12.2282994,46.5267584,0 12.2283871,46.5268127,0 12.2284253,46.5268784,0 12.228542,46.5269325,0 12.228517,46.5270256,0 12.2286363,46.5271976,0 12.2286844,46.5272811,0 12.228616,46.5273628,0 12.2285018,46.5275721,0 12.228489,46.5278541,0 12.2285521,46.5280018,0 12.2285678,46.5280785,0 12.2285431,46.5281496,0 12.2285884,46.5282031,0 12.2285237,46.5283533,0 12.2285333,46.5284402,0 12.2284916,46.5285358,0 12.2284823,46.5286092,0 12.2284364,46.5287471,0 12.2284364,46.5290374,0 12.2284403,46.5290794,0 12.2284082,46.5291901,0 12.2283722,46.529334,0 12.2283858,46.5295288,0 12.228381,46.5297916,0 12.2284105,46.5298959,0 12.2284356,46.5300077,0 12.2284177,46.5301321,0 12.228275,46.5302764,0 12.2282117,46.5303275,0 12.2281347,46.5303925,0 12.2281369,46.5304473,0 12.228157,46.5305474,0 12.2282137,46.5307088,0 12.2282298,46.5308869,0 12.2281597,46.5310092,0 12.228088,46.5311045,0 12.2279146,46.5312181,0 12.2277791,46.5312949,0 12.2277989,46.531368,0 12.2278878,46.5314343,0 12.2279719,46.5314649,0 12.2279842,46.5315533,0 12.2278889,46.5317515,0 12.2279528,46.5318911,0 12.2280993,46.5320224,0 12.2281724,46.5321282,0 12.2281449,46.532254,0 12.2281787,46.5323583,0 12.2282501,46.5324536,0 12.2283163,46.5325081,0 12.2283062,46.5326574,0 12.2283641,46.5327413,0 12.2283656,46.5327768,0 12.2283738,46.5328107,0 12.2283818,46.5328434,0 12.2284064,46.5328147,0 12.2284358,46.5328401,0 12.2284692,46.5328055,0 12.2284953,46.5327718,0 12.2285187,46.5327398,0 12.228553,46.5326177,0 12.2285573,46.5325853,0 12.22862,46.5324766,0 12.2287318,46.5324664,0 12.2287652,46.5325639,0 12.2287834,46.5326284,0 12.2288677,46.5327638,0 12.2288832,46.5329137,0 12.2287061,46.5330926,0 12.2287482,46.5332376,0 12.2288044,46.5333488,0 12.2287623,46.5334938,0 12.2287131,46.5336485,0 12.2286762,46.5337742,0 12.2286199,46.5338709,0 12.2286129,46.5339676,0 12.2286138,46.5340959,0 12.2285346,46.5342918,0 12.228476,46.5344889,0 12.2283522,46.5346054,0 12.2283327,46.5347174,0 12.2283522,46.5347622,0 12.2282828,46.5349156,0 12.2281785,46.5350745,0 12.228022,46.535203,0 12.2278711,46.535317,0 12.2277235,46.5354072,0 12.227603,46.5355341,0 12.2275003,46.5357075,0 12.2273962,46.5358508,0 12.227371,46.536067,0 12.2272272,46.5362093,0 12.2271638,46.536363,0 12.2271646,46.5364824,0 12.2273289,46.5365037,0 12.2271861,46.5366931,0 12.2270367,46.5368192,0 12.2269447,46.5369157,0 12.2268218,46.5369798,0 12.226685,46.5370246,0 12.2265677,46.537113,0 12.2264365,46.5371384,0 12.2263044,46.5371731,0 12.2262084,46.5372502,0 12.2260077,46.5373203,0 12.2258891,46.5373698,0 12.225848,46.5374412,0 12.2258767,46.5376681,0 12.2258176,46.5378123,0 12.2257198,46.5379142,0 12.2256454,46.5380378,0 12.2255618,46.5381764,0 12.2255042,46.5383923,0 12.2253697,46.5386081,0 12.2251346,46.538885,0 12.224939,46.5390326,0 12.2247869,46.5391896,0 12.2247867,46.5394038,0 12.2247621,46.5395221,0 12.2247148,46.5396794,0 12.2246522,46.5398504,0 12.2246645,46.5399219,0 12.2246948,46.5400669,0 12.2247112,46.5401887,0 12.2245834,46.5403218,0 12.2244818,46.5404756,0 12.2243178,46.5405699,0 12.2242227,46.5406714,0 12.2241505,46.5408383,0 12.2241374,46.5409375,0 12.224045,46.5411073,0 12.2240593,46.541297,0 12.224103,46.5414488,0 12.2240888,46.5416238,0 12.2240784,46.5417156,0 12.2240587,46.5418036,0 12.2239669,46.5420224,0 12.2239735,46.5420945,0 12.2239505,46.5421802,0 12.2239505,46.542275,0 12.2238718,46.5423201,0 12.2237516,46.5424797,0 12.2236637,46.5425848,0 12.2234843,46.5427834,0 12.2233859,46.5428735,0 12.2233329,46.5429608,0 12.2232408,46.5431771,0 12.2231858,46.5433714,0 12.2231324,46.5435283,0 12.2230824,46.5436976,0 12.2229799,46.5437951,0 12.2229445,46.5438511,0 12.2228431,46.5439046,0 12.2227143,46.5438734,0 12.2225417,46.5437588,0 12.2224225,46.5438018,0 12.2223536,46.543962,0 12.2224258,46.5441063,0 12.222299,46.5442248,0 12.22211,46.5442931,0 12.2220585,46.5442957,0 12.2218664,46.5443517,0 12.221665,46.5443273,0 12.2214191,46.5444829,0 12.221442,46.5445641,0 12.2214158,46.5446115,0 12.2213444,46.5446591,0 12.2212519,46.5446521,0 12.2210892,46.54472,0 12.221019,46.5447874,0 12.2209633,46.544819,0 12.2209272,46.5448573,0 12.2208026,46.5448934,0 12.2204583,46.5449881,0 12.2203701,46.5450468,0 12.2201928,46.5450783,0 12.2200583,46.5450986,0 12.2199599,46.5451888,0 12.2198845,46.5452272,0 12.2198288,46.5452046,0 12.2196058,46.5452655,0 12.2195796,46.5453444,0 12.2193008,46.5454121,0 12.2192385,46.5454955,0 12.2190811,46.5455587,0 12.2188975,46.5455903,0 12.2188254,46.5456489,0 12.2187139,46.5456805,0 12.2186002,46.5457353,0 12.2184516,46.5458293,0 12.2183794,46.5459037,0 12.218249,46.5460122,0 12.2181532,46.546136,0 12.2180318,46.5461721,0 12.2178684,46.5461715,0 12.2176876,46.5462014,0 12.2175629,46.5461924,0 12.2173128,46.5461813,0 12.2172252,46.5462217,0 12.2169826,46.5462668,0 12.2168816,46.5463302,0 12.2167553,46.5463348,0 12.2166334,46.5463636,0 12.2165034,46.5464341,0 12.2163338,46.546416,0 12.2162973,46.5463636,0 12.2162093,46.5462984,0 12.2160513,46.5462443,0 12.2157994,46.5462381,0 12.2155946,46.5461917,0 12.2154551,46.5461933,0 12.2152922,46.5461792,0 12.2153937,46.5462591,0 12.2151997,46.5462311,0 12.2150331,46.5461932,0 12.2150125,46.5461651,0 12.2149421,46.5461167,0 12.2147564,46.5460066,0 12.2146754,46.5460304,0 12.2145203,46.546125,0 12.2144361,46.5461712,0 12.2143398,46.5462742,0 12.2141834,46.5463159,0 12.2138661,46.5464206,0 12.2135965,46.5465237,0 12.2132705,46.5465307,0 12.2130528,46.5465528,0 12.2127287,46.5465668,0 12.2125541,46.5465829,0 12.2124251,46.5466053,0 12.2123925,46.5466754,0 12.2124188,46.5468038,0 12.2124921,46.5469346,0 12.2126301,46.5470152,0 12.2127774,46.5471033,0 12.2128799,46.547187,0 12.2129695,46.5473324,0 12.2130272,46.5474998,0 12.2132065,46.5476627,0 12.2132834,46.5478257,0 12.2134021,46.5480267,0 12.2134322,46.5482049,0 12.2134563,46.5483672,0 12.2134563,46.5485304,0 12.2134178,46.5487066,0 12.2133898,46.5489303,0 12.2132834,46.5491911,0 12.2131721,46.5494311,0 12.2131002,46.5496468,0 12.2130932,46.5497793,0 12.2130208,46.5498914,0 12.212942,46.5500222,0 12.2129439,46.5501381,0 12.2127947,46.5502699,0 12.2125829,46.5503922,0 12.2124188,46.5504904,0 12.212226,46.5506106,0 12.2120473,46.5506798,0 12.211828,46.550766,0 12.21167,46.550788,0 12.2114788,46.5508318,0 12.2111504,46.5509855,0 12.2110931,46.5510586,0 12.210923,46.5511457,0 12.2107152,46.5511907,0 12.2104817,46.5512367,0 12.2102576,46.5512456,0 12.2100427,46.5513449,0 12.2098407,46.5514372,0 12.209588,46.5515122,0 12.2093505,46.5515777,0 12.2091382,46.5516155,0 12.2088889,46.5517202,0 12.2085959,46.5518537,0 12.2081946,46.5520442,0 12.2080298,46.5521037,0 12.207814,46.5521685,0 12.2075475,46.5522804,0 12.2073881,46.5523826,0 12.2071888,46.5525101,0 12.2070574,46.5526462,0 12.2069219,46.5527943,0 12.2068238,46.5529155,0 12.2068425,46.5529927,0 12.2069815,46.5531198,0 12.2071317,46.5531712,0 12.2073647,46.5531893,0 12.2075818,46.5532141,0 12.2077628,46.5532519,0 12.2078717,46.5533532,0 12.2076203,46.5535689,0 12.2073817,46.5537253,0 12.2069399,46.5539929,0 12.2066117,46.5541696,0 12.2063254,46.5543453,0 12.2062065,46.5544498,0 12.2059952,46.5545467,0 12.2057383,46.5545604,0 12.2055494,46.5545768,0 12.2054433,46.5546128,0 12.2053585,46.5547201,0 12.205317,46.5548285,0 12.2053029,46.5549673,0 12.2052849,46.555342,0 12.2052794,46.5553712,0 12.2051691,46.5555172,0 12.2050128,46.5556852,0 12.2045112,46.5556247,0 12.203537,46.5555775,0 12.2031236,46.5556439,0 12.2028027,46.5556954,0 12.2020739,46.5558625,0 12.2016278,46.5559647,0 12.2013327,46.5560793,0 12.2013112,46.5561605,0 12.2013086,46.5562306,0 12.2013354,46.5563855,0 12.2014829,46.556664,0 12.2016492,46.5568484,0 12.2017565,46.5569609,0 12.2018532,46.5570248,0</coordinates></LineString></Placemark></Document></kml>