<?xml version="1.0" encoding="UTF-8"?><gpx version="1.1" creator="Dolomites Atlas" xmlns="http://www.topografix.com/GPX/1/1"><metadata><name>Lago di Sorapis · тропа 215</name><desc>Планировочная реконструкция по OpenStreetMap, 09.09.2026. Не запись GPS и не проверенный навигационный трек. Высоты не экспортированы. Данные © OpenStreetMap contributors, ODbL. Автопереезды и канатки в пеший трек не включены.</desc><link href="https://www.openstreetmap.org/copyright"><text>OpenStreetMap contributors · ODbL</text></link></metadata><wpt lat="46.5570248" lon="12.2018532"><name>Passo Tre Croci</name></wpt><wpt lat="46.5216879" lon="12.226609999999999"><name>Rifugio Vandelli</name></wpt><wpt lat="46.5205" lon="12.2253"><name>Lago di Sorapis — берег у тропы</name></wpt><trk><name>Тропа 215 — Sorapis — обратно</name><desc>Планировочная реконструкция по OpenStreetMap, 09.09.2026. Не запись GPS и не проверенный навигационный трек. Высоты не экспортированы. Данные © OpenStreetMap contributors, ODbL. Автопереезды и канатки в пеший трек не включены.</desc><type>hiking</type><trkseg><trkpt lat="46.5570248" lon="12.2018532"/><trkpt lat="46.5569609" lon="12.2017565"/><trkpt lat="46.5568484" lon="12.2016492"/><trkpt lat="46.556664" lon="12.2014829"/><trkpt lat="46.5563855" lon="12.2013354"/><trkpt lat="46.5562306" lon="12.2013086"/><trkpt lat="46.5561605" lon="12.2013112"/><trkpt lat="46.5560793" lon="12.2013327"/><trkpt lat="46.5559647" lon="12.2016278"/><trkpt lat="46.5558625" lon="12.2020739"/><trkpt lat="46.5556954" lon="12.2028027"/><trkpt lat="46.5556439" lon="12.2031236"/><trkpt lat="46.5555775" lon="12.203537"/><trkpt lat="46.5556247" lon="12.2045112"/><trkpt lat="46.5556852" lon="12.2050128"/><trkpt lat="46.5555172" lon="12.2051691"/><trkpt lat="46.5553712" lon="12.2052794"/><trkpt lat="46.555342" lon="12.2052849"/><trkpt lat="46.5549673" lon="12.2053029"/><trkpt lat="46.5548285" lon="12.205317"/><trkpt lat="46.5547201" lon="12.2053585"/><trkpt lat="46.5546128" lon="12.2054433"/><trkpt lat="46.5545768" lon="12.2055494"/><trkpt lat="46.5545604" lon="12.2057383"/><trkpt lat="46.5545467" lon="12.2059952"/><trkpt lat="46.5544498" lon="12.2062065"/><trkpt lat="46.5543453" lon="12.2063254"/><trkpt lat="46.5541696" lon="12.2066117"/><trkpt lat="46.5539929" lon="12.2069399"/><trkpt lat="46.5537253" lon="12.2073817"/><trkpt lat="46.5535689" lon="12.2076203"/><trkpt lat="46.5533532" lon="12.2078717"/><trkpt lat="46.5532519" lon="12.2077628"/><trkpt lat="46.5532141" lon="12.2075818"/><trkpt lat="46.5531893" lon="12.2073647"/><trkpt lat="46.5531712" lon="12.2071317"/><trkpt lat="46.5531198" lon="12.2069815"/><trkpt lat="46.5529927" lon="12.2068425"/><trkpt lat="46.5529155" lon="12.2068238"/><trkpt lat="46.5527943" lon="12.2069219"/><trkpt lat="46.5526462" lon="12.2070574"/><trkpt lat="46.5525101" lon="12.2071888"/><trkpt lat="46.5523826" lon="12.2073881"/><trkpt lat="46.5522804" lon="12.2075475"/><trkpt lat="46.5521685" lon="12.207814"/><trkpt lat="46.5521037" lon="12.2080298"/><trkpt lat="46.5520442" lon="12.2081946"/><trkpt lat="46.5518537" lon="12.2085959"/><trkpt lat="46.5517202" lon="12.2088889"/><trkpt lat="46.5516155" lon="12.2091382"/><trkpt lat="46.5515777" lon="12.2093505"/><trkpt lat="46.5515122" lon="12.209588"/><trkpt lat="46.5514372" lon="12.2098407"/><trkpt lat="46.5513449" lon="12.2100427"/><trkpt lat="46.5512456" lon="12.2102576"/><trkpt lat="46.5512367" lon="12.2104817"/><trkpt lat="46.5511907" lon="12.2107152"/><trkpt lat="46.5511457" lon="12.210923"/><trkpt lat="46.5510586" lon="12.2110931"/><trkpt lat="46.5509855" lon="12.2111504"/><trkpt lat="46.5508318" lon="12.2114788"/><trkpt lat="46.550788" lon="12.21167"/><trkpt lat="46.550766" lon="12.211828"/><trkpt lat="46.5506798" lon="12.2120473"/><trkpt lat="46.5506106" lon="12.212226"/><trkpt lat="46.5504904" lon="12.2124188"/><trkpt lat="46.5503922" lon="12.2125829"/><trkpt lat="46.5502699" lon="12.2127947"/><trkpt lat="46.5501381" lon="12.2129439"/><trkpt lat="46.5500222" lon="12.212942"/><trkpt lat="46.5498914" lon="12.2130208"/><trkpt lat="46.5497793" lon="12.2130932"/><trkpt lat="46.5496468" lon="12.2131002"/><trkpt lat="46.5494311" lon="12.2131721"/><trkpt lat="46.5491911" lon="12.2132834"/><trkpt lat="46.5489303" lon="12.2133898"/><trkpt lat="46.5487066" lon="12.2134178"/><trkpt lat="46.5485304" lon="12.2134563"/><trkpt lat="46.5483672" lon="12.2134563"/><trkpt lat="46.5482049" lon="12.2134322"/><trkpt lat="46.5480267" lon="12.2134021"/><trkpt lat="46.5478257" lon="12.2132834"/><trkpt lat="46.5476627" lon="12.2132065"/><trkpt lat="46.5474998" lon="12.2130272"/><trkpt lat="46.5473324" lon="12.2129695"/><trkpt lat="46.547187" lon="12.2128799"/><trkpt lat="46.5471033" lon="12.2127774"/><trkpt lat="46.5470152" lon="12.2126301"/><trkpt lat="46.5469346" lon="12.2124921"/><trkpt lat="46.5468038" lon="12.2124188"/><trkpt lat="46.5466754" lon="12.2123925"/><trkpt lat="46.5466053" lon="12.2124251"/><trkpt lat="46.5465829" lon="12.2125541"/><trkpt lat="46.5465668" lon="12.2127287"/><trkpt lat="46.5465528" lon="12.2130528"/><trkpt lat="46.5465307" lon="12.2132705"/><trkpt lat="46.5465237" lon="12.2135965"/><trkpt lat="46.5464206" lon="12.2138661"/><trkpt lat="46.5463159" lon="12.2141834"/><trkpt lat="46.5462742" lon="12.2143398"/><trkpt lat="46.5461712" lon="12.2144361"/><trkpt lat="46.546125" lon="12.2145203"/><trkpt lat="46.5460304" lon="12.2146754"/><trkpt lat="46.5460066" lon="12.2147564"/><trkpt lat="46.5461167" lon="12.2149421"/><trkpt lat="46.5461651" lon="12.2150125"/><trkpt lat="46.5461932" lon="12.2150331"/><trkpt lat="46.5462311" lon="12.2151997"/><trkpt lat="46.5462591" lon="12.2153937"/><trkpt lat="46.5461792" lon="12.2152922"/><trkpt lat="46.5461933" lon="12.2154551"/><trkpt lat="46.5461917" lon="12.2155946"/><trkpt lat="46.5462381" lon="12.2157994"/><trkpt lat="46.5462443" lon="12.2160513"/><trkpt lat="46.5462984" lon="12.2162093"/><trkpt lat="46.5463636" lon="12.2162973"/><trkpt lat="46.546416" lon="12.2163338"/><trkpt lat="46.5464341" lon="12.2165034"/><trkpt lat="46.5463636" lon="12.2166334"/><trkpt lat="46.5463348" lon="12.2167553"/><trkpt lat="46.5463302" lon="12.2168816"/><trkpt lat="46.5462668" lon="12.2169826"/><trkpt lat="46.5462217" lon="12.2172252"/><trkpt lat="46.5461813" lon="12.2173128"/><trkpt lat="46.5461924" lon="12.2175629"/><trkpt lat="46.5462014" lon="12.2176876"/><trkpt lat="46.5461715" lon="12.2178684"/><trkpt lat="46.5461721" lon="12.2180318"/><trkpt lat="46.546136" lon="12.2181532"/><trkpt lat="46.5460122" lon="12.218249"/><trkpt lat="46.5459037" lon="12.2183794"/><trkpt lat="46.5458293" lon="12.2184516"/><trkpt lat="46.5457353" lon="12.2186002"/><trkpt lat="46.5456805" lon="12.2187139"/><trkpt lat="46.5456489" lon="12.2188254"/><trkpt lat="46.5455903" lon="12.2188975"/><trkpt lat="46.5455587" lon="12.2190811"/><trkpt lat="46.5454955" lon="12.2192385"/><trkpt lat="46.5454121" lon="12.2193008"/><trkpt lat="46.5453444" lon="12.2195796"/><trkpt lat="46.5452655" lon="12.2196058"/><trkpt lat="46.5452046" lon="12.2198288"/><trkpt lat="46.5452272" lon="12.2198845"/><trkpt lat="46.5451888" lon="12.2199599"/><trkpt lat="46.5450986" lon="12.2200583"/><trkpt lat="46.5450783" lon="12.2201928"/><trkpt lat="46.5450468" lon="12.2203701"/><trkpt lat="46.5449881" lon="12.2204583"/><trkpt lat="46.5448934" lon="12.2208026"/><trkpt lat="46.5448573" lon="12.2209272"/><trkpt lat="46.544819" lon="12.2209633"/><trkpt lat="46.5447874" lon="12.221019"/><trkpt lat="46.54472" lon="12.2210892"/><trkpt lat="46.5446521" lon="12.2212519"/><trkpt lat="46.5446591" lon="12.2213444"/><trkpt lat="46.5446115" lon="12.2214158"/><trkpt lat="46.5445641" lon="12.221442"/><trkpt lat="46.5444829" lon="12.2214191"/><trkpt lat="46.5443273" lon="12.221665"/><trkpt lat="46.5443517" lon="12.2218664"/><trkpt lat="46.5442957" lon="12.2220585"/><trkpt lat="46.5442931" lon="12.22211"/><trkpt lat="46.5442248" lon="12.222299"/><trkpt lat="46.5441063" lon="12.2224258"/><trkpt lat="46.543962" lon="12.2223536"/><trkpt lat="46.5438018" lon="12.2224225"/><trkpt lat="46.5437588" lon="12.2225417"/><trkpt lat="46.5438734" lon="12.2227143"/><trkpt lat="46.5439046" lon="12.2228431"/><trkpt lat="46.5438511" lon="12.2229445"/><trkpt lat="46.5437951" lon="12.2229799"/><trkpt lat="46.5436976" lon="12.2230824"/><trkpt lat="46.5435283" lon="12.2231324"/><trkpt lat="46.5433714" lon="12.2231858"/><trkpt lat="46.5431771" lon="12.2232408"/><trkpt lat="46.5429608" lon="12.2233329"/><trkpt lat="46.5428735" lon="12.2233859"/><trkpt lat="46.5427834" lon="12.2234843"/><trkpt lat="46.5425848" lon="12.2236637"/><trkpt lat="46.5424797" lon="12.2237516"/><trkpt lat="46.5423201" lon="12.2238718"/><trkpt lat="46.542275" lon="12.2239505"/><trkpt lat="46.5421802" lon="12.2239505"/><trkpt lat="46.5420945" lon="12.2239735"/><trkpt lat="46.5420224" lon="12.2239669"/><trkpt lat="46.5418036" lon="12.2240587"/><trkpt lat="46.5417156" lon="12.2240784"/><trkpt lat="46.5416238" lon="12.2240888"/><trkpt lat="46.5414488" lon="12.224103"/><trkpt lat="46.541297" lon="12.2240593"/><trkpt lat="46.5411073" lon="12.224045"/><trkpt lat="46.5409375" lon="12.2241374"/><trkpt lat="46.5408383" lon="12.2241505"/><trkpt lat="46.5406714" lon="12.2242227"/><trkpt lat="46.5405699" lon="12.2243178"/><trkpt lat="46.5404756" lon="12.2244818"/><trkpt lat="46.5403218" lon="12.2245834"/><trkpt lat="46.5401887" lon="12.2247112"/><trkpt lat="46.5400669" lon="12.2246948"/><trkpt lat="46.5399219" lon="12.2246645"/><trkpt lat="46.5398504" lon="12.2246522"/><trkpt lat="46.5396794" lon="12.2247148"/><trkpt lat="46.5395221" lon="12.2247621"/><trkpt lat="46.5394038" lon="12.2247867"/><trkpt lat="46.5391896" lon="12.2247869"/><trkpt lat="46.5390326" lon="12.224939"/><trkpt lat="46.538885" lon="12.2251346"/><trkpt lat="46.5386081" lon="12.2253697"/><trkpt lat="46.5383923" lon="12.2255042"/><trkpt lat="46.5381764" lon="12.2255618"/><trkpt lat="46.5380378" lon="12.2256454"/><trkpt lat="46.5379142" lon="12.2257198"/><trkpt lat="46.5378123" lon="12.2258176"/><trkpt lat="46.5376681" lon="12.2258767"/><trkpt lat="46.5374412" lon="12.225848"/><trkpt lat="46.5373698" lon="12.2258891"/><trkpt lat="46.5373203" lon="12.2260077"/><trkpt lat="46.5372502" lon="12.2262084"/><trkpt lat="46.5371731" lon="12.2263044"/><trkpt lat="46.5371384" lon="12.2264365"/><trkpt lat="46.537113" lon="12.2265677"/><trkpt lat="46.5370246" lon="12.226685"/><trkpt lat="46.5369798" lon="12.2268218"/><trkpt lat="46.5369157" lon="12.2269447"/><trkpt lat="46.5368192" lon="12.2270367"/><trkpt lat="46.5366931" lon="12.2271861"/><trkpt lat="46.5365037" lon="12.2273289"/><trkpt lat="46.5364824" lon="12.2271646"/><trkpt lat="46.536363" lon="12.2271638"/><trkpt lat="46.5362093" lon="12.2272272"/><trkpt lat="46.536067" lon="12.227371"/><trkpt lat="46.5358508" lon="12.2273962"/><trkpt lat="46.5357075" lon="12.2275003"/><trkpt lat="46.5355341" lon="12.227603"/><trkpt lat="46.5354072" lon="12.2277235"/><trkpt lat="46.535317" lon="12.2278711"/><trkpt lat="46.535203" lon="12.228022"/><trkpt lat="46.5350745" lon="12.2281785"/><trkpt lat="46.5349156" lon="12.2282828"/><trkpt lat="46.5347622" lon="12.2283522"/><trkpt lat="46.5347174" lon="12.2283327"/><trkpt lat="46.5346054" lon="12.2283522"/><trkpt lat="46.5344889" lon="12.228476"/><trkpt lat="46.5342918" lon="12.2285346"/><trkpt lat="46.5340959" lon="12.2286138"/><trkpt lat="46.5339676" lon="12.2286129"/><trkpt lat="46.5338709" lon="12.2286199"/><trkpt lat="46.5337742" lon="12.2286762"/><trkpt lat="46.5336485" lon="12.2287131"/><trkpt lat="46.5334938" lon="12.2287623"/><trkpt lat="46.5333488" lon="12.2288044"/><trkpt lat="46.5332376" lon="12.2287482"/><trkpt lat="46.5330926" lon="12.2287061"/><trkpt lat="46.5329137" lon="12.2288832"/><trkpt lat="46.5327638" lon="12.2288677"/><trkpt lat="46.5326284" lon="12.2287834"/><trkpt lat="46.5325639" lon="12.2287652"/><trkpt lat="46.5324664" lon="12.2287318"/><trkpt lat="46.5324766" lon="12.22862"/><trkpt lat="46.5325853" lon="12.2285573"/><trkpt lat="46.5326177" lon="12.228553"/><trkpt lat="46.5327398" lon="12.2285187"/><trkpt lat="46.5327718" lon="12.2284953"/><trkpt lat="46.5328055" lon="12.2284692"/><trkpt lat="46.5328401" lon="12.2284358"/><trkpt lat="46.5328147" lon="12.2284064"/><trkpt lat="46.5328434" lon="12.2283818"/><trkpt lat="46.5328107" lon="12.2283738"/><trkpt lat="46.5327768" lon="12.2283656"/><trkpt lat="46.5327413" lon="12.2283641"/><trkpt lat="46.5326574" lon="12.2283062"/><trkpt lat="46.5325081" lon="12.2283163"/><trkpt lat="46.5324536" lon="12.2282501"/><trkpt lat="46.5323583" lon="12.2281787"/><trkpt lat="46.532254" lon="12.2281449"/><trkpt lat="46.5321282" lon="12.2281724"/><trkpt lat="46.5320224" lon="12.2280993"/><trkpt lat="46.5318911" lon="12.2279528"/><trkpt lat="46.5317515" lon="12.2278889"/><trkpt lat="46.5315533" lon="12.2279842"/><trkpt lat="46.5314649" lon="12.2279719"/><trkpt lat="46.5314343" lon="12.2278878"/><trkpt lat="46.531368" lon="12.2277989"/><trkpt lat="46.5312949" lon="12.2277791"/><trkpt lat="46.5312181" lon="12.2279146"/><trkpt lat="46.5311045" lon="12.228088"/><trkpt lat="46.5310092" lon="12.2281597"/><trkpt lat="46.5308869" lon="12.2282298"/><trkpt lat="46.5307088" lon="12.2282137"/><trkpt lat="46.5305474" lon="12.228157"/><trkpt lat="46.5304473" lon="12.2281369"/><trkpt lat="46.5303925" lon="12.2281347"/><trkpt lat="46.5303275" lon="12.2282117"/><trkpt lat="46.5302764" lon="12.228275"/><trkpt lat="46.5301321" lon="12.2284177"/><trkpt lat="46.5300077" lon="12.2284356"/><trkpt lat="46.5298959" lon="12.2284105"/><trkpt lat="46.5297916" lon="12.228381"/><trkpt lat="46.5295288" lon="12.2283858"/><trkpt lat="46.529334" lon="12.2283722"/><trkpt lat="46.5291901" lon="12.2284082"/><trkpt lat="46.5290794" lon="12.2284403"/><trkpt lat="46.5290374" lon="12.2284364"/><trkpt lat="46.5287471" lon="12.2284364"/><trkpt lat="46.5286092" lon="12.2284823"/><trkpt lat="46.5285358" lon="12.2284916"/><trkpt lat="46.5284402" lon="12.2285333"/><trkpt lat="46.5283533" lon="12.2285237"/><trkpt lat="46.5282031" lon="12.2285884"/><trkpt lat="46.5281496" lon="12.2285431"/><trkpt lat="46.5280785" lon="12.2285678"/><trkpt lat="46.5280018" lon="12.2285521"/><trkpt lat="46.5278541" lon="12.228489"/><trkpt lat="46.5275721" lon="12.2285018"/><trkpt lat="46.5273628" lon="12.228616"/><trkpt lat="46.5272811" lon="12.2286844"/><trkpt lat="46.5271976" lon="12.2286363"/><trkpt lat="46.5270256" lon="12.228517"/><trkpt lat="46.5269325" lon="12.228542"/><trkpt lat="46.5268784" lon="12.2284253"/><trkpt lat="46.5268127" lon="12.2283871"/><trkpt lat="46.5267584" lon="12.2282994"/><trkpt lat="46.5266335" lon="12.2283169"/><trkpt lat="46.5265191" lon="12.2283109"/><trkpt lat="46.5264539" lon="12.2283374"/><trkpt lat="46.5261497" lon="12.2285125"/><trkpt lat="46.5260918" lon="12.2285852"/><trkpt lat="46.5259854" lon="12.2286683"/><trkpt lat="46.5258409" lon="12.2286059"/><trkpt lat="46.5256861" lon="12.2284777"/><trkpt lat="46.5255289" lon="12.228336"/><trkpt lat="46.5255075" lon="12.2283093"/><trkpt lat="46.5255042" lon="12.2282631"/><trkpt lat="46.5253704" lon="12.2280759"/><trkpt lat="46.525352" lon="12.2280589"/><trkpt lat="46.5252516" lon="12.228003"/><trkpt lat="46.5250762" lon="12.2278882"/><trkpt lat="46.5250265" lon="12.2278199"/><trkpt lat="46.5250035" lon="12.2277418"/><trkpt lat="46.524924" lon="12.2276214"/><trkpt lat="46.5248856" lon="12.2276648"/><trkpt lat="46.5248578" lon="12.227657"/><trkpt lat="46.5248183" lon="12.2275624"/><trkpt lat="46.5247521" lon="12.2275764"/><trkpt lat="46.5247244" lon="12.2274693"/><trkpt lat="46.5246795" lon="12.2274569"/><trkpt lat="46.5246123" lon="12.2273716"/><trkpt lat="46.5245813" lon="12.2273762"/><trkpt lat="46.5245536" lon="12.2273436"/><trkpt lat="46.5245066" lon="12.2273312"/><trkpt lat="46.5244746" lon="12.2273111"/><trkpt lat="46.5242918" lon="12.2272405"/><trkpt lat="46.5241362" lon="12.227136"/><trkpt lat="46.5240356" lon="12.2270525"/><trkpt lat="46.5240787" lon="12.2269863"/><trkpt lat="46.5240571" lon="12.2269132"/><trkpt lat="46.5239637" lon="12.2268889"/><trkpt lat="46.5236857" lon="12.2268815"/><trkpt lat="46.5234127" lon="12.2267869"/><trkpt lat="46.5232559" lon="12.2267218"/><trkpt lat="46.5231484" lon="12.2266567"/><trkpt lat="46.5230185" lon="12.2267283"/><trkpt lat="46.5228797" lon="12.2265461"/><trkpt lat="46.5226513" lon="12.2264289"/><trkpt lat="46.5222706" lon="12.2260969"/><trkpt lat="46.5221827" lon="12.2260176"/><trkpt lat="46.5220844" lon="12.2259471"/><trkpt lat="46.521992" lon="12.2258354"/><trkpt lat="46.5219376" lon="12.225752"/><trkpt lat="46.5218815" lon="12.2257195"/><trkpt lat="46.5217742" lon="12.2256982"/><trkpt lat="46.5217228" lon="12.2256756"/><trkpt lat="46.5217895" lon="12.2258716"/><trkpt lat="46.521809" lon="12.2260487"/><trkpt lat="46.5217214" lon="12.2261756"/><trkpt lat="46.5217788" lon="12.2264421"/><trkpt lat="46.5217588" lon="12.2266556"/><trkpt lat="46.5217788" lon="12.2264421"/><trkpt lat="46.5217214" lon="12.2261756"/><trkpt lat="46.521809" lon="12.2260487"/><trkpt lat="46.5217895" lon="12.2258716"/><trkpt lat="46.5217228" lon="12.2256756"/><trkpt lat="46.5216227" lon="12.2256676"/><trkpt lat="46.5214653" lon="12.2255514"/><trkpt lat="46.5212872" lon="12.2252477"/><trkpt lat="46.5212169" lon="12.2252056"/><trkpt lat="46.5211199" lon="12.2250411"/><trkpt lat="46.520914" lon="12.2248895"/><trkpt lat="46.5209133" lon="12.2249535"/><trkpt lat="46.5208838" lon="12.2250394"/><trkpt lat="46.5208414" lon="12.2251073"/><trkpt lat="46.5208137" lon="12.2251332"/><trkpt lat="46.5207916" lon="12.2251798"/><trkpt lat="46.5207787" lon="12.225169"/><trkpt lat="46.5207178" lon="12.225169"/><trkpt lat="46.5206846" lon="12.2251717"/><trkpt lat="46.5206421" lon="12.2251905"/><trkpt lat="46.5205941" lon="12.2252146"/><trkpt lat="46.5205554" lon="12.2252254"/><trkpt lat="46.5204945" lon="12.2252039"/><trkpt lat="46.5205554" lon="12.2252254"/><trkpt lat="46.5205941" lon="12.2252146"/><trkpt lat="46.5206421" lon="12.2251905"/><trkpt lat="46.5206846" lon="12.2251717"/><trkpt lat="46.5207178" lon="12.225169"/><trkpt lat="46.5207787" lon="12.225169"/><trkpt lat="46.5207916" lon="12.2251798"/><trkpt lat="46.5208137" lon="12.2251332"/><trkpt lat="46.5208414" lon="12.2251073"/><trkpt lat="46.5208838" lon="12.2250394"/><trkpt lat="46.5209133" lon="12.2249535"/><trkpt lat="46.520914" lon="12.2248895"/><trkpt lat="46.5211199" lon="12.2250411"/><trkpt lat="46.5212169" lon="12.2252056"/><trkpt lat="46.5212872" lon="12.2252477"/><trkpt lat="46.5214653" lon="12.2255514"/><trkpt lat="46.5216227" lon="12.2256676"/><trkpt lat="46.5217228" lon="12.2256756"/><trkpt lat="46.5217895" lon="12.2258716"/><trkpt lat="46.521809" lon="12.2260487"/><trkpt lat="46.5217214" lon="12.2261756"/><trkpt lat="46.5217788" lon="12.2264421"/><trkpt lat="46.5217588" lon="12.2266556"/><trkpt lat="46.5217788" lon="12.2264421"/><trkpt lat="46.5217214" lon="12.2261756"/><trkpt lat="46.521809" lon="12.2260487"/><trkpt lat="46.5217895" lon="12.2258716"/><trkpt lat="46.5217228" lon="12.2256756"/><trkpt lat="46.5217742" lon="12.2256982"/><trkpt lat="46.5218815" lon="12.2257195"/><trkpt lat="46.5219376" lon="12.225752"/><trkpt lat="46.521992" lon="12.2258354"/><trkpt lat="46.5220844" lon="12.2259471"/><trkpt lat="46.5221827" lon="12.2260176"/><trkpt lat="46.5222706" lon="12.2260969"/><trkpt lat="46.5226513" lon="12.2264289"/><trkpt lat="46.5228797" lon="12.2265461"/><trkpt lat="46.5230185" lon="12.2267283"/><trkpt lat="46.5231484" lon="12.2266567"/><trkpt lat="46.5232559" lon="12.2267218"/><trkpt lat="46.5234127" lon="12.2267869"/><trkpt lat="46.5236857" lon="12.2268815"/><trkpt lat="46.5239637" lon="12.2268889"/><trkpt lat="46.5240571" lon="12.2269132"/><trkpt lat="46.5240787" lon="12.2269863"/><trkpt lat="46.5240356" lon="12.2270525"/><trkpt lat="46.5241362" lon="12.227136"/><trkpt lat="46.5242918" lon="12.2272405"/><trkpt lat="46.5244746" lon="12.2273111"/><trkpt lat="46.5245066" lon="12.2273312"/><trkpt lat="46.5245536" lon="12.2273436"/><trkpt lat="46.5245813" lon="12.2273762"/><trkpt lat="46.5246123" lon="12.2273716"/><trkpt lat="46.5246795" lon="12.2274569"/><trkpt lat="46.5247244" lon="12.2274693"/><trkpt lat="46.5247521" lon="12.2275764"/><trkpt lat="46.5248183" lon="12.2275624"/><trkpt lat="46.5248578" lon="12.227657"/><trkpt lat="46.5248856" lon="12.2276648"/><trkpt lat="46.524924" lon="12.2276214"/><trkpt lat="46.5250035" lon="12.2277418"/><trkpt lat="46.5250265" lon="12.2278199"/><trkpt lat="46.5250762" lon="12.2278882"/><trkpt lat="46.5252516" lon="12.228003"/><trkpt lat="46.525352" lon="12.2280589"/><trkpt lat="46.5253704" lon="12.2280759"/><trkpt lat="46.5255042" lon="12.2282631"/><trkpt lat="46.5255075" lon="12.2283093"/><trkpt lat="46.5255289" lon="12.228336"/><trkpt lat="46.5256861" lon="12.2284777"/><trkpt lat="46.5258409" lon="12.2286059"/><trkpt lat="46.5259854" lon="12.2286683"/><trkpt lat="46.5260918" lon="12.2285852"/><trkpt lat="46.5261497" lon="12.2285125"/><trkpt lat="46.5264539" lon="12.2283374"/><trkpt lat="46.5265191" lon="12.2283109"/><trkpt lat="46.5266335" lon="12.2283169"/><trkpt lat="46.5267584" lon="12.2282994"/><trkpt lat="46.5268127" lon="12.2283871"/><trkpt lat="46.5268784" lon="12.2284253"/><trkpt lat="46.5269325" lon="12.228542"/><trkpt lat="46.5270256" lon="12.228517"/><trkpt lat="46.5271976" lon="12.2286363"/><trkpt lat="46.5272811" lon="12.2286844"/><trkpt lat="46.5273628" lon="12.228616"/><trkpt lat="46.5275721" lon="12.2285018"/><trkpt lat="46.5278541" lon="12.228489"/><trkpt lat="46.5280018" lon="12.2285521"/><trkpt lat="46.5280785" lon="12.2285678"/><trkpt lat="46.5281496" lon="12.2285431"/><trkpt lat="46.5282031" lon="12.2285884"/><trkpt lat="46.5283533" lon="12.2285237"/><trkpt lat="46.5284402" lon="12.2285333"/><trkpt lat="46.5285358" lon="12.2284916"/><trkpt lat="46.5286092" lon="12.2284823"/><trkpt lat="46.5287471" lon="12.2284364"/><trkpt lat="46.5290374" lon="12.2284364"/><trkpt lat="46.5290794" lon="12.2284403"/><trkpt lat="46.5291901" lon="12.2284082"/><trkpt lat="46.529334" lon="12.2283722"/><trkpt lat="46.5295288" lon="12.2283858"/><trkpt lat="46.5297916" lon="12.228381"/><trkpt lat="46.5298959" lon="12.2284105"/><trkpt lat="46.5300077" lon="12.2284356"/><trkpt lat="46.5301321" lon="12.2284177"/><trkpt lat="46.5302764" lon="12.228275"/><trkpt lat="46.5303275" lon="12.2282117"/><trkpt lat="46.5303925" lon="12.2281347"/><trkpt lat="46.5304473" lon="12.2281369"/><trkpt lat="46.5305474" lon="12.228157"/><trkpt lat="46.5307088" lon="12.2282137"/><trkpt lat="46.5308869" lon="12.2282298"/><trkpt lat="46.5310092" lon="12.2281597"/><trkpt lat="46.5311045" lon="12.228088"/><trkpt lat="46.5312181" lon="12.2279146"/><trkpt lat="46.5312949" lon="12.2277791"/><trkpt lat="46.531368" lon="12.2277989"/><trkpt lat="46.5314343" lon="12.2278878"/><trkpt lat="46.5314649" lon="12.2279719"/><trkpt lat="46.5315533" lon="12.2279842"/><trkpt lat="46.5317515" lon="12.2278889"/><trkpt lat="46.5318911" lon="12.2279528"/><trkpt lat="46.5320224" lon="12.2280993"/><trkpt lat="46.5321282" lon="12.2281724"/><trkpt lat="46.532254" lon="12.2281449"/><trkpt lat="46.5323583" lon="12.2281787"/><trkpt lat="46.5324536" lon="12.2282501"/><trkpt lat="46.5325081" lon="12.2283163"/><trkpt lat="46.5326574" lon="12.2283062"/><trkpt lat="46.5327413" lon="12.2283641"/><trkpt lat="46.5327768" lon="12.2283656"/><trkpt lat="46.5328107" lon="12.2283738"/><trkpt lat="46.5328434" lon="12.2283818"/><trkpt lat="46.5328147" lon="12.2284064"/><trkpt lat="46.5328401" lon="12.2284358"/><trkpt lat="46.5328055" lon="12.2284692"/><trkpt lat="46.5327718" lon="12.2284953"/><trkpt lat="46.5327398" lon="12.2285187"/><trkpt lat="46.5326177" lon="12.228553"/><trkpt lat="46.5325853" lon="12.2285573"/><trkpt lat="46.5324766" lon="12.22862"/><trkpt lat="46.5324664" lon="12.2287318"/><trkpt lat="46.5325639" lon="12.2287652"/><trkpt lat="46.5326284" lon="12.2287834"/><trkpt lat="46.5327638" lon="12.2288677"/><trkpt lat="46.5329137" lon="12.2288832"/><trkpt lat="46.5330926" lon="12.2287061"/><trkpt lat="46.5332376" lon="12.2287482"/><trkpt lat="46.5333488" lon="12.2288044"/><trkpt lat="46.5334938" lon="12.2287623"/><trkpt lat="46.5336485" lon="12.2287131"/><trkpt lat="46.5337742" lon="12.2286762"/><trkpt lat="46.5338709" lon="12.2286199"/><trkpt lat="46.5339676" lon="12.2286129"/><trkpt lat="46.5340959" lon="12.2286138"/><trkpt lat="46.5342918" lon="12.2285346"/><trkpt lat="46.5344889" lon="12.228476"/><trkpt lat="46.5346054" lon="12.2283522"/><trkpt lat="46.5347174" lon="12.2283327"/><trkpt lat="46.5347622" lon="12.2283522"/><trkpt lat="46.5349156" lon="12.2282828"/><trkpt lat="46.5350745" lon="12.2281785"/><trkpt lat="46.535203" lon="12.228022"/><trkpt lat="46.535317" lon="12.2278711"/><trkpt lat="46.5354072" lon="12.2277235"/><trkpt lat="46.5355341" lon="12.227603"/><trkpt lat="46.5357075" lon="12.2275003"/><trkpt lat="46.5358508" lon="12.2273962"/><trkpt lat="46.536067" lon="12.227371"/><trkpt lat="46.5362093" lon="12.2272272"/><trkpt lat="46.536363" lon="12.2271638"/><trkpt lat="46.5364824" lon="12.2271646"/><trkpt lat="46.5365037" lon="12.2273289"/><trkpt lat="46.5366931" lon="12.2271861"/><trkpt lat="46.5368192" lon="12.2270367"/><trkpt lat="46.5369157" lon="12.2269447"/><trkpt lat="46.5369798" lon="12.2268218"/><trkpt lat="46.5370246" lon="12.226685"/><trkpt lat="46.537113" lon="12.2265677"/><trkpt lat="46.5371384" lon="12.2264365"/><trkpt lat="46.5371731" lon="12.2263044"/><trkpt lat="46.5372502" lon="12.2262084"/><trkpt lat="46.5373203" lon="12.2260077"/><trkpt lat="46.5373698" lon="12.2258891"/><trkpt lat="46.5374412" lon="12.225848"/><trkpt lat="46.5376681" lon="12.2258767"/><trkpt lat="46.5378123" lon="12.2258176"/><trkpt lat="46.5379142" lon="12.2257198"/><trkpt lat="46.5380378" lon="12.2256454"/><trkpt lat="46.5381764" lon="12.2255618"/><trkpt lat="46.5383923" lon="12.2255042"/><trkpt lat="46.5386081" lon="12.2253697"/><trkpt lat="46.538885" lon="12.2251346"/><trkpt lat="46.5390326" lon="12.224939"/><trkpt lat="46.5391896" lon="12.2247869"/><trkpt lat="46.5394038" lon="12.2247867"/><trkpt lat="46.5395221" lon="12.2247621"/><trkpt lat="46.5396794" lon="12.2247148"/><trkpt lat="46.5398504" lon="12.2246522"/><trkpt lat="46.5399219" lon="12.2246645"/><trkpt lat="46.5400669" lon="12.2246948"/><trkpt lat="46.5401887" lon="12.2247112"/><trkpt lat="46.5403218" lon="12.2245834"/><trkpt lat="46.5404756" lon="12.2244818"/><trkpt lat="46.5405699" lon="12.2243178"/><trkpt lat="46.5406714" lon="12.2242227"/><trkpt lat="46.5408383" lon="12.2241505"/><trkpt lat="46.5409375" lon="12.2241374"/><trkpt lat="46.5411073" lon="12.224045"/><trkpt lat="46.541297" lon="12.2240593"/><trkpt lat="46.5414488" lon="12.224103"/><trkpt lat="46.5416238" lon="12.2240888"/><trkpt lat="46.5417156" lon="12.2240784"/><trkpt lat="46.5418036" lon="12.2240587"/><trkpt lat="46.5420224" lon="12.2239669"/><trkpt lat="46.5420945" lon="12.2239735"/><trkpt lat="46.5421802" lon="12.2239505"/><trkpt lat="46.542275" lon="12.2239505"/><trkpt lat="46.5423201" lon="12.2238718"/><trkpt lat="46.5424797" lon="12.2237516"/><trkpt lat="46.5425848" lon="12.2236637"/><trkpt lat="46.5427834" lon="12.2234843"/><trkpt lat="46.5428735" lon="12.2233859"/><trkpt lat="46.5429608" lon="12.2233329"/><trkpt lat="46.5431771" lon="12.2232408"/><trkpt lat="46.5433714" lon="12.2231858"/><trkpt lat="46.5435283" lon="12.2231324"/><trkpt lat="46.5436976" lon="12.2230824"/><trkpt lat="46.5437951" lon="12.2229799"/><trkpt lat="46.5438511" lon="12.2229445"/><trkpt lat="46.5439046" lon="12.2228431"/><trkpt lat="46.5438734" lon="12.2227143"/><trkpt lat="46.5437588" lon="12.2225417"/><trkpt lat="46.5438018" lon="12.2224225"/><trkpt lat="46.543962" lon="12.2223536"/><trkpt lat="46.5441063" lon="12.2224258"/><trkpt lat="46.5442248" lon="12.222299"/><trkpt lat="46.5442931" lon="12.22211"/><trkpt lat="46.5442957" lon="12.2220585"/><trkpt lat="46.5443517" lon="12.2218664"/><trkpt lat="46.5443273" lon="12.221665"/><trkpt lat="46.5444829" lon="12.2214191"/><trkpt lat="46.5445641" lon="12.221442"/><trkpt lat="46.5446115" lon="12.2214158"/><trkpt lat="46.5446591" lon="12.2213444"/><trkpt lat="46.5446521" lon="12.2212519"/><trkpt lat="46.54472" lon="12.2210892"/><trkpt lat="46.5447874" lon="12.221019"/><trkpt lat="46.544819" lon="12.2209633"/><trkpt lat="46.5448573" lon="12.2209272"/><trkpt lat="46.5448934" lon="12.2208026"/><trkpt lat="46.5449881" lon="12.2204583"/><trkpt lat="46.5450468" lon="12.2203701"/><trkpt lat="46.5450783" lon="12.2201928"/><trkpt lat="46.5450986" lon="12.2200583"/><trkpt lat="46.5451888" lon="12.2199599"/><trkpt lat="46.5452272" lon="12.2198845"/><trkpt lat="46.5452046" lon="12.2198288"/><trkpt lat="46.5452655" lon="12.2196058"/><trkpt lat="46.5453444" lon="12.2195796"/><trkpt lat="46.5454121" lon="12.2193008"/><trkpt lat="46.5454955" lon="12.2192385"/><trkpt lat="46.5455587" lon="12.2190811"/><trkpt lat="46.5455903" lon="12.2188975"/><trkpt lat="46.5456489" lon="12.2188254"/><trkpt lat="46.5456805" lon="12.2187139"/><trkpt lat="46.5457353" lon="12.2186002"/><trkpt lat="46.5458293" lon="12.2184516"/><trkpt lat="46.5459037" lon="12.2183794"/><trkpt lat="46.5460122" lon="12.218249"/><trkpt lat="46.546136" lon="12.2181532"/><trkpt lat="46.5461721" lon="12.2180318"/><trkpt lat="46.5461715" lon="12.2178684"/><trkpt lat="46.5462014" lon="12.2176876"/><trkpt lat="46.5461924" lon="12.2175629"/><trkpt lat="46.5461813" lon="12.2173128"/><trkpt lat="46.5462217" lon="12.2172252"/><trkpt lat="46.5462668" lon="12.2169826"/><trkpt lat="46.5463302" lon="12.2168816"/><trkpt lat="46.5463348" lon="12.2167553"/><trkpt lat="46.5463636" lon="12.2166334"/><trkpt lat="46.5464341" lon="12.2165034"/><trkpt lat="46.546416" lon="12.2163338"/><trkpt lat="46.5463636" lon="12.2162973"/><trkpt lat="46.5462984" lon="12.2162093"/><trkpt lat="46.5462443" lon="12.2160513"/><trkpt lat="46.5462381" lon="12.2157994"/><trkpt lat="46.5461917" lon="12.2155946"/><trkpt lat="46.5461933" lon="12.2154551"/><trkpt lat="46.5461792" lon="12.2152922"/><trkpt lat="46.5462591" lon="12.2153937"/><trkpt lat="46.5462311" lon="12.2151997"/><trkpt lat="46.5461932" lon="12.2150331"/><trkpt lat="46.5461651" lon="12.2150125"/><trkpt lat="46.5461167" lon="12.2149421"/><trkpt lat="46.5460066" lon="12.2147564"/><trkpt lat="46.5460304" lon="12.2146754"/><trkpt lat="46.546125" lon="12.2145203"/><trkpt lat="46.5461712" lon="12.2144361"/><trkpt lat="46.5462742" lon="12.2143398"/><trkpt lat="46.5463159" lon="12.2141834"/><trkpt lat="46.5464206" lon="12.2138661"/><trkpt lat="46.5465237" lon="12.2135965"/><trkpt lat="46.5465307" lon="12.2132705"/><trkpt lat="46.5465528" lon="12.2130528"/><trkpt lat="46.5465668" lon="12.2127287"/><trkpt lat="46.5465829" lon="12.2125541"/><trkpt lat="46.5466053" lon="12.2124251"/><trkpt lat="46.5466754" lon="12.2123925"/><trkpt lat="46.5468038" lon="12.2124188"/><trkpt lat="46.5469346" lon="12.2124921"/><trkpt lat="46.5470152" lon="12.2126301"/><trkpt lat="46.5471033" lon="12.2127774"/><trkpt lat="46.547187" lon="12.2128799"/><trkpt lat="46.5473324" lon="12.2129695"/><trkpt lat="46.5474998" lon="12.2130272"/><trkpt lat="46.5476627" lon="12.2132065"/><trkpt lat="46.5478257" lon="12.2132834"/><trkpt lat="46.5480267" lon="12.2134021"/><trkpt lat="46.5482049" lon="12.2134322"/><trkpt lat="46.5483672" lon="12.2134563"/><trkpt lat="46.5485304" lon="12.2134563"/><trkpt lat="46.5487066" lon="12.2134178"/><trkpt lat="46.5489303" lon="12.2133898"/><trkpt lat="46.5491911" lon="12.2132834"/><trkpt lat="46.5494311" lon="12.2131721"/><trkpt lat="46.5496468" lon="12.2131002"/><trkpt lat="46.5497793" lon="12.2130932"/><trkpt lat="46.5498914" lon="12.2130208"/><trkpt lat="46.5500222" lon="12.212942"/><trkpt lat="46.5501381" lon="12.2129439"/><trkpt lat="46.5502699" lon="12.2127947"/><trkpt lat="46.5503922" lon="12.2125829"/><trkpt lat="46.5504904" lon="12.2124188"/><trkpt lat="46.5506106" lon="12.212226"/><trkpt lat="46.5506798" lon="12.2120473"/><trkpt lat="46.550766" lon="12.211828"/><trkpt lat="46.550788" lon="12.21167"/><trkpt lat="46.5508318" lon="12.2114788"/><trkpt lat="46.5509855" lon="12.2111504"/><trkpt lat="46.5510586" lon="12.2110931"/><trkpt lat="46.5511457" lon="12.210923"/><trkpt lat="46.5511907" lon="12.2107152"/><trkpt lat="46.5512367" lon="12.2104817"/><trkpt lat="46.5512456" lon="12.2102576"/><trkpt lat="46.5513449" lon="12.2100427"/><trkpt lat="46.5514372" lon="12.2098407"/><trkpt lat="46.5515122" lon="12.209588"/><trkpt lat="46.5515777" lon="12.2093505"/><trkpt lat="46.5516155" lon="12.2091382"/><trkpt lat="46.5517202" lon="12.2088889"/><trkpt lat="46.5518537" lon="12.2085959"/><trkpt lat="46.5520442" lon="12.2081946"/><trkpt lat="46.5521037" lon="12.2080298"/><trkpt lat="46.5521685" lon="12.207814"/><trkpt lat="46.5522804" lon="12.2075475"/><trkpt lat="46.5523826" lon="12.2073881"/><trkpt lat="46.5525101" lon="12.2071888"/><trkpt lat="46.5526462" lon="12.2070574"/><trkpt lat="46.5527943" lon="12.2069219"/><trkpt lat="46.5529155" lon="12.2068238"/><trkpt lat="46.5529927" lon="12.2068425"/><trkpt lat="46.5531198" lon="12.2069815"/><trkpt lat="46.5531712" lon="12.2071317"/><trkpt lat="46.5531893" lon="12.2073647"/><trkpt lat="46.5532141" lon="12.2075818"/><trkpt lat="46.5532519" lon="12.2077628"/><trkpt lat="46.5533532" lon="12.2078717"/><trkpt lat="46.5535689" lon="12.2076203"/><trkpt lat="46.5537253" lon="12.2073817"/><trkpt lat="46.5539929" lon="12.2069399"/><trkpt lat="46.5541696" lon="12.2066117"/><trkpt lat="46.5543453" lon="12.2063254"/><trkpt lat="46.5544498" lon="12.2062065"/><trkpt lat="46.5545467" lon="12.2059952"/><trkpt lat="46.5545604" lon="12.2057383"/><trkpt lat="46.5545768" lon="12.2055494"/><trkpt lat="46.5546128" lon="12.2054433"/><trkpt lat="46.5547201" lon="12.2053585"/><trkpt lat="46.5548285" lon="12.205317"/><trkpt lat="46.5549673" lon="12.2053029"/><trkpt lat="46.555342" lon="12.2052849"/><trkpt lat="46.5553712" lon="12.2052794"/><trkpt lat="46.5555172" lon="12.2051691"/><trkpt lat="46.5556852" lon="12.2050128"/><trkpt lat="46.5556247" lon="12.2045112"/><trkpt lat="46.5555775" lon="12.203537"/><trkpt lat="46.5556439" lon="12.2031236"/><trkpt lat="46.5556954" lon="12.2028027"/><trkpt lat="46.5558625" lon="12.2020739"/><trkpt lat="46.5559647" lon="12.2016278"/><trkpt lat="46.5560793" lon="12.2013327"/><trkpt lat="46.5561605" lon="12.2013112"/><trkpt lat="46.5562306" lon="12.2013086"/><trkpt lat="46.5563855" lon="12.2013354"/><trkpt lat="46.556664" lon="12.2014829"/><trkpt lat="46.5568484" lon="12.2016492"/><trkpt lat="46.5569609" lon="12.2017565"/><trkpt lat="46.5570248" lon="12.2018532"/></trkseg></trk></gpx>