<?xml version="1.0" encoding="UTF-8"?><kml xmlns="http://www.opengis.net/kml/2.2"><Document><name>Croda da Lago · озеро Federa</name><description>Планировочная реконструкция по OpenStreetMap, 09.09.2026. Не запись GPS и не проверенный навигационный трек. Высоты не экспортированы. Данные © OpenStreetMap contributors, ODbL. Автопереезды и канатки в пеший трек не включены.</description><Style id="track"><LineStyle><color>ff2267b1</color><width>4</width></LineStyle></Style><Placemark><name>Ponte de Ru Curto · старт</name><Point><coordinates>12.07676,46.50517</coordinates></Point></Placemark><Placemark><name>Cason de Formin</name><Point><coordinates>12.0949912,46.5001082</coordinates></Point></Placemark><Placemark><name>Federa · вид на озеро с подхода</name><Point><coordinates>12.1025254,46.4960443</coordinates></Point></Placemark><Placemark><name>Lago Federa · северный берег</name><Point><coordinates>12.1056534,46.4863814</coordinates></Point></Placemark><Placemark><name>Rifugio Croda da Lago · Palmieri</name><Point><coordinates>12.105761225,46.48652768333333</coordinates></Point></Placemark><Placemark><name>Ru Curto — Lago Federa — обратно</name><description>Планировочная реконструкция по OpenStreetMap, 09.09.2026. Не запись GPS и не проверенный навигационный трек. Высоты не экспортированы. Данные © OpenStreetMap contributors, ODbL. Автопереезды и канатки в пеший трек не включены.</description><styleUrl>#track</styleUrl><LineString><tessellate>1</tessellate><altitudeMode>clampToGround</altitudeMode><coordinates>12.076718,46.505153,0 12.0766981,46.5051899,0 12.0766951,46.505233,0 12.0767106,46.50527,0 12.0767742,46.5053072,0 12.0772381,46.5054715,0 12.0777035,46.5056292,0 12.0784777,46.5057906,0 12.0785193,46.5057735,0 12.0788702,46.5058578,0 12.078893,46.5058562,0 12.0789102,46.5058493,0 12.0789123,46.5058358,0 12.0788915,46.5058156,0 12.0785693,46.5056681,0 12.0785358,46.5056512,0 12.0785288,46.5056431,0 12.0785321,46.5056377,0 12.0785444,46.5056351,0 12.0786249,46.5056402,0 12.0786329,46.5056369,0 12.0786352,46.5056296,0 12.0786283,46.505623,0 12.0785722,46.5055936,0 12.0785613,46.5055852,0 12.0785592,46.5055789,0 12.0785676,46.5055561,0 12.0785825,46.5055313,0 12.0786023,46.505527,0 12.0789634,46.5054772,0 12.079114,46.5054154,0 12.0791871,46.5053387,0 12.0792094,46.5052456,0 12.0792653,46.5051631,0 12.0792867,46.5051463,0 12.0793774,46.5051399,0 12.0794293,46.5051547,0 12.079495,46.5052058,0 12.0796022,46.50528,0 12.0796855,46.5053086,0 12.0798661,46.5053775,0 12.080019,46.5053909,0 12.080365,46.5052886,0 12.0804414,46.5052492,0 12.0805809,46.5052418,0 12.0808437,46.5051274,0 12.0810764,46.505144,0 12.0813659,46.505053,0 12.0815548,46.504897,0 12.0817688,46.5047498,0 12.0818871,46.5047286,0 12.0820519,46.5046163,0 12.0821616,46.5046183,0 12.0824259,46.5046208,0 12.0826033,46.5045975,0 12.0829149,46.5045736,0 12.08317,46.5045477,0 12.0835491,46.504633,0 12.0837872,46.5046936,0 12.0841762,46.5047883,0 12.0844418,46.5048429,0 12.0847492,46.5049022,0 12.0850479,46.5049014,0 12.0853689,46.5047887,0 12.0857591,46.5047368,0 12.0860443,46.5046659,0 12.0861948,46.5046252,0 12.0863193,46.5046458,0 12.0866302,46.5046641,0 12.0868676,46.5046658,0 12.0870345,46.5046186,0 12.0871359,46.5045742,0 12.087383,46.5044638,0 12.0875669,46.5044255,0 12.0877397,46.5043538,0 12.0879482,46.5043184,0 12.0882067,46.5042917,0 12.0882815,46.5042948,0 12.0883593,46.5042006,0 12.0884782,46.5041397,0 12.0886248,46.5040843,0 12.0887362,46.503983,0 12.0889946,46.5037664,0 12.0891666,46.5037261,0 12.0895481,46.5035454,0 12.0898565,46.5034328,0 12.0901391,46.5033096,0 12.0903062,46.503283,0 12.0904811,46.503262,0 12.0906505,46.503288,0 12.0908593,46.5033562,0 12.0911187,46.5034412,0 12.0912556,46.5034469,0 12.0913746,46.5034547,0 12.091466,46.5033775,0 12.0915312,46.5033492,0 12.0915195,46.5032935,0 12.0916168,46.5032802,0 12.0916284,46.5032217,0 12.0918107,46.503132,0 12.091806,46.503011,0 12.091839,46.5030063,0 12.0918735,46.5030332,0 12.0919012,46.5030068,0 12.0919027,46.5028885,0 12.0919841,46.5027289,0 12.0920455,46.5027891,0 12.0921008,46.5027405,0 12.092072,46.5026443,0 12.0921269,46.5025197,0 12.0922881,46.5023971,0 12.0925069,46.5020493,0 12.092589,46.5019506,0 12.0927294,46.5018708,0 12.0928735,46.5016952,0 12.0929043,46.501614,0 12.0930004,46.5015858,0 12.0930546,46.5015738,0 12.0931529,46.5015294,0 12.0932698,46.5014587,0 12.0933316,46.5013792,0 12.0935064,46.5012082,0 12.093531,46.5011936,0 12.0935635,46.5011869,0 12.0935875,46.5011913,0 12.0936164,46.5012071,0 12.0936369,46.5012343,0 12.0936426,46.5012663,0 12.0936388,46.5012875,0 12.0936047,46.501349,0 12.0935871,46.5014434,0 12.0936028,46.5014932,0 12.0936387,46.5015181,0 12.0936841,46.501524,0 12.0937167,46.5015266,0 12.0937614,46.501505,0 12.0938492,46.5014597,0 12.0940391,46.5013067,0 12.0941027,46.5012352,0 12.0940735,46.5009694,0 12.0941565,46.5008834,0 12.0942071,46.5007834,0 12.0942927,46.5007801,0 12.0943406,46.5008331,0 12.0944435,46.5007124,0 12.0945413,46.5005072,0 12.0946772,46.5003135,0 12.0947948,46.5002125,0 12.0949252,46.5001205,0 12.095022,46.5001278,0 12.0950811,46.5001365,0 12.0951808,46.5001507,0 12.0953901,46.5002077,0 12.095471,46.500211,0 12.0956171,46.5002049,0 12.095588,46.500141,0 12.095562,46.5000994,0 12.0955002,46.5000537,0 12.0953208,46.4997788,0 12.0952485,46.4995931,0 12.095245,46.499442,0 12.0952172,46.4992791,0 12.0952564,46.4992554,0 12.0953511,46.4992478,0 12.0954751,46.4991571,0 12.0955285,46.4990466,0 12.0956102,46.498904,0 12.0956455,46.4988163,0 12.0957313,46.4987713,0 12.0958507,46.498612,0 12.0961794,46.498513,0 12.0962932,46.4985125,0 12.0964292,46.4985175,0 12.0965733,46.4985267,0 12.0969102,46.4987177,0 12.0971163,46.4988136,0 12.097241,46.4989461,0 12.0975098,46.4991888,0 12.0976796,46.499338,0 12.0978129,46.4993403,0 12.0978892,46.4992674,0 12.0979376,46.4993135,0 12.0979667,46.4993914,0 12.0979908,46.4994855,0 12.0980448,46.4995241,0 12.0981309,46.4995411,0 12.0981234,46.4994847,0 12.0981671,46.4994562,0 12.0982302,46.4995278,0 12.0983237,46.4995813,0 12.0984739,46.4995075,0 12.0985405,46.4995521,0 12.0985678,46.4995942,0 12.0986287,46.4996695,0 12.0986983,46.4996638,0 12.0987052,46.4995676,0 12.0987494,46.4995434,0 12.0989398,46.4994732,0 12.099131,46.4994668,0 12.0991913,46.4994827,0 12.0992184,46.4995254,0 12.0992035,46.4995942,0 12.0991847,46.4996625,0 12.0992467,46.4996704,0 12.0994073,46.4995942,0 12.0994743,46.4996077,0 12.0994931,46.4996625,0 12.0994133,46.4997718,0 12.0994682,46.499909,0 12.0995428,46.5000318,0 12.0995507,46.5002843,0 12.0995632,46.5004238,0 12.0996057,46.5004422,0 12.099643,46.5004389,0 12.0996866,46.5004184,0 12.0997214,46.500387,0 12.0997659,46.5003043,0 12.1000641,46.4999888,0 12.1003199,46.4997777,0 12.1004266,46.4996792,0 12.1004713,46.4995877,0 12.100627,46.4994254,0 12.1006853,46.4993046,0 12.1006959,46.4992515,0 12.1007143,46.4991935,0 12.1007694,46.4991221,0 12.1009141,46.4990436,0 12.1009764,46.4989499,0 12.1010676,46.4988954,0 12.1012248,46.498796,0 12.1013155,46.498741,0 12.1013652,46.4986972,0 12.1014318,46.4986056,0 12.1015038,46.4984236,0 12.1015589,46.4981913,0 12.1015944,46.4980159,0 12.1016244,46.4978733,0 12.1016761,46.4977931,0 12.1018896,46.4974657,0 12.102086,46.4972576,0 12.1021594,46.4971772,0 12.1021612,46.4971051,0 12.1021814,46.4970544,0 12.1022206,46.4970095,0 12.1023083,46.4969507,0 12.1023782,46.4968709,0 12.102426,46.4967836,0 12.102418,46.4966763,0 12.1024205,46.4966457,0 12.1024609,46.4965773,0 12.1025452,46.4964261,0 12.1025725,46.4963114,0 12.1025363,46.4961538,0 12.1025254,46.4960443,0 12.1026209,46.495893,0 12.1027766,46.4956908,0 12.1029368,46.4955039,0 12.1030036,46.4953292,0 12.1029902,46.4951406,0 12.1030803,46.4949427,0 12.1030787,46.4948326,0 12.1030775,46.4947829,0 12.1030931,46.4947042,0 12.1031373,46.4946478,0 12.1032088,46.4946013,0 12.1032832,46.4945335,0 12.103373,46.4944622,0 12.1035777,46.4942201,0 12.1037201,46.4940547,0 12.1038937,46.4939382,0 12.1040228,46.4937054,0 12.1041385,46.4935124,0 12.1043031,46.4933745,0 12.10441,46.4932427,0 12.1044499,46.4930919,0 12.1044383,46.4929785,0 12.1043922,46.4928628,0 12.1042504,46.492644,0 12.1042559,46.4925118,0 12.1042275,46.4923848,0 12.1041991,46.492231,0 12.1041909,46.4919524,0 12.104287,46.4917465,0 12.1041769,46.4913801,0 12.104238,46.4912057,0 12.1043402,46.4910739,0 12.1043631,46.4909239,0 12.1043614,46.4907127,0 12.1043425,46.4904902,0 12.1042921,46.4901609,0 12.1042931,46.4900343,0 12.1046068,46.4895759,0 12.1049845,46.4891772,0 12.1051544,46.4890039,0 12.1053306,46.4887829,0 12.1054141,46.4886021,0 12.1054213,46.4885142,0 12.1054383,46.4884585,0 12.105499,46.4883771,0 12.1055139,46.4883214,0 12.1055161,46.4882613,0 12.1055698,46.4881372,0 12.1055991,46.4880525,0 12.1056172,46.4879601,0 12.105618,46.4879199,0 12.1055987,46.487858,0 12.105565,46.4878128,0 12.1055033,46.4876142,0 12.1054632,46.4875752,0 12.1054166,46.4875285,0 12.1053955,46.4874902,0 12.1053929,46.4874387,0 12.1054442,46.4872143,0 12.1054948,46.4870994,0 12.1054994,46.4870216,0 12.1054918,46.4869408,0 12.1054768,46.4868723,0 12.1054768,46.486812,0 12.1055069,46.4867345,0 12.1055564,46.4866206,0 12.1055613,46.486558,0 12.1055808,46.4864952,0 12.1056392,46.4864052,0 12.1055808,46.4864952,0 12.1056392,46.4864052,0 12.1055808,46.4864952,0 12.1055613,46.486558,0 12.1055564,46.4866206,0 12.1055069,46.4867345,0 12.1054768,46.486812,0 12.1054768,46.4868723,0 12.1054918,46.4869408,0 12.1054994,46.4870216,0 12.1054948,46.4870994,0 12.1054442,46.4872143,0 12.1053929,46.4874387,0 12.1053955,46.4874902,0 12.1054166,46.4875285,0 12.1054632,46.4875752,0 12.1055033,46.4876142,0 12.105565,46.4878128,0 12.1055987,46.487858,0 12.105618,46.4879199,0 12.1056172,46.4879601,0 12.1055991,46.4880525,0 12.1055698,46.4881372,0 12.1055161,46.4882613,0 12.1055139,46.4883214,0 12.105499,46.4883771,0 12.1054383,46.4884585,0 12.1054213,46.4885142,0 12.1054141,46.4886021,0 12.1053306,46.4887829,0 12.1051544,46.4890039,0 12.1049845,46.4891772,0 12.1046068,46.4895759,0 12.1042931,46.4900343,0 12.1042921,46.4901609,0 12.1043425,46.4904902,0 12.1043614,46.4907127,0 12.1043631,46.4909239,0 12.1043402,46.4910739,0 12.104238,46.4912057,0 12.1041769,46.4913801,0 12.104287,46.4917465,0 12.1041909,46.4919524,0 12.1041991,46.492231,0 12.1042275,46.4923848,0 12.1042559,46.4925118,0 12.1042504,46.492644,0 12.1043922,46.4928628,0 12.1044383,46.4929785,0 12.1044499,46.4930919,0 12.10441,46.4932427,0 12.1043031,46.4933745,0 12.1041385,46.4935124,0 12.1040228,46.4937054,0 12.1038937,46.4939382,0 12.1037201,46.4940547,0 12.1035777,46.4942201,0 12.103373,46.4944622,0 12.1032832,46.4945335,0 12.1032088,46.4946013,0 12.1031373,46.4946478,0 12.1030931,46.4947042,0 12.1030775,46.4947829,0 12.1030787,46.4948326,0 12.1030803,46.4949427,0 12.1029902,46.4951406,0 12.1030036,46.4953292,0 12.1029368,46.4955039,0 12.1027766,46.4956908,0 12.1026209,46.495893,0 12.1025254,46.4960443,0 12.1025363,46.4961538,0 12.1025725,46.4963114,0 12.1025452,46.4964261,0 12.1024609,46.4965773,0 12.1024205,46.4966457,0 12.102418,46.4966763,0 12.102426,46.4967836,0 12.1023782,46.4968709,0 12.1023083,46.4969507,0 12.1022206,46.4970095,0 12.1021814,46.4970544,0 12.1021612,46.4971051,0 12.1021594,46.4971772,0 12.102086,46.4972576,0 12.1018896,46.4974657,0 12.1016761,46.4977931,0 12.1016244,46.4978733,0 12.1015944,46.4980159,0 12.1015589,46.4981913,0 12.1015038,46.4984236,0 12.1014318,46.4986056,0 12.1013652,46.4986972,0 12.1013155,46.498741,0 12.1012248,46.498796,0 12.1010676,46.4988954,0 12.1009764,46.4989499,0 12.1009141,46.4990436,0 12.1007694,46.4991221,0 12.1007143,46.4991935,0 12.1006959,46.4992515,0 12.1006853,46.4993046,0 12.100627,46.4994254,0 12.1004713,46.4995877,0 12.1004266,46.4996792,0 12.1003199,46.4997777,0 12.1000641,46.4999888,0 12.0997659,46.5003043,0 12.0997214,46.500387,0 12.0996866,46.5004184,0 12.099643,46.5004389,0 12.0996057,46.5004422,0 12.0995632,46.5004238,0 12.0995507,46.5002843,0 12.0995428,46.5000318,0 12.0994682,46.499909,0 12.0994133,46.4997718,0 12.0994931,46.4996625,0 12.0994743,46.4996077,0 12.0994073,46.4995942,0 12.0992467,46.4996704,0 12.0991847,46.4996625,0 12.0992035,46.4995942,0 12.0992184,46.4995254,0 12.0991913,46.4994827,0 12.099131,46.4994668,0 12.0989398,46.4994732,0 12.0987494,46.4995434,0 12.0987052,46.4995676,0 12.0986983,46.4996638,0 12.0986287,46.4996695,0 12.0985678,46.4995942,0 12.0985405,46.4995521,0 12.0984739,46.4995075,0 12.0983237,46.4995813,0 12.0982302,46.4995278,0 12.0981671,46.4994562,0 12.0981234,46.4994847,0 12.0981309,46.4995411,0 12.0980448,46.4995241,0 12.0979908,46.4994855,0 12.0979667,46.4993914,0 12.0979376,46.4993135,0 12.0978892,46.4992674,0 12.0978129,46.4993403,0 12.0976796,46.499338,0 12.0975098,46.4991888,0 12.097241,46.4989461,0 12.0971163,46.4988136,0 12.0969102,46.4987177,0 12.0965733,46.4985267,0 12.0964292,46.4985175,0 12.0962932,46.4985125,0 12.0961794,46.498513,0 12.0958507,46.498612,0 12.0957313,46.4987713,0 12.0956455,46.4988163,0 12.0956102,46.498904,0 12.0955285,46.4990466,0 12.0954751,46.4991571,0 12.0953511,46.4992478,0 12.0952564,46.4992554,0 12.0952172,46.4992791,0 12.095245,46.499442,0 12.0952485,46.4995931,0 12.0953208,46.4997788,0 12.0955002,46.5000537,0 12.095562,46.5000994,0 12.095588,46.500141,0 12.0956171,46.5002049,0 12.095471,46.500211,0 12.0953901,46.5002077,0 12.0951808,46.5001507,0 12.0950811,46.5001365,0 12.095022,46.5001278,0 12.0949252,46.5001205,0 12.0947948,46.5002125,0 12.0946772,46.5003135,0 12.0945413,46.5005072,0 12.0944435,46.5007124,0 12.0943406,46.5008331,0 12.0942927,46.5007801,0 12.0942071,46.5007834,0 12.0941565,46.5008834,0 12.0940735,46.5009694,0 12.0941027,46.5012352,0 12.0940391,46.5013067,0 12.0938492,46.5014597,0 12.0937614,46.501505,0 12.0937167,46.5015266,0 12.0936841,46.501524,0 12.0936387,46.5015181,0 12.0936028,46.5014932,0 12.0935871,46.5014434,0 12.0936047,46.501349,0 12.0936388,46.5012875,0 12.0936426,46.5012663,0 12.0936369,46.5012343,0 12.0936164,46.5012071,0 12.0935875,46.5011913,0 12.0935635,46.5011869,0 12.093531,46.5011936,0 12.0935064,46.5012082,0 12.0933316,46.5013792,0 12.0932698,46.5014587,0 12.0931529,46.5015294,0 12.0930546,46.5015738,0 12.0930004,46.5015858,0 12.0929043,46.501614,0 12.0928735,46.5016952,0 12.0927294,46.5018708,0 12.092589,46.5019506,0 12.0925069,46.5020493,0 12.0922881,46.5023971,0 12.0921269,46.5025197,0 12.092072,46.5026443,0 12.0921008,46.5027405,0 12.0920455,46.5027891,0 12.0919841,46.5027289,0 12.0919027,46.5028885,0 12.0919012,46.5030068,0 12.0918735,46.5030332,0 12.091839,46.5030063,0 12.091806,46.503011,0 12.0918107,46.503132,0 12.0916284,46.5032217,0 12.0916168,46.5032802,0 12.0915195,46.5032935,0 12.0915312,46.5033492,0 12.091466,46.5033775,0 12.0913746,46.5034547,0 12.0912556,46.5034469,0 12.0911187,46.5034412,0 12.0908593,46.5033562,0 12.0906505,46.503288,0 12.0904811,46.503262,0 12.0903062,46.503283,0 12.0901391,46.5033096,0 12.0898565,46.5034328,0 12.0895481,46.5035454,0 12.0891666,46.5037261,0 12.0889946,46.5037664,0 12.0887362,46.503983,0 12.0886248,46.5040843,0 12.0884782,46.5041397,0 12.0883593,46.5042006,0 12.0882815,46.5042948,0 12.0882067,46.5042917,0 12.0879482,46.5043184,0 12.0877397,46.5043538,0 12.0875669,46.5044255,0 12.087383,46.5044638,0 12.0871359,46.5045742,0 12.0870345,46.5046186,0 12.0868676,46.5046658,0 12.0866302,46.5046641,0 12.0863193,46.5046458,0 12.0861948,46.5046252,0 12.0860443,46.5046659,0 12.0857591,46.5047368,0 12.0853689,46.5047887,0 12.0850479,46.5049014,0 12.0847492,46.5049022,0 12.0844418,46.5048429,0 12.0841762,46.5047883,0 12.0837872,46.5046936,0 12.0835491,46.504633,0 12.08317,46.5045477,0 12.0829149,46.5045736,0 12.0826033,46.5045975,0 12.0824259,46.5046208,0 12.0821616,46.5046183,0 12.0820519,46.5046163,0 12.0818871,46.5047286,0 12.0817688,46.5047498,0 12.0815548,46.504897,0 12.0813659,46.505053,0 12.0810764,46.505144,0 12.0808437,46.5051274,0 12.0805809,46.5052418,0 12.0804414,46.5052492,0 12.080365,46.5052886,0 12.080019,46.5053909,0 12.0798661,46.5053775,0 12.0796855,46.5053086,0 12.0796022,46.50528,0 12.079495,46.5052058,0 12.0794293,46.5051547,0 12.0793774,46.5051399,0 12.0792867,46.5051463,0 12.0792653,46.5051631,0 12.0792094,46.5052456,0 12.0791871,46.5053387,0 12.079114,46.5054154,0 12.0789634,46.5054772,0 12.0786023,46.505527,0 12.0785825,46.5055313,0 12.0785676,46.5055561,0 12.0785592,46.5055789,0 12.0785613,46.5055852,0 12.0785722,46.5055936,0 12.0786283,46.505623,0 12.0786352,46.5056296,0 12.0786329,46.5056369,0 12.0786249,46.5056402,0 12.0785444,46.5056351,0 12.0785321,46.5056377,0 12.0785288,46.5056431,0 12.0785358,46.5056512,0 12.0785693,46.5056681,0 12.0788915,46.5058156,0 12.0789123,46.5058358,0 12.0789102,46.5058493,0 12.078893,46.5058562,0 12.0788702,46.5058578,0 12.0785193,46.5057735,0 12.0784777,46.5057906,0 12.0777035,46.5056292,0 12.0772381,46.5054715,0 12.0767742,46.5053072,0 12.0767106,46.50527,0 12.0766951,46.505233,0 12.0766981,46.5051899,0 12.076718,46.505153,0</coordinates></LineString></Placemark></Document></kml>