<?xml version="1.0" encoding="UTF-8"?><gpx version="1.1" creator="Dolomites Atlas" xmlns="http://www.topografix.com/GPX/1/1"><metadata><name>Croda da Lago · озеро Federa</name><desc>Планировочная реконструкция по OpenStreetMap, 09.09.2026. Не запись GPS и не проверенный навигационный трек. Высоты не экспортированы. Данные © OpenStreetMap contributors, ODbL. Автопереезды и канатки в пеший трек не включены.</desc><link href="https://www.openstreetmap.org/copyright"><text>OpenStreetMap contributors · ODbL</text></link></metadata><wpt lat="46.50517" lon="12.07676"><name>Ponte de Ru Curto · старт</name></wpt><wpt lat="46.5001082" lon="12.0949912"><name>Cason de Formin</name></wpt><wpt lat="46.4960443" lon="12.1025254"><name>Federa · вид на озеро с подхода</name></wpt><wpt lat="46.48652768333333" lon="12.105761225"><name>Rifugio Croda da Lago · Palmieri</name></wpt><wpt lat="46.4863814" lon="12.1056534"><name>Lago Federa · северный берег</name></wpt><trk><name>Ru Curto — Lago Federa — обратно</name><desc>Планировочная реконструкция по OpenStreetMap, 09.09.2026. Не запись GPS и не проверенный навигационный трек. Высоты не экспортированы. Данные © OpenStreetMap contributors, ODbL. Автопереезды и канатки в пеший трек не включены.</desc><type>hiking</type><trkseg><trkpt lat="46.505153" lon="12.076718"/><trkpt lat="46.5051899" lon="12.0766981"/><trkpt lat="46.505233" lon="12.0766951"/><trkpt lat="46.50527" lon="12.0767106"/><trkpt lat="46.5053072" lon="12.0767742"/><trkpt lat="46.5054715" lon="12.0772381"/><trkpt lat="46.5056292" lon="12.0777035"/><trkpt lat="46.5057906" lon="12.0784777"/><trkpt lat="46.5057735" lon="12.0785193"/><trkpt lat="46.5058578" lon="12.0788702"/><trkpt lat="46.5058562" lon="12.078893"/><trkpt lat="46.5058493" lon="12.0789102"/><trkpt lat="46.5058358" lon="12.0789123"/><trkpt lat="46.5058156" lon="12.0788915"/><trkpt lat="46.5056681" lon="12.0785693"/><trkpt lat="46.5056512" lon="12.0785358"/><trkpt lat="46.5056431" lon="12.0785288"/><trkpt lat="46.5056377" lon="12.0785321"/><trkpt lat="46.5056351" lon="12.0785444"/><trkpt lat="46.5056402" lon="12.0786249"/><trkpt lat="46.5056369" lon="12.0786329"/><trkpt lat="46.5056296" lon="12.0786352"/><trkpt lat="46.505623" lon="12.0786283"/><trkpt lat="46.5055936" lon="12.0785722"/><trkpt lat="46.5055852" lon="12.0785613"/><trkpt lat="46.5055789" lon="12.0785592"/><trkpt lat="46.5055561" lon="12.0785676"/><trkpt lat="46.5055313" lon="12.0785825"/><trkpt lat="46.505527" lon="12.0786023"/><trkpt lat="46.5054772" lon="12.0789634"/><trkpt lat="46.5054154" lon="12.079114"/><trkpt lat="46.5053387" lon="12.0791871"/><trkpt lat="46.5052456" lon="12.0792094"/><trkpt lat="46.5051631" lon="12.0792653"/><trkpt lat="46.5051463" lon="12.0792867"/><trkpt lat="46.5051399" lon="12.0793774"/><trkpt lat="46.5051547" lon="12.0794293"/><trkpt lat="46.5052058" lon="12.079495"/><trkpt lat="46.50528" lon="12.0796022"/><trkpt lat="46.5053086" lon="12.0796855"/><trkpt lat="46.5053775" lon="12.0798661"/><trkpt lat="46.5053909" lon="12.080019"/><trkpt lat="46.5052886" lon="12.080365"/><trkpt lat="46.5052492" lon="12.0804414"/><trkpt lat="46.5052418" lon="12.0805809"/><trkpt lat="46.5051274" lon="12.0808437"/><trkpt lat="46.505144" lon="12.0810764"/><trkpt lat="46.505053" lon="12.0813659"/><trkpt lat="46.504897" lon="12.0815548"/><trkpt lat="46.5047498" lon="12.0817688"/><trkpt lat="46.5047286" lon="12.0818871"/><trkpt lat="46.5046163" lon="12.0820519"/><trkpt lat="46.5046183" lon="12.0821616"/><trkpt lat="46.5046208" lon="12.0824259"/><trkpt lat="46.5045975" lon="12.0826033"/><trkpt lat="46.5045736" lon="12.0829149"/><trkpt lat="46.5045477" lon="12.08317"/><trkpt lat="46.504633" lon="12.0835491"/><trkpt lat="46.5046936" lon="12.0837872"/><trkpt lat="46.5047883" lon="12.0841762"/><trkpt lat="46.5048429" lon="12.0844418"/><trkpt lat="46.5049022" lon="12.0847492"/><trkpt lat="46.5049014" lon="12.0850479"/><trkpt lat="46.5047887" lon="12.0853689"/><trkpt lat="46.5047368" lon="12.0857591"/><trkpt lat="46.5046659" lon="12.0860443"/><trkpt lat="46.5046252" lon="12.0861948"/><trkpt lat="46.5046458" lon="12.0863193"/><trkpt lat="46.5046641" lon="12.0866302"/><trkpt lat="46.5046658" lon="12.0868676"/><trkpt lat="46.5046186" lon="12.0870345"/><trkpt lat="46.5045742" lon="12.0871359"/><trkpt lat="46.5044638" lon="12.087383"/><trkpt lat="46.5044255" lon="12.0875669"/><trkpt lat="46.5043538" lon="12.0877397"/><trkpt lat="46.5043184" lon="12.0879482"/><trkpt lat="46.5042917" lon="12.0882067"/><trkpt lat="46.5042948" lon="12.0882815"/><trkpt lat="46.5042006" lon="12.0883593"/><trkpt lat="46.5041397" lon="12.0884782"/><trkpt lat="46.5040843" lon="12.0886248"/><trkpt lat="46.503983" lon="12.0887362"/><trkpt lat="46.5037664" lon="12.0889946"/><trkpt lat="46.5037261" lon="12.0891666"/><trkpt lat="46.5035454" lon="12.0895481"/><trkpt lat="46.5034328" lon="12.0898565"/><trkpt lat="46.5033096" lon="12.0901391"/><trkpt lat="46.503283" lon="12.0903062"/><trkpt lat="46.503262" lon="12.0904811"/><trkpt lat="46.503288" lon="12.0906505"/><trkpt lat="46.5033562" lon="12.0908593"/><trkpt lat="46.5034412" lon="12.0911187"/><trkpt lat="46.5034469" lon="12.0912556"/><trkpt lat="46.5034547" lon="12.0913746"/><trkpt lat="46.5033775" lon="12.091466"/><trkpt lat="46.5033492" lon="12.0915312"/><trkpt lat="46.5032935" lon="12.0915195"/><trkpt lat="46.5032802" lon="12.0916168"/><trkpt lat="46.5032217" lon="12.0916284"/><trkpt lat="46.503132" lon="12.0918107"/><trkpt lat="46.503011" lon="12.091806"/><trkpt lat="46.5030063" lon="12.091839"/><trkpt lat="46.5030332" lon="12.0918735"/><trkpt lat="46.5030068" lon="12.0919012"/><trkpt lat="46.5028885" lon="12.0919027"/><trkpt lat="46.5027289" lon="12.0919841"/><trkpt lat="46.5027891" lon="12.0920455"/><trkpt lat="46.5027405" lon="12.0921008"/><trkpt lat="46.5026443" lon="12.092072"/><trkpt lat="46.5025197" lon="12.0921269"/><trkpt lat="46.5023971" lon="12.0922881"/><trkpt lat="46.5020493" lon="12.0925069"/><trkpt lat="46.5019506" lon="12.092589"/><trkpt lat="46.5018708" lon="12.0927294"/><trkpt lat="46.5016952" lon="12.0928735"/><trkpt lat="46.501614" lon="12.0929043"/><trkpt lat="46.5015858" lon="12.0930004"/><trkpt lat="46.5015738" lon="12.0930546"/><trkpt lat="46.5015294" lon="12.0931529"/><trkpt lat="46.5014587" lon="12.0932698"/><trkpt lat="46.5013792" lon="12.0933316"/><trkpt lat="46.5012082" lon="12.0935064"/><trkpt lat="46.5011936" lon="12.093531"/><trkpt lat="46.5011869" lon="12.0935635"/><trkpt lat="46.5011913" lon="12.0935875"/><trkpt lat="46.5012071" lon="12.0936164"/><trkpt lat="46.5012343" lon="12.0936369"/><trkpt lat="46.5012663" lon="12.0936426"/><trkpt lat="46.5012875" lon="12.0936388"/><trkpt lat="46.501349" lon="12.0936047"/><trkpt lat="46.5014434" lon="12.0935871"/><trkpt lat="46.5014932" lon="12.0936028"/><trkpt lat="46.5015181" lon="12.0936387"/><trkpt lat="46.501524" lon="12.0936841"/><trkpt lat="46.5015266" lon="12.0937167"/><trkpt lat="46.501505" lon="12.0937614"/><trkpt lat="46.5014597" lon="12.0938492"/><trkpt lat="46.5013067" lon="12.0940391"/><trkpt lat="46.5012352" lon="12.0941027"/><trkpt lat="46.5009694" lon="12.0940735"/><trkpt lat="46.5008834" lon="12.0941565"/><trkpt lat="46.5007834" lon="12.0942071"/><trkpt lat="46.5007801" lon="12.0942927"/><trkpt lat="46.5008331" lon="12.0943406"/><trkpt lat="46.5007124" lon="12.0944435"/><trkpt lat="46.5005072" lon="12.0945413"/><trkpt lat="46.5003135" lon="12.0946772"/><trkpt lat="46.5002125" lon="12.0947948"/><trkpt lat="46.5001205" lon="12.0949252"/><trkpt lat="46.5001278" lon="12.095022"/><trkpt lat="46.5001365" lon="12.0950811"/><trkpt lat="46.5001507" lon="12.0951808"/><trkpt lat="46.5002077" lon="12.0953901"/><trkpt lat="46.500211" lon="12.095471"/><trkpt lat="46.5002049" lon="12.0956171"/><trkpt lat="46.500141" lon="12.095588"/><trkpt lat="46.5000994" lon="12.095562"/><trkpt lat="46.5000537" lon="12.0955002"/><trkpt lat="46.4997788" lon="12.0953208"/><trkpt lat="46.4995931" lon="12.0952485"/><trkpt lat="46.499442" lon="12.095245"/><trkpt lat="46.4992791" lon="12.0952172"/><trkpt lat="46.4992554" lon="12.0952564"/><trkpt lat="46.4992478" lon="12.0953511"/><trkpt lat="46.4991571" lon="12.0954751"/><trkpt lat="46.4990466" lon="12.0955285"/><trkpt lat="46.498904" lon="12.0956102"/><trkpt lat="46.4988163" lon="12.0956455"/><trkpt lat="46.4987713" lon="12.0957313"/><trkpt lat="46.498612" lon="12.0958507"/><trkpt lat="46.498513" lon="12.0961794"/><trkpt lat="46.4985125" lon="12.0962932"/><trkpt lat="46.4985175" lon="12.0964292"/><trkpt lat="46.4985267" lon="12.0965733"/><trkpt lat="46.4987177" lon="12.0969102"/><trkpt lat="46.4988136" lon="12.0971163"/><trkpt lat="46.4989461" lon="12.097241"/><trkpt lat="46.4991888" lon="12.0975098"/><trkpt lat="46.499338" lon="12.0976796"/><trkpt lat="46.4993403" lon="12.0978129"/><trkpt lat="46.4992674" lon="12.0978892"/><trkpt lat="46.4993135" lon="12.0979376"/><trkpt lat="46.4993914" lon="12.0979667"/><trkpt lat="46.4994855" lon="12.0979908"/><trkpt lat="46.4995241" lon="12.0980448"/><trkpt lat="46.4995411" lon="12.0981309"/><trkpt lat="46.4994847" lon="12.0981234"/><trkpt lat="46.4994562" lon="12.0981671"/><trkpt lat="46.4995278" lon="12.0982302"/><trkpt lat="46.4995813" lon="12.0983237"/><trkpt lat="46.4995075" lon="12.0984739"/><trkpt lat="46.4995521" lon="12.0985405"/><trkpt lat="46.4995942" lon="12.0985678"/><trkpt lat="46.4996695" lon="12.0986287"/><trkpt lat="46.4996638" lon="12.0986983"/><trkpt lat="46.4995676" lon="12.0987052"/><trkpt lat="46.4995434" lon="12.0987494"/><trkpt lat="46.4994732" lon="12.0989398"/><trkpt lat="46.4994668" lon="12.099131"/><trkpt lat="46.4994827" lon="12.0991913"/><trkpt lat="46.4995254" lon="12.0992184"/><trkpt lat="46.4995942" lon="12.0992035"/><trkpt lat="46.4996625" lon="12.0991847"/><trkpt lat="46.4996704" lon="12.0992467"/><trkpt lat="46.4995942" lon="12.0994073"/><trkpt lat="46.4996077" lon="12.0994743"/><trkpt lat="46.4996625" lon="12.0994931"/><trkpt lat="46.4997718" lon="12.0994133"/><trkpt lat="46.499909" lon="12.0994682"/><trkpt lat="46.5000318" lon="12.0995428"/><trkpt lat="46.5002843" lon="12.0995507"/><trkpt lat="46.5004238" lon="12.0995632"/><trkpt lat="46.5004422" lon="12.0996057"/><trkpt lat="46.5004389" lon="12.099643"/><trkpt lat="46.5004184" lon="12.0996866"/><trkpt lat="46.500387" lon="12.0997214"/><trkpt lat="46.5003043" lon="12.0997659"/><trkpt lat="46.4999888" lon="12.1000641"/><trkpt lat="46.4997777" lon="12.1003199"/><trkpt lat="46.4996792" lon="12.1004266"/><trkpt lat="46.4995877" lon="12.1004713"/><trkpt lat="46.4994254" lon="12.100627"/><trkpt lat="46.4993046" lon="12.1006853"/><trkpt lat="46.4992515" lon="12.1006959"/><trkpt lat="46.4991935" lon="12.1007143"/><trkpt lat="46.4991221" lon="12.1007694"/><trkpt lat="46.4990436" lon="12.1009141"/><trkpt lat="46.4989499" lon="12.1009764"/><trkpt lat="46.4988954" lon="12.1010676"/><trkpt lat="46.498796" lon="12.1012248"/><trkpt lat="46.498741" lon="12.1013155"/><trkpt lat="46.4986972" lon="12.1013652"/><trkpt lat="46.4986056" lon="12.1014318"/><trkpt lat="46.4984236" lon="12.1015038"/><trkpt lat="46.4981913" lon="12.1015589"/><trkpt lat="46.4980159" lon="12.1015944"/><trkpt lat="46.4978733" lon="12.1016244"/><trkpt lat="46.4977931" lon="12.1016761"/><trkpt lat="46.4974657" lon="12.1018896"/><trkpt lat="46.4972576" lon="12.102086"/><trkpt lat="46.4971772" lon="12.1021594"/><trkpt lat="46.4971051" lon="12.1021612"/><trkpt lat="46.4970544" lon="12.1021814"/><trkpt lat="46.4970095" lon="12.1022206"/><trkpt lat="46.4969507" lon="12.1023083"/><trkpt lat="46.4968709" lon="12.1023782"/><trkpt lat="46.4967836" lon="12.102426"/><trkpt lat="46.4966763" lon="12.102418"/><trkpt lat="46.4966457" lon="12.1024205"/><trkpt lat="46.4965773" lon="12.1024609"/><trkpt lat="46.4964261" lon="12.1025452"/><trkpt lat="46.4963114" lon="12.1025725"/><trkpt lat="46.4961538" lon="12.1025363"/><trkpt lat="46.4960443" lon="12.1025254"/><trkpt lat="46.495893" lon="12.1026209"/><trkpt lat="46.4956908" lon="12.1027766"/><trkpt lat="46.4955039" lon="12.1029368"/><trkpt lat="46.4953292" lon="12.1030036"/><trkpt lat="46.4951406" lon="12.1029902"/><trkpt lat="46.4949427" lon="12.1030803"/><trkpt lat="46.4948326" lon="12.1030787"/><trkpt lat="46.4947829" lon="12.1030775"/><trkpt lat="46.4947042" lon="12.1030931"/><trkpt lat="46.4946478" lon="12.1031373"/><trkpt lat="46.4946013" lon="12.1032088"/><trkpt lat="46.4945335" lon="12.1032832"/><trkpt lat="46.4944622" lon="12.103373"/><trkpt lat="46.4942201" lon="12.1035777"/><trkpt lat="46.4940547" lon="12.1037201"/><trkpt lat="46.4939382" lon="12.1038937"/><trkpt lat="46.4937054" lon="12.1040228"/><trkpt lat="46.4935124" lon="12.1041385"/><trkpt lat="46.4933745" lon="12.1043031"/><trkpt lat="46.4932427" lon="12.10441"/><trkpt lat="46.4930919" lon="12.1044499"/><trkpt lat="46.4929785" lon="12.1044383"/><trkpt lat="46.4928628" lon="12.1043922"/><trkpt lat="46.492644" lon="12.1042504"/><trkpt lat="46.4925118" lon="12.1042559"/><trkpt lat="46.4923848" lon="12.1042275"/><trkpt lat="46.492231" lon="12.1041991"/><trkpt lat="46.4919524" lon="12.1041909"/><trkpt lat="46.4917465" lon="12.104287"/><trkpt lat="46.4913801" lon="12.1041769"/><trkpt lat="46.4912057" lon="12.104238"/><trkpt lat="46.4910739" lon="12.1043402"/><trkpt lat="46.4909239" lon="12.1043631"/><trkpt lat="46.4907127" lon="12.1043614"/><trkpt lat="46.4904902" lon="12.1043425"/><trkpt lat="46.4901609" lon="12.1042921"/><trkpt lat="46.4900343" lon="12.1042931"/><trkpt lat="46.4895759" lon="12.1046068"/><trkpt lat="46.4891772" lon="12.1049845"/><trkpt lat="46.4890039" lon="12.1051544"/><trkpt lat="46.4887829" lon="12.1053306"/><trkpt lat="46.4886021" lon="12.1054141"/><trkpt lat="46.4885142" lon="12.1054213"/><trkpt lat="46.4884585" lon="12.1054383"/><trkpt lat="46.4883771" lon="12.105499"/><trkpt lat="46.4883214" lon="12.1055139"/><trkpt lat="46.4882613" lon="12.1055161"/><trkpt lat="46.4881372" lon="12.1055698"/><trkpt lat="46.4880525" lon="12.1055991"/><trkpt lat="46.4879601" lon="12.1056172"/><trkpt lat="46.4879199" lon="12.105618"/><trkpt lat="46.487858" lon="12.1055987"/><trkpt lat="46.4878128" lon="12.105565"/><trkpt lat="46.4876142" lon="12.1055033"/><trkpt lat="46.4875752" lon="12.1054632"/><trkpt lat="46.4875285" lon="12.1054166"/><trkpt lat="46.4874902" lon="12.1053955"/><trkpt lat="46.4874387" lon="12.1053929"/><trkpt lat="46.4872143" lon="12.1054442"/><trkpt lat="46.4870994" lon="12.1054948"/><trkpt lat="46.4870216" lon="12.1054994"/><trkpt lat="46.4869408" lon="12.1054918"/><trkpt lat="46.4868723" lon="12.1054768"/><trkpt lat="46.486812" lon="12.1054768"/><trkpt lat="46.4867345" lon="12.1055069"/><trkpt lat="46.4866206" lon="12.1055564"/><trkpt lat="46.486558" lon="12.1055613"/><trkpt lat="46.4864952" lon="12.1055808"/><trkpt lat="46.4864052" lon="12.1056392"/><trkpt lat="46.4864952" lon="12.1055808"/><trkpt lat="46.4864052" lon="12.1056392"/><trkpt lat="46.4864952" lon="12.1055808"/><trkpt lat="46.486558" lon="12.1055613"/><trkpt lat="46.4866206" lon="12.1055564"/><trkpt lat="46.4867345" lon="12.1055069"/><trkpt lat="46.486812" lon="12.1054768"/><trkpt lat="46.4868723" lon="12.1054768"/><trkpt lat="46.4869408" lon="12.1054918"/><trkpt lat="46.4870216" lon="12.1054994"/><trkpt lat="46.4870994" lon="12.1054948"/><trkpt lat="46.4872143" lon="12.1054442"/><trkpt lat="46.4874387" lon="12.1053929"/><trkpt lat="46.4874902" lon="12.1053955"/><trkpt lat="46.4875285" lon="12.1054166"/><trkpt lat="46.4875752" lon="12.1054632"/><trkpt lat="46.4876142" lon="12.1055033"/><trkpt lat="46.4878128" lon="12.105565"/><trkpt lat="46.487858" lon="12.1055987"/><trkpt lat="46.4879199" lon="12.105618"/><trkpt lat="46.4879601" lon="12.1056172"/><trkpt lat="46.4880525" lon="12.1055991"/><trkpt lat="46.4881372" lon="12.1055698"/><trkpt lat="46.4882613" lon="12.1055161"/><trkpt lat="46.4883214" lon="12.1055139"/><trkpt lat="46.4883771" lon="12.105499"/><trkpt lat="46.4884585" lon="12.1054383"/><trkpt lat="46.4885142" lon="12.1054213"/><trkpt lat="46.4886021" lon="12.1054141"/><trkpt lat="46.4887829" lon="12.1053306"/><trkpt lat="46.4890039" lon="12.1051544"/><trkpt lat="46.4891772" lon="12.1049845"/><trkpt lat="46.4895759" lon="12.1046068"/><trkpt lat="46.4900343" lon="12.1042931"/><trkpt lat="46.4901609" lon="12.1042921"/><trkpt lat="46.4904902" lon="12.1043425"/><trkpt lat="46.4907127" lon="12.1043614"/><trkpt lat="46.4909239" lon="12.1043631"/><trkpt lat="46.4910739" lon="12.1043402"/><trkpt lat="46.4912057" lon="12.104238"/><trkpt lat="46.4913801" lon="12.1041769"/><trkpt lat="46.4917465" lon="12.104287"/><trkpt lat="46.4919524" lon="12.1041909"/><trkpt lat="46.492231" lon="12.1041991"/><trkpt lat="46.4923848" lon="12.1042275"/><trkpt lat="46.4925118" lon="12.1042559"/><trkpt lat="46.492644" lon="12.1042504"/><trkpt lat="46.4928628" lon="12.1043922"/><trkpt lat="46.4929785" lon="12.1044383"/><trkpt lat="46.4930919" lon="12.1044499"/><trkpt lat="46.4932427" lon="12.10441"/><trkpt lat="46.4933745" lon="12.1043031"/><trkpt lat="46.4935124" lon="12.1041385"/><trkpt lat="46.4937054" lon="12.1040228"/><trkpt lat="46.4939382" lon="12.1038937"/><trkpt lat="46.4940547" lon="12.1037201"/><trkpt lat="46.4942201" lon="12.1035777"/><trkpt lat="46.4944622" lon="12.103373"/><trkpt lat="46.4945335" lon="12.1032832"/><trkpt lat="46.4946013" lon="12.1032088"/><trkpt lat="46.4946478" lon="12.1031373"/><trkpt lat="46.4947042" lon="12.1030931"/><trkpt lat="46.4947829" lon="12.1030775"/><trkpt lat="46.4948326" lon="12.1030787"/><trkpt lat="46.4949427" lon="12.1030803"/><trkpt lat="46.4951406" lon="12.1029902"/><trkpt lat="46.4953292" lon="12.1030036"/><trkpt lat="46.4955039" lon="12.1029368"/><trkpt lat="46.4956908" lon="12.1027766"/><trkpt lat="46.495893" lon="12.1026209"/><trkpt lat="46.4960443" lon="12.1025254"/><trkpt lat="46.4961538" lon="12.1025363"/><trkpt lat="46.4963114" lon="12.1025725"/><trkpt lat="46.4964261" lon="12.1025452"/><trkpt lat="46.4965773" lon="12.1024609"/><trkpt lat="46.4966457" lon="12.1024205"/><trkpt lat="46.4966763" lon="12.102418"/><trkpt lat="46.4967836" lon="12.102426"/><trkpt lat="46.4968709" lon="12.1023782"/><trkpt lat="46.4969507" lon="12.1023083"/><trkpt lat="46.4970095" lon="12.1022206"/><trkpt lat="46.4970544" lon="12.1021814"/><trkpt lat="46.4971051" lon="12.1021612"/><trkpt lat="46.4971772" lon="12.1021594"/><trkpt lat="46.4972576" lon="12.102086"/><trkpt lat="46.4974657" lon="12.1018896"/><trkpt lat="46.4977931" lon="12.1016761"/><trkpt lat="46.4978733" lon="12.1016244"/><trkpt lat="46.4980159" lon="12.1015944"/><trkpt lat="46.4981913" lon="12.1015589"/><trkpt lat="46.4984236" lon="12.1015038"/><trkpt lat="46.4986056" lon="12.1014318"/><trkpt lat="46.4986972" lon="12.1013652"/><trkpt lat="46.498741" lon="12.1013155"/><trkpt lat="46.498796" lon="12.1012248"/><trkpt lat="46.4988954" lon="12.1010676"/><trkpt lat="46.4989499" lon="12.1009764"/><trkpt lat="46.4990436" lon="12.1009141"/><trkpt lat="46.4991221" lon="12.1007694"/><trkpt lat="46.4991935" lon="12.1007143"/><trkpt lat="46.4992515" lon="12.1006959"/><trkpt lat="46.4993046" lon="12.1006853"/><trkpt lat="46.4994254" lon="12.100627"/><trkpt lat="46.4995877" lon="12.1004713"/><trkpt lat="46.4996792" lon="12.1004266"/><trkpt lat="46.4997777" lon="12.1003199"/><trkpt lat="46.4999888" lon="12.1000641"/><trkpt lat="46.5003043" lon="12.0997659"/><trkpt lat="46.500387" lon="12.0997214"/><trkpt lat="46.5004184" lon="12.0996866"/><trkpt lat="46.5004389" lon="12.099643"/><trkpt lat="46.5004422" lon="12.0996057"/><trkpt lat="46.5004238" lon="12.0995632"/><trkpt lat="46.5002843" lon="12.0995507"/><trkpt lat="46.5000318" lon="12.0995428"/><trkpt lat="46.499909" lon="12.0994682"/><trkpt lat="46.4997718" lon="12.0994133"/><trkpt lat="46.4996625" lon="12.0994931"/><trkpt lat="46.4996077" lon="12.0994743"/><trkpt lat="46.4995942" lon="12.0994073"/><trkpt lat="46.4996704" lon="12.0992467"/><trkpt lat="46.4996625" lon="12.0991847"/><trkpt lat="46.4995942" lon="12.0992035"/><trkpt lat="46.4995254" lon="12.0992184"/><trkpt lat="46.4994827" lon="12.0991913"/><trkpt lat="46.4994668" lon="12.099131"/><trkpt lat="46.4994732" lon="12.0989398"/><trkpt lat="46.4995434" lon="12.0987494"/><trkpt lat="46.4995676" lon="12.0987052"/><trkpt lat="46.4996638" lon="12.0986983"/><trkpt lat="46.4996695" lon="12.0986287"/><trkpt lat="46.4995942" lon="12.0985678"/><trkpt lat="46.4995521" lon="12.0985405"/><trkpt lat="46.4995075" lon="12.0984739"/><trkpt lat="46.4995813" lon="12.0983237"/><trkpt lat="46.4995278" lon="12.0982302"/><trkpt lat="46.4994562" lon="12.0981671"/><trkpt lat="46.4994847" lon="12.0981234"/><trkpt lat="46.4995411" lon="12.0981309"/><trkpt lat="46.4995241" lon="12.0980448"/><trkpt lat="46.4994855" lon="12.0979908"/><trkpt lat="46.4993914" lon="12.0979667"/><trkpt lat="46.4993135" lon="12.0979376"/><trkpt lat="46.4992674" lon="12.0978892"/><trkpt lat="46.4993403" lon="12.0978129"/><trkpt lat="46.499338" lon="12.0976796"/><trkpt lat="46.4991888" lon="12.0975098"/><trkpt lat="46.4989461" lon="12.097241"/><trkpt lat="46.4988136" lon="12.0971163"/><trkpt lat="46.4987177" lon="12.0969102"/><trkpt lat="46.4985267" lon="12.0965733"/><trkpt lat="46.4985175" lon="12.0964292"/><trkpt lat="46.4985125" lon="12.0962932"/><trkpt lat="46.498513" lon="12.0961794"/><trkpt lat="46.498612" lon="12.0958507"/><trkpt lat="46.4987713" lon="12.0957313"/><trkpt lat="46.4988163" lon="12.0956455"/><trkpt lat="46.498904" lon="12.0956102"/><trkpt lat="46.4990466" lon="12.0955285"/><trkpt lat="46.4991571" lon="12.0954751"/><trkpt lat="46.4992478" lon="12.0953511"/><trkpt lat="46.4992554" lon="12.0952564"/><trkpt lat="46.4992791" lon="12.0952172"/><trkpt lat="46.499442" lon="12.095245"/><trkpt lat="46.4995931" lon="12.0952485"/><trkpt lat="46.4997788" lon="12.0953208"/><trkpt lat="46.5000537" lon="12.0955002"/><trkpt lat="46.5000994" lon="12.095562"/><trkpt lat="46.500141" lon="12.095588"/><trkpt lat="46.5002049" lon="12.0956171"/><trkpt lat="46.500211" lon="12.095471"/><trkpt lat="46.5002077" lon="12.0953901"/><trkpt lat="46.5001507" lon="12.0951808"/><trkpt lat="46.5001365" lon="12.0950811"/><trkpt lat="46.5001278" lon="12.095022"/><trkpt lat="46.5001205" lon="12.0949252"/><trkpt lat="46.5002125" lon="12.0947948"/><trkpt lat="46.5003135" lon="12.0946772"/><trkpt lat="46.5005072" lon="12.0945413"/><trkpt lat="46.5007124" lon="12.0944435"/><trkpt lat="46.5008331" lon="12.0943406"/><trkpt lat="46.5007801" lon="12.0942927"/><trkpt lat="46.5007834" lon="12.0942071"/><trkpt lat="46.5008834" lon="12.0941565"/><trkpt lat="46.5009694" lon="12.0940735"/><trkpt lat="46.5012352" lon="12.0941027"/><trkpt lat="46.5013067" lon="12.0940391"/><trkpt lat="46.5014597" lon="12.0938492"/><trkpt lat="46.501505" lon="12.0937614"/><trkpt lat="46.5015266" lon="12.0937167"/><trkpt lat="46.501524" lon="12.0936841"/><trkpt lat="46.5015181" lon="12.0936387"/><trkpt lat="46.5014932" lon="12.0936028"/><trkpt lat="46.5014434" lon="12.0935871"/><trkpt lat="46.501349" lon="12.0936047"/><trkpt lat="46.5012875" lon="12.0936388"/><trkpt lat="46.5012663" lon="12.0936426"/><trkpt lat="46.5012343" lon="12.0936369"/><trkpt lat="46.5012071" lon="12.0936164"/><trkpt lat="46.5011913" lon="12.0935875"/><trkpt lat="46.5011869" lon="12.0935635"/><trkpt lat="46.5011936" lon="12.093531"/><trkpt lat="46.5012082" lon="12.0935064"/><trkpt lat="46.5013792" lon="12.0933316"/><trkpt lat="46.5014587" lon="12.0932698"/><trkpt lat="46.5015294" lon="12.0931529"/><trkpt lat="46.5015738" lon="12.0930546"/><trkpt lat="46.5015858" lon="12.0930004"/><trkpt lat="46.501614" lon="12.0929043"/><trkpt lat="46.5016952" lon="12.0928735"/><trkpt lat="46.5018708" lon="12.0927294"/><trkpt lat="46.5019506" lon="12.092589"/><trkpt lat="46.5020493" lon="12.0925069"/><trkpt lat="46.5023971" lon="12.0922881"/><trkpt lat="46.5025197" lon="12.0921269"/><trkpt lat="46.5026443" lon="12.092072"/><trkpt lat="46.5027405" lon="12.0921008"/><trkpt lat="46.5027891" lon="12.0920455"/><trkpt lat="46.5027289" lon="12.0919841"/><trkpt lat="46.5028885" lon="12.0919027"/><trkpt lat="46.5030068" lon="12.0919012"/><trkpt lat="46.5030332" lon="12.0918735"/><trkpt lat="46.5030063" lon="12.091839"/><trkpt lat="46.503011" lon="12.091806"/><trkpt lat="46.503132" lon="12.0918107"/><trkpt lat="46.5032217" lon="12.0916284"/><trkpt lat="46.5032802" lon="12.0916168"/><trkpt lat="46.5032935" lon="12.0915195"/><trkpt lat="46.5033492" lon="12.0915312"/><trkpt lat="46.5033775" lon="12.091466"/><trkpt lat="46.5034547" lon="12.0913746"/><trkpt lat="46.5034469" lon="12.0912556"/><trkpt lat="46.5034412" lon="12.0911187"/><trkpt lat="46.5033562" lon="12.0908593"/><trkpt lat="46.503288" lon="12.0906505"/><trkpt lat="46.503262" lon="12.0904811"/><trkpt lat="46.503283" lon="12.0903062"/><trkpt lat="46.5033096" lon="12.0901391"/><trkpt lat="46.5034328" lon="12.0898565"/><trkpt lat="46.5035454" lon="12.0895481"/><trkpt lat="46.5037261" lon="12.0891666"/><trkpt lat="46.5037664" lon="12.0889946"/><trkpt lat="46.503983" lon="12.0887362"/><trkpt lat="46.5040843" lon="12.0886248"/><trkpt lat="46.5041397" lon="12.0884782"/><trkpt lat="46.5042006" lon="12.0883593"/><trkpt lat="46.5042948" lon="12.0882815"/><trkpt lat="46.5042917" lon="12.0882067"/><trkpt lat="46.5043184" lon="12.0879482"/><trkpt lat="46.5043538" lon="12.0877397"/><trkpt lat="46.5044255" lon="12.0875669"/><trkpt lat="46.5044638" lon="12.087383"/><trkpt lat="46.5045742" lon="12.0871359"/><trkpt lat="46.5046186" lon="12.0870345"/><trkpt lat="46.5046658" lon="12.0868676"/><trkpt lat="46.5046641" lon="12.0866302"/><trkpt lat="46.5046458" lon="12.0863193"/><trkpt lat="46.5046252" lon="12.0861948"/><trkpt lat="46.5046659" lon="12.0860443"/><trkpt lat="46.5047368" lon="12.0857591"/><trkpt lat="46.5047887" lon="12.0853689"/><trkpt lat="46.5049014" lon="12.0850479"/><trkpt lat="46.5049022" lon="12.0847492"/><trkpt lat="46.5048429" lon="12.0844418"/><trkpt lat="46.5047883" lon="12.0841762"/><trkpt lat="46.5046936" lon="12.0837872"/><trkpt lat="46.504633" lon="12.0835491"/><trkpt lat="46.5045477" lon="12.08317"/><trkpt lat="46.5045736" lon="12.0829149"/><trkpt lat="46.5045975" lon="12.0826033"/><trkpt lat="46.5046208" lon="12.0824259"/><trkpt lat="46.5046183" lon="12.0821616"/><trkpt lat="46.5046163" lon="12.0820519"/><trkpt lat="46.5047286" lon="12.0818871"/><trkpt lat="46.5047498" lon="12.0817688"/><trkpt lat="46.504897" lon="12.0815548"/><trkpt lat="46.505053" lon="12.0813659"/><trkpt lat="46.505144" lon="12.0810764"/><trkpt lat="46.5051274" lon="12.0808437"/><trkpt lat="46.5052418" lon="12.0805809"/><trkpt lat="46.5052492" lon="12.0804414"/><trkpt lat="46.5052886" lon="12.080365"/><trkpt lat="46.5053909" lon="12.080019"/><trkpt lat="46.5053775" lon="12.0798661"/><trkpt lat="46.5053086" lon="12.0796855"/><trkpt lat="46.50528" lon="12.0796022"/><trkpt lat="46.5052058" lon="12.079495"/><trkpt lat="46.5051547" lon="12.0794293"/><trkpt lat="46.5051399" lon="12.0793774"/><trkpt lat="46.5051463" lon="12.0792867"/><trkpt lat="46.5051631" lon="12.0792653"/><trkpt lat="46.5052456" lon="12.0792094"/><trkpt lat="46.5053387" lon="12.0791871"/><trkpt lat="46.5054154" lon="12.079114"/><trkpt lat="46.5054772" lon="12.0789634"/><trkpt lat="46.505527" lon="12.0786023"/><trkpt lat="46.5055313" lon="12.0785825"/><trkpt lat="46.5055561" lon="12.0785676"/><trkpt lat="46.5055789" lon="12.0785592"/><trkpt lat="46.5055852" lon="12.0785613"/><trkpt lat="46.5055936" lon="12.0785722"/><trkpt lat="46.505623" lon="12.0786283"/><trkpt lat="46.5056296" lon="12.0786352"/><trkpt lat="46.5056369" lon="12.0786329"/><trkpt lat="46.5056402" lon="12.0786249"/><trkpt lat="46.5056351" lon="12.0785444"/><trkpt lat="46.5056377" lon="12.0785321"/><trkpt lat="46.5056431" lon="12.0785288"/><trkpt lat="46.5056512" lon="12.0785358"/><trkpt lat="46.5056681" lon="12.0785693"/><trkpt lat="46.5058156" lon="12.0788915"/><trkpt lat="46.5058358" lon="12.0789123"/><trkpt lat="46.5058493" lon="12.0789102"/><trkpt lat="46.5058562" lon="12.078893"/><trkpt lat="46.5058578" lon="12.0788702"/><trkpt lat="46.5057735" lon="12.0785193"/><trkpt lat="46.5057906" lon="12.0784777"/><trkpt lat="46.5056292" lon="12.0777035"/><trkpt lat="46.5054715" lon="12.0772381"/><trkpt lat="46.5053072" lon="12.0767742"/><trkpt lat="46.50527" lon="12.0767106"/><trkpt lat="46.505233" lon="12.0766951"/><trkpt lat="46.5051899" lon="12.0766981"/><trkpt lat="46.505153" lon="12.076718"/></trkseg></trk></gpx>