<?xml version="1.0" encoding="UTF-8"?><kml xmlns="http://www.opengis.net/kml/2.2"><Document><name>Catinaccio · Paolina — Roda di Vaèl</name><description>Планировочная реконструкция по OpenStreetMap, 09.09.2026. Не запись GPS и не проверенный навигационный трек. Высоты не экспортированы. Данные © OpenStreetMap contributors, ODbL. Автопереезды и канатки в пеший трек не включены.</description><Style id="track"><LineStyle><color>ff7d39ad</color><width>4</width></LineStyle></Style><Placemark><name>Paolina · нижняя станция</name><Point><coordinates>11.5918943,46.4079533</coordinates></Point></Placemark><Placemark><name>Paolina · верхняя станция</name><Point><coordinates>11.6144507,46.4156768</coordinates></Point></Placemark><Placemark><name>Aquila di Christomannos · панорама</name><Point><coordinates>11.6230103,46.413789</coordinates></Point></Placemark><Placemark><name>Rifugio Roda di Vaèl</name><Point><coordinates>11.63011918,46.420165</coordinates></Point></Placemark><Placemark><name>Baita Marino Pederiva</name><Point><coordinates>11.63069672,46.41984628</coordinates></Point></Placemark><Placemark><name>Paolina — Aquila — Roda di Vaèl — обратно</name><description>Планировочная реконструкция по OpenStreetMap, 09.09.2026. Не запись GPS и не проверенный навигационный трек. Высоты не экспортированы. Данные © OpenStreetMap contributors, ODbL. Автопереезды и канатки в пеший трек не включены.</description><styleUrl>#track</styleUrl><LineString><tessellate>1</tessellate><altitudeMode>clampToGround</altitudeMode><coordinates>11.6144921,46.4156057,0 11.6146487,46.4156766,0 11.6146137,46.4157181,0 11.6146415,46.4157421,0 11.6147099,46.4158104,0 11.6147563,46.4157962,0 11.6147908,46.4157571,0 11.6148448,46.4157804,0 11.6149054,46.4157301,0 11.6150469,46.4155558,0 11.6150916,46.4154912,0 11.6151297,46.4154505,0 11.6151824,46.4154095,0 11.6152949,46.4153232,0 11.6153816,46.4152645,0 11.6154764,46.4152068,0 11.615602,46.4151104,0 11.6156304,46.4150888,0 11.6157384,46.4150065,0 11.6159428,46.4148899,0 11.6160631,46.4148183,0 11.6161228,46.41479,0 11.6161769,46.4147534,0 11.616276,46.4146782,0 11.6163276,46.4146287,0 11.6163605,46.4146025,0 11.6164276,46.4145696,0 11.6165077,46.4145216,0 11.6165511,46.4144747,0 11.6165936,46.4144191,0 11.6166335,46.4143726,0 11.6167797,46.4142918,0 11.6168798,46.4142465,0 11.6169873,46.4141853,0 11.6170375,46.414112,0 11.6170986,46.4140551,0 11.6171869,46.4140085,0 11.61727,46.4139457,0 11.617388,46.4138348,0 11.6175187,46.413722,0 11.617538,46.4137178,0 11.6175531,46.4137328,0 11.6175531,46.4138828,0 11.6175688,46.4139013,0 11.6175972,46.4138957,0 11.6176398,46.4138627,0 11.6177302,46.4138075,0 11.6178326,46.4137663,0 11.6179347,46.4137171,0 11.6180553,46.4136633,0 11.6181771,46.4136191,0 11.6182809,46.4135984,0 11.6184329,46.4135605,0 11.6185597,46.4135345,0 11.6188041,46.4134877,0 11.6191981,46.4134278,0 11.6193742,46.4134186,0 11.6194668,46.4134237,0 11.6195402,46.4134318,0 11.6196872,46.4134879,0 11.6199048,46.4135263,0 11.6200574,46.4135088,0 11.6203978,46.4135422,0 11.6205524,46.4136152,0 11.6206266,46.4136195,0 11.6206994,46.4136245,0 11.6208014,46.4136401,0 11.6208582,46.4136741,0 11.620919,46.413694,0 11.6212378,46.4137576,0 11.6213604,46.4137813,0 11.6214575,46.413806,0 11.6215218,46.4138132,0 11.6215771,46.4138328,0 11.6216698,46.4138699,0 11.6217863,46.4138874,0 11.6218715,46.4139049,0 11.6219222,46.4139359,0 11.6222254,46.4139455,0 11.622769,46.4138823,0 11.6230151,46.413825,0 11.6230759,46.4138472,0 11.6231394,46.4138814,0 11.6232095,46.4138989,0 11.6236108,46.4139972,0 11.6237899,46.4139908,0 11.6240229,46.4139976,0 11.6242276,46.4141282,0 11.6244101,46.4141169,0 11.6246265,46.4140689,0 11.6248342,46.4141125,0 11.6250297,46.41416,0 11.6251906,46.4141565,0 11.6253203,46.4141661,0 11.6254662,46.4141559,0 11.6258347,46.4141375,0 11.6262058,46.4141864,0 11.6264865,46.4141361,0 11.6269159,46.4141789,0 11.6271776,46.4142953,0 11.6274159,46.414444,0 11.6274621,46.4145556,0 11.6276079,46.4146494,0 11.6277726,46.4147362,0 11.6281004,46.4148933,0 11.6284676,46.4149886,0 11.6285352,46.4150688,0 11.6285601,46.4151577,0 11.6286608,46.4152165,0 11.6287115,46.4153273,0 11.6288156,46.4153867,0 11.6289678,46.4155433,0 11.6290766,46.4156186,0 11.6290626,46.4156762,0 11.6292292,46.4159061,0 11.6292728,46.416047,0 11.6293335,46.4162369,0 11.6294569,46.4164772,0 11.6295401,46.4167516,0 11.6295438,46.4168333,0 11.6295752,46.4169311,0 11.6296674,46.4170365,0 11.6299239,46.4171967,0 11.6300435,46.4172916,0 11.6301041,46.4173774,0 11.6302382,46.4175574,0 11.63037,46.4177085,0 11.6303477,46.4178477,0 11.6303926,46.4179624,0 11.6303349,46.4180931,0 11.6302035,46.4181808,0 11.6302301,46.418358,0 11.6303243,46.4184661,0 11.6302751,46.4187274,0 11.6302843,46.4188035,0 11.6303138,46.4189142,0 11.6303456,46.4190009,0 11.6303386,46.4190619,0 11.6301734,46.4192996,0 11.6301868,46.4194003,0 11.6301604,46.4194486,0 11.6301159,46.4194925,0 11.6301361,46.4195545,0 11.6301611,46.4196132,0 11.6301557,46.4196917,0 11.6301479,46.4197757,0 11.6300907,46.4198975,0 11.6299581,46.4200066,0 11.629892,46.4200962,0 11.6298728,46.4201358,0 11.6299747,46.4201726,0 11.630012,46.4201942,0 11.6300379,46.4202154,0 11.630012,46.4201942,0 11.6299747,46.4201726,0 11.6298728,46.4201358,0 11.629892,46.4200962,0 11.6299581,46.4200066,0 11.6300907,46.4198975,0 11.6303349,46.4199088,0 11.630608,46.4199318,0 11.6306894,46.4199502,0 11.6308079,46.4198543,0 11.6306894,46.4199502,0 11.630608,46.4199318,0 11.6303349,46.4199088,0 11.6300907,46.4198975,0 11.6299581,46.4200066,0 11.629892,46.4200962,0 11.6298728,46.4201358,0 11.6299747,46.4201726,0 11.630012,46.4201942,0 11.6300379,46.4202154,0 11.630012,46.4201942,0 11.6299747,46.4201726,0 11.6298728,46.4201358,0 11.629892,46.4200962,0 11.6299581,46.4200066,0 11.6300907,46.4198975,0 11.6301479,46.4197757,0 11.6301557,46.4196917,0 11.6301611,46.4196132,0 11.6301361,46.4195545,0 11.6301159,46.4194925,0 11.6301604,46.4194486,0 11.6301868,46.4194003,0 11.6301734,46.4192996,0 11.6303386,46.4190619,0 11.6303456,46.4190009,0 11.6303138,46.4189142,0 11.6302843,46.4188035,0 11.6302751,46.4187274,0 11.6303243,46.4184661,0 11.6302301,46.418358,0 11.6302035,46.4181808,0 11.6303349,46.4180931,0 11.6303926,46.4179624,0 11.6303477,46.4178477,0 11.63037,46.4177085,0 11.6302382,46.4175574,0 11.6301041,46.4173774,0 11.6300435,46.4172916,0 11.6299239,46.4171967,0 11.6296674,46.4170365,0 11.6295752,46.4169311,0 11.6295438,46.4168333,0 11.6295401,46.4167516,0 11.6294569,46.4164772,0 11.6293335,46.4162369,0 11.6292728,46.416047,0 11.6292292,46.4159061,0 11.6290626,46.4156762,0 11.6290766,46.4156186,0 11.6289678,46.4155433,0 11.6288156,46.4153867,0 11.6287115,46.4153273,0 11.6286608,46.4152165,0 11.6285601,46.4151577,0 11.6285352,46.4150688,0 11.6284676,46.4149886,0 11.6281004,46.4148933,0 11.6277726,46.4147362,0 11.6276079,46.4146494,0 11.6274621,46.4145556,0 11.6274159,46.414444,0 11.6271776,46.4142953,0 11.6269159,46.4141789,0 11.6264865,46.4141361,0 11.6262058,46.4141864,0 11.6258347,46.4141375,0 11.6254662,46.4141559,0 11.6253203,46.4141661,0 11.6251906,46.4141565,0 11.6250297,46.41416,0 11.6248342,46.4141125,0 11.6246265,46.4140689,0 11.6244101,46.4141169,0 11.6242276,46.4141282,0 11.6240229,46.4139976,0 11.6237899,46.4139908,0 11.6236108,46.4139972,0 11.6232095,46.4138989,0 11.6231394,46.4138814,0 11.6230759,46.4138472,0 11.6230151,46.413825,0 11.622769,46.4138823,0 11.6222254,46.4139455,0 11.6219222,46.4139359,0 11.6218715,46.4139049,0 11.6217863,46.4138874,0 11.6216698,46.4138699,0 11.6215771,46.4138328,0 11.6215218,46.4138132,0 11.6214575,46.413806,0 11.6213604,46.4137813,0 11.6212378,46.4137576,0 11.620919,46.413694,0 11.6208582,46.4136741,0 11.6208014,46.4136401,0 11.6206994,46.4136245,0 11.6206266,46.4136195,0 11.6205524,46.4136152,0 11.6203978,46.4135422,0 11.6200574,46.4135088,0 11.6199048,46.4135263,0 11.6196872,46.4134879,0 11.6195402,46.4134318,0 11.6194668,46.4134237,0 11.6193742,46.4134186,0 11.6191981,46.4134278,0 11.6188041,46.4134877,0 11.6185597,46.4135345,0 11.6184329,46.4135605,0 11.6182809,46.4135984,0 11.6181771,46.4136191,0 11.6180553,46.4136633,0 11.6179347,46.4137171,0 11.6178326,46.4137663,0 11.6177302,46.4138075,0 11.6176398,46.4138627,0 11.6175972,46.4138957,0 11.6175688,46.4139013,0 11.6175531,46.4138828,0 11.6175531,46.4137328,0 11.617538,46.4137178,0 11.6175187,46.413722,0 11.617388,46.4138348,0 11.61727,46.4139457,0 11.6171869,46.4140085,0 11.6170986,46.4140551,0 11.6170375,46.414112,0 11.6169873,46.4141853,0 11.6168798,46.4142465,0 11.6167797,46.4142918,0 11.6166335,46.4143726,0 11.6165936,46.4144191,0 11.6165511,46.4144747,0 11.6165077,46.4145216,0 11.6164276,46.4145696,0 11.6163605,46.4146025,0 11.6163276,46.4146287,0 11.616276,46.4146782,0 11.6161769,46.4147534,0 11.6161228,46.41479,0 11.6160631,46.4148183,0 11.6159428,46.4148899,0 11.6157384,46.4150065,0 11.6156304,46.4150888,0 11.615602,46.4151104,0 11.6154764,46.4152068,0 11.6153816,46.4152645,0 11.6152949,46.4153232,0 11.6151824,46.4154095,0 11.6151297,46.4154505,0 11.6150916,46.4154912,0 11.6150469,46.4155558,0 11.6149054,46.4157301,0 11.6148448,46.4157804,0 11.6147908,46.4157571,0 11.6147563,46.4157962,0 11.6147099,46.4158104,0 11.6146415,46.4157421,0 11.6146137,46.4157181,0 11.6146487,46.4156766,0 11.6144921,46.4156057,0</coordinates></LineString></Placemark></Document></kml>