<?xml version="1.0" encoding="UTF-8"?><gpx version="1.1" creator="Dolomites Atlas" xmlns="http://www.topografix.com/GPX/1/1"><metadata><name>Catinaccio · Paolina — Roda di Vaèl</name><desc>Планировочная реконструкция по OpenStreetMap, 09.09.2026. Не запись GPS и не проверенный навигационный трек. Высоты не экспортированы. Данные © OpenStreetMap contributors, ODbL. Автопереезды и канатки в пеший трек не включены.</desc><link href="https://www.openstreetmap.org/copyright"><text>OpenStreetMap contributors · ODbL</text></link></metadata><wpt lat="46.4079533" lon="11.5918943"><name>Paolina · нижняя станция</name></wpt><wpt lat="46.4156768" lon="11.6144507"><name>Paolina · верхняя станция</name></wpt><wpt lat="46.413789" lon="11.6230103"><name>Aquila di Christomannos · панорама</name></wpt><wpt lat="46.420165" lon="11.63011918"><name>Rifugio Roda di Vaèl</name></wpt><wpt lat="46.41984628" lon="11.63069672"><name>Baita Marino Pederiva</name></wpt><trk><name>Paolina — Aquila — Roda di Vaèl — обратно</name><desc>Планировочная реконструкция по OpenStreetMap, 09.09.2026. Не запись GPS и не проверенный навигационный трек. Высоты не экспортированы. Данные © OpenStreetMap contributors, ODbL. Автопереезды и канатки в пеший трек не включены.</desc><type>hiking</type><trkseg><trkpt lat="46.4156057" lon="11.6144921"/><trkpt lat="46.4156766" lon="11.6146487"/><trkpt lat="46.4157181" lon="11.6146137"/><trkpt lat="46.4157421" lon="11.6146415"/><trkpt lat="46.4158104" lon="11.6147099"/><trkpt lat="46.4157962" lon="11.6147563"/><trkpt lat="46.4157571" lon="11.6147908"/><trkpt lat="46.4157804" lon="11.6148448"/><trkpt lat="46.4157301" lon="11.6149054"/><trkpt lat="46.4155558" lon="11.6150469"/><trkpt lat="46.4154912" lon="11.6150916"/><trkpt lat="46.4154505" lon="11.6151297"/><trkpt lat="46.4154095" lon="11.6151824"/><trkpt lat="46.4153232" lon="11.6152949"/><trkpt lat="46.4152645" lon="11.6153816"/><trkpt lat="46.4152068" lon="11.6154764"/><trkpt lat="46.4151104" lon="11.615602"/><trkpt lat="46.4150888" lon="11.6156304"/><trkpt lat="46.4150065" lon="11.6157384"/><trkpt lat="46.4148899" lon="11.6159428"/><trkpt lat="46.4148183" lon="11.6160631"/><trkpt lat="46.41479" lon="11.6161228"/><trkpt lat="46.4147534" lon="11.6161769"/><trkpt lat="46.4146782" lon="11.616276"/><trkpt lat="46.4146287" lon="11.6163276"/><trkpt lat="46.4146025" lon="11.6163605"/><trkpt lat="46.4145696" lon="11.6164276"/><trkpt lat="46.4145216" lon="11.6165077"/><trkpt lat="46.4144747" lon="11.6165511"/><trkpt lat="46.4144191" lon="11.6165936"/><trkpt lat="46.4143726" lon="11.6166335"/><trkpt lat="46.4142918" lon="11.6167797"/><trkpt lat="46.4142465" lon="11.6168798"/><trkpt lat="46.4141853" lon="11.6169873"/><trkpt lat="46.414112" lon="11.6170375"/><trkpt lat="46.4140551" lon="11.6170986"/><trkpt lat="46.4140085" lon="11.6171869"/><trkpt lat="46.4139457" lon="11.61727"/><trkpt lat="46.4138348" lon="11.617388"/><trkpt lat="46.413722" lon="11.6175187"/><trkpt lat="46.4137178" lon="11.617538"/><trkpt lat="46.4137328" lon="11.6175531"/><trkpt lat="46.4138828" lon="11.6175531"/><trkpt lat="46.4139013" lon="11.6175688"/><trkpt lat="46.4138957" lon="11.6175972"/><trkpt lat="46.4138627" lon="11.6176398"/><trkpt lat="46.4138075" lon="11.6177302"/><trkpt lat="46.4137663" lon="11.6178326"/><trkpt lat="46.4137171" lon="11.6179347"/><trkpt lat="46.4136633" lon="11.6180553"/><trkpt lat="46.4136191" lon="11.6181771"/><trkpt lat="46.4135984" lon="11.6182809"/><trkpt lat="46.4135605" lon="11.6184329"/><trkpt lat="46.4135345" lon="11.6185597"/><trkpt lat="46.4134877" lon="11.6188041"/><trkpt lat="46.4134278" lon="11.6191981"/><trkpt lat="46.4134186" lon="11.6193742"/><trkpt lat="46.4134237" lon="11.6194668"/><trkpt lat="46.4134318" lon="11.6195402"/><trkpt lat="46.4134879" lon="11.6196872"/><trkpt lat="46.4135263" lon="11.6199048"/><trkpt lat="46.4135088" lon="11.6200574"/><trkpt lat="46.4135422" lon="11.6203978"/><trkpt lat="46.4136152" lon="11.6205524"/><trkpt lat="46.4136195" lon="11.6206266"/><trkpt lat="46.4136245" lon="11.6206994"/><trkpt lat="46.4136401" lon="11.6208014"/><trkpt lat="46.4136741" lon="11.6208582"/><trkpt lat="46.413694" lon="11.620919"/><trkpt lat="46.4137576" lon="11.6212378"/><trkpt lat="46.4137813" lon="11.6213604"/><trkpt lat="46.413806" lon="11.6214575"/><trkpt lat="46.4138132" lon="11.6215218"/><trkpt lat="46.4138328" lon="11.6215771"/><trkpt lat="46.4138699" lon="11.6216698"/><trkpt lat="46.4138874" lon="11.6217863"/><trkpt lat="46.4139049" lon="11.6218715"/><trkpt lat="46.4139359" lon="11.6219222"/><trkpt lat="46.4139455" lon="11.6222254"/><trkpt lat="46.4138823" lon="11.622769"/><trkpt lat="46.413825" lon="11.6230151"/><trkpt lat="46.4138472" lon="11.6230759"/><trkpt lat="46.4138814" lon="11.6231394"/><trkpt lat="46.4138989" lon="11.6232095"/><trkpt lat="46.4139972" lon="11.6236108"/><trkpt lat="46.4139908" lon="11.6237899"/><trkpt lat="46.4139976" lon="11.6240229"/><trkpt lat="46.4141282" lon="11.6242276"/><trkpt lat="46.4141169" lon="11.6244101"/><trkpt lat="46.4140689" lon="11.6246265"/><trkpt lat="46.4141125" lon="11.6248342"/><trkpt lat="46.41416" lon="11.6250297"/><trkpt lat="46.4141565" lon="11.6251906"/><trkpt lat="46.4141661" lon="11.6253203"/><trkpt lat="46.4141559" lon="11.6254662"/><trkpt lat="46.4141375" lon="11.6258347"/><trkpt lat="46.4141864" lon="11.6262058"/><trkpt lat="46.4141361" lon="11.6264865"/><trkpt lat="46.4141789" lon="11.6269159"/><trkpt lat="46.4142953" lon="11.6271776"/><trkpt lat="46.414444" lon="11.6274159"/><trkpt lat="46.4145556" lon="11.6274621"/><trkpt lat="46.4146494" lon="11.6276079"/><trkpt lat="46.4147362" lon="11.6277726"/><trkpt lat="46.4148933" lon="11.6281004"/><trkpt lat="46.4149886" lon="11.6284676"/><trkpt lat="46.4150688" lon="11.6285352"/><trkpt lat="46.4151577" lon="11.6285601"/><trkpt lat="46.4152165" lon="11.6286608"/><trkpt lat="46.4153273" lon="11.6287115"/><trkpt lat="46.4153867" lon="11.6288156"/><trkpt lat="46.4155433" lon="11.6289678"/><trkpt lat="46.4156186" lon="11.6290766"/><trkpt lat="46.4156762" lon="11.6290626"/><trkpt lat="46.4159061" lon="11.6292292"/><trkpt lat="46.416047" lon="11.6292728"/><trkpt lat="46.4162369" lon="11.6293335"/><trkpt lat="46.4164772" lon="11.6294569"/><trkpt lat="46.4167516" lon="11.6295401"/><trkpt lat="46.4168333" lon="11.6295438"/><trkpt lat="46.4169311" lon="11.6295752"/><trkpt lat="46.4170365" lon="11.6296674"/><trkpt lat="46.4171967" lon="11.6299239"/><trkpt lat="46.4172916" lon="11.6300435"/><trkpt lat="46.4173774" lon="11.6301041"/><trkpt lat="46.4175574" lon="11.6302382"/><trkpt lat="46.4177085" lon="11.63037"/><trkpt lat="46.4178477" lon="11.6303477"/><trkpt lat="46.4179624" lon="11.6303926"/><trkpt lat="46.4180931" lon="11.6303349"/><trkpt lat="46.4181808" lon="11.6302035"/><trkpt lat="46.418358" lon="11.6302301"/><trkpt lat="46.4184661" lon="11.6303243"/><trkpt lat="46.4187274" lon="11.6302751"/><trkpt lat="46.4188035" lon="11.6302843"/><trkpt lat="46.4189142" lon="11.6303138"/><trkpt lat="46.4190009" lon="11.6303456"/><trkpt lat="46.4190619" lon="11.6303386"/><trkpt lat="46.4192996" lon="11.6301734"/><trkpt lat="46.4194003" lon="11.6301868"/><trkpt lat="46.4194486" lon="11.6301604"/><trkpt lat="46.4194925" lon="11.6301159"/><trkpt lat="46.4195545" lon="11.6301361"/><trkpt lat="46.4196132" lon="11.6301611"/><trkpt lat="46.4196917" lon="11.6301557"/><trkpt lat="46.4197757" lon="11.6301479"/><trkpt lat="46.4198975" lon="11.6300907"/><trkpt lat="46.4200066" lon="11.6299581"/><trkpt lat="46.4200962" lon="11.629892"/><trkpt lat="46.4201358" lon="11.6298728"/><trkpt lat="46.4201726" lon="11.6299747"/><trkpt lat="46.4201942" lon="11.630012"/><trkpt lat="46.4202154" lon="11.6300379"/><trkpt lat="46.4201942" lon="11.630012"/><trkpt lat="46.4201726" lon="11.6299747"/><trkpt lat="46.4201358" lon="11.6298728"/><trkpt lat="46.4200962" lon="11.629892"/><trkpt lat="46.4200066" lon="11.6299581"/><trkpt lat="46.4198975" lon="11.6300907"/><trkpt lat="46.4199088" lon="11.6303349"/><trkpt lat="46.4199318" lon="11.630608"/><trkpt lat="46.4199502" lon="11.6306894"/><trkpt lat="46.4198543" lon="11.6308079"/><trkpt lat="46.4199502" lon="11.6306894"/><trkpt lat="46.4199318" lon="11.630608"/><trkpt lat="46.4199088" lon="11.6303349"/><trkpt lat="46.4198975" lon="11.6300907"/><trkpt lat="46.4200066" lon="11.6299581"/><trkpt lat="46.4200962" lon="11.629892"/><trkpt lat="46.4201358" lon="11.6298728"/><trkpt lat="46.4201726" lon="11.6299747"/><trkpt lat="46.4201942" lon="11.630012"/><trkpt lat="46.4202154" lon="11.6300379"/><trkpt lat="46.4201942" lon="11.630012"/><trkpt lat="46.4201726" lon="11.6299747"/><trkpt lat="46.4201358" lon="11.6298728"/><trkpt lat="46.4200962" lon="11.629892"/><trkpt lat="46.4200066" lon="11.6299581"/><trkpt lat="46.4198975" lon="11.6300907"/><trkpt lat="46.4197757" lon="11.6301479"/><trkpt lat="46.4196917" lon="11.6301557"/><trkpt lat="46.4196132" lon="11.6301611"/><trkpt lat="46.4195545" lon="11.6301361"/><trkpt lat="46.4194925" lon="11.6301159"/><trkpt lat="46.4194486" lon="11.6301604"/><trkpt lat="46.4194003" lon="11.6301868"/><trkpt lat="46.4192996" lon="11.6301734"/><trkpt lat="46.4190619" lon="11.6303386"/><trkpt lat="46.4190009" lon="11.6303456"/><trkpt lat="46.4189142" lon="11.6303138"/><trkpt lat="46.4188035" lon="11.6302843"/><trkpt lat="46.4187274" lon="11.6302751"/><trkpt lat="46.4184661" lon="11.6303243"/><trkpt lat="46.418358" lon="11.6302301"/><trkpt lat="46.4181808" lon="11.6302035"/><trkpt lat="46.4180931" lon="11.6303349"/><trkpt lat="46.4179624" lon="11.6303926"/><trkpt lat="46.4178477" lon="11.6303477"/><trkpt lat="46.4177085" lon="11.63037"/><trkpt lat="46.4175574" lon="11.6302382"/><trkpt lat="46.4173774" lon="11.6301041"/><trkpt lat="46.4172916" lon="11.6300435"/><trkpt lat="46.4171967" lon="11.6299239"/><trkpt lat="46.4170365" lon="11.6296674"/><trkpt lat="46.4169311" lon="11.6295752"/><trkpt lat="46.4168333" lon="11.6295438"/><trkpt lat="46.4167516" lon="11.6295401"/><trkpt lat="46.4164772" lon="11.6294569"/><trkpt lat="46.4162369" lon="11.6293335"/><trkpt lat="46.416047" lon="11.6292728"/><trkpt lat="46.4159061" lon="11.6292292"/><trkpt lat="46.4156762" lon="11.6290626"/><trkpt lat="46.4156186" lon="11.6290766"/><trkpt lat="46.4155433" lon="11.6289678"/><trkpt lat="46.4153867" lon="11.6288156"/><trkpt lat="46.4153273" lon="11.6287115"/><trkpt lat="46.4152165" lon="11.6286608"/><trkpt lat="46.4151577" lon="11.6285601"/><trkpt lat="46.4150688" lon="11.6285352"/><trkpt lat="46.4149886" lon="11.6284676"/><trkpt lat="46.4148933" lon="11.6281004"/><trkpt lat="46.4147362" lon="11.6277726"/><trkpt lat="46.4146494" lon="11.6276079"/><trkpt lat="46.4145556" lon="11.6274621"/><trkpt lat="46.414444" lon="11.6274159"/><trkpt lat="46.4142953" lon="11.6271776"/><trkpt lat="46.4141789" lon="11.6269159"/><trkpt lat="46.4141361" lon="11.6264865"/><trkpt lat="46.4141864" lon="11.6262058"/><trkpt lat="46.4141375" lon="11.6258347"/><trkpt lat="46.4141559" lon="11.6254662"/><trkpt lat="46.4141661" lon="11.6253203"/><trkpt lat="46.4141565" lon="11.6251906"/><trkpt lat="46.41416" lon="11.6250297"/><trkpt lat="46.4141125" lon="11.6248342"/><trkpt lat="46.4140689" lon="11.6246265"/><trkpt lat="46.4141169" lon="11.6244101"/><trkpt lat="46.4141282" lon="11.6242276"/><trkpt lat="46.4139976" lon="11.6240229"/><trkpt lat="46.4139908" lon="11.6237899"/><trkpt lat="46.4139972" lon="11.6236108"/><trkpt lat="46.4138989" lon="11.6232095"/><trkpt lat="46.4138814" lon="11.6231394"/><trkpt lat="46.4138472" lon="11.6230759"/><trkpt lat="46.413825" lon="11.6230151"/><trkpt lat="46.4138823" lon="11.622769"/><trkpt lat="46.4139455" lon="11.6222254"/><trkpt lat="46.4139359" lon="11.6219222"/><trkpt lat="46.4139049" lon="11.6218715"/><trkpt lat="46.4138874" lon="11.6217863"/><trkpt lat="46.4138699" lon="11.6216698"/><trkpt lat="46.4138328" lon="11.6215771"/><trkpt lat="46.4138132" lon="11.6215218"/><trkpt lat="46.413806" lon="11.6214575"/><trkpt lat="46.4137813" lon="11.6213604"/><trkpt lat="46.4137576" lon="11.6212378"/><trkpt lat="46.413694" lon="11.620919"/><trkpt lat="46.4136741" lon="11.6208582"/><trkpt lat="46.4136401" lon="11.6208014"/><trkpt lat="46.4136245" lon="11.6206994"/><trkpt lat="46.4136195" lon="11.6206266"/><trkpt lat="46.4136152" lon="11.6205524"/><trkpt lat="46.4135422" lon="11.6203978"/><trkpt lat="46.4135088" lon="11.6200574"/><trkpt lat="46.4135263" lon="11.6199048"/><trkpt lat="46.4134879" lon="11.6196872"/><trkpt lat="46.4134318" lon="11.6195402"/><trkpt lat="46.4134237" lon="11.6194668"/><trkpt lat="46.4134186" lon="11.6193742"/><trkpt lat="46.4134278" lon="11.6191981"/><trkpt lat="46.4134877" lon="11.6188041"/><trkpt lat="46.4135345" lon="11.6185597"/><trkpt lat="46.4135605" lon="11.6184329"/><trkpt lat="46.4135984" lon="11.6182809"/><trkpt lat="46.4136191" lon="11.6181771"/><trkpt lat="46.4136633" lon="11.6180553"/><trkpt lat="46.4137171" lon="11.6179347"/><trkpt lat="46.4137663" lon="11.6178326"/><trkpt lat="46.4138075" lon="11.6177302"/><trkpt lat="46.4138627" lon="11.6176398"/><trkpt lat="46.4138957" lon="11.6175972"/><trkpt lat="46.4139013" lon="11.6175688"/><trkpt lat="46.4138828" lon="11.6175531"/><trkpt lat="46.4137328" lon="11.6175531"/><trkpt lat="46.4137178" lon="11.617538"/><trkpt lat="46.413722" lon="11.6175187"/><trkpt lat="46.4138348" lon="11.617388"/><trkpt lat="46.4139457" lon="11.61727"/><trkpt lat="46.4140085" lon="11.6171869"/><trkpt lat="46.4140551" lon="11.6170986"/><trkpt lat="46.414112" lon="11.6170375"/><trkpt lat="46.4141853" lon="11.6169873"/><trkpt lat="46.4142465" lon="11.6168798"/><trkpt lat="46.4142918" lon="11.6167797"/><trkpt lat="46.4143726" lon="11.6166335"/><trkpt lat="46.4144191" lon="11.6165936"/><trkpt lat="46.4144747" lon="11.6165511"/><trkpt lat="46.4145216" lon="11.6165077"/><trkpt lat="46.4145696" lon="11.6164276"/><trkpt lat="46.4146025" lon="11.6163605"/><trkpt lat="46.4146287" lon="11.6163276"/><trkpt lat="46.4146782" lon="11.616276"/><trkpt lat="46.4147534" lon="11.6161769"/><trkpt lat="46.41479" lon="11.6161228"/><trkpt lat="46.4148183" lon="11.6160631"/><trkpt lat="46.4148899" lon="11.6159428"/><trkpt lat="46.4150065" lon="11.6157384"/><trkpt lat="46.4150888" lon="11.6156304"/><trkpt lat="46.4151104" lon="11.615602"/><trkpt lat="46.4152068" lon="11.6154764"/><trkpt lat="46.4152645" lon="11.6153816"/><trkpt lat="46.4153232" lon="11.6152949"/><trkpt lat="46.4154095" lon="11.6151824"/><trkpt lat="46.4154505" lon="11.6151297"/><trkpt lat="46.4154912" lon="11.6150916"/><trkpt lat="46.4155558" lon="11.6150469"/><trkpt lat="46.4157301" lon="11.6149054"/><trkpt lat="46.4157804" lon="11.6148448"/><trkpt lat="46.4157571" lon="11.6147908"/><trkpt lat="46.4157962" lon="11.6147563"/><trkpt lat="46.4158104" lon="11.6147099"/><trkpt lat="46.4157421" lon="11.6146415"/><trkpt lat="46.4157181" lon="11.6146137"/><trkpt lat="46.4156766" lon="11.6146487"/><trkpt lat="46.4156057" lon="11.6144921"/></trkseg></trk></gpx>