<?xml version="1.0" encoding="UTF-8"?><kml xmlns="http://www.opengis.net/kml/2.2"><Document><name>Sass de Putia · панорамное кольцо</name><description>Планировочная реконструкция по OpenStreetMap, 09.09.2026. Не запись GPS и не проверенный навигационный трек. Высоты не экспортированы. Данные © OpenStreetMap contributors, ODbL. Автопереезды и канатки в пеший трек не включены.</description><Style id="track"><LineStyle><color>ff247b51</color><width>4</width></LineStyle></Style><Placemark><name>Passo delle Erbe · старт</name><Point><coordinates>11.8143123,46.6751109</coordinates></Point></Placemark><Placemark><name>Munt de Fornella</name><Point><coordinates>11.8145072,46.6668488</coordinates></Point></Placemark><Placemark><name>Forcella de Putia</name><Point><coordinates>11.814703,46.6502921</coordinates></Point></Placemark><Placemark><name>Ütia Vaciara</name><Point><coordinates>11.8408774,46.6553129</coordinates></Point></Placemark><Placemark><name>Passo Göma</name><Point><coordinates>11.8504897,46.6610789</coordinates></Point></Placemark><Placemark><name>Ütia de Göma</name><Point><coordinates>11.8320798,46.6670511</coordinates></Point></Placemark><Placemark><name>Кольцо Sass de Putia</name><description>Планировочная реконструкция по OpenStreetMap, 09.09.2026. Не запись GPS и не проверенный навигационный трек. Высоты не экспортированы. Данные © OpenStreetMap contributors, ODbL. Автопереезды и канатки в пеший трек не включены.</description><styleUrl>#track</styleUrl><LineString><tessellate>1</tessellate><altitudeMode>clampToGround</altitudeMode><coordinates>11.8143123,46.6751109,0 11.8143042,46.6749936,0 11.8143731,46.6749232,0 11.8143506,46.6748869,0 11.8143227,46.6748584,0 11.8142871,46.6748336,0 11.8141874,46.6748135,0 11.8140907,46.6747941,0 11.8140156,46.6747715,0 11.8139493,46.6747379,0 11.8138741,46.6746913,0 11.8137772,46.6746204,0 11.813739,46.6745842,0 11.8137075,46.6745404,0 11.8136723,46.6744758,0 11.8136608,46.6744374,0 11.8136591,46.6744054,0 11.8136676,46.674366,0 11.8136999,46.674323,0 11.8137719,46.6742925,0 11.8138507,46.6742625,0 11.8138988,46.6742398,0 11.8139367,46.6742106,0 11.8139596,46.6741811,0 11.8139706,46.6741361,0 11.813966,46.6740864,0 11.8139539,46.6740332,0 11.8139584,46.6739884,0 11.8139732,46.6739034,0 11.8139923,46.6738038,0 11.8139803,46.6737645,0 11.8139516,46.6737384,0 11.8138982,46.6737146,0 11.8138211,46.6736906,0 11.8137223,46.6736743,0 11.8136294,46.6736431,0 11.8135642,46.6735902,0 11.8134951,46.6734574,0 11.8134053,46.6733279,0 11.8132232,46.6731605,0 11.8131009,46.6730793,0 11.8129593,46.6730039,0 11.8127316,46.6728957,0 11.8125993,46.6728377,0 11.8125325,46.6728043,0 11.812471,46.6727675,0 11.8124191,46.672716,0 11.8123902,46.6726695,0 11.8123738,46.6726233,0 11.8123339,46.6724397,0 11.8123123,46.6723737,0 11.8122746,46.6722976,0 11.8122292,46.6722397,0 11.8121798,46.6721936,0 11.8121033,46.6721345,0 11.8120142,46.6720759,0 11.8118743,46.6719851,0 11.811752,46.6718818,0 11.8116925,46.6718222,0 11.8116153,46.6717325,0 11.811535,46.6716278,0 11.8114706,46.6715194,0 11.8114087,46.671396,0 11.8113506,46.6711886,0 11.8113272,46.6710709,0 11.8113159,46.6709104,0 11.8113169,46.6707934,0 11.8113375,46.670694,0 11.8113772,46.6705961,0 11.8114453,46.6704892,0 11.811514,46.6704111,0 11.8117523,46.6701925,0 11.8118511,46.670099,0 11.8120044,46.6700081,0 11.8121879,46.6699356,0 11.8122819,46.6698964,0 11.8123874,46.6698239,0 11.8124709,46.6697903,0 11.8126008,46.6697714,0 11.812762,46.6697261,0 11.8128963,46.6696814,0 11.8130445,46.6696461,0 11.8132991,46.6695372,0 11.813397,46.6694594,0 11.8134631,46.6693917,0 11.8135188,46.6693044,0 11.8135603,46.6692054,0 11.8135534,46.6691543,0 11.8135249,46.6691098,0 11.8134523,46.6690052,0 11.8134101,46.6689329,0 11.8134279,46.6688217,0 11.8135274,46.6686791,0 11.8135674,46.6685909,0 11.8136049,46.6684209,0 11.8136852,46.6682351,0 11.8137533,46.6681152,0 11.8137772,46.6680526,0 11.8137883,46.6680043,0 11.8137811,46.6679555,0 11.8137618,46.6678848,0 11.813742,46.6677942,0 11.8137232,46.6677017,0 11.8137045,46.6676109,0 11.8136926,46.6675255,0 11.8136931,46.6674835,0 11.8136934,46.6674522,0 11.8136873,46.6674197,0 11.8140174,46.6672802,0 11.8141347,46.6672264,0 11.8143444,46.667095,0 11.8145068,46.6670156,0 11.8145741,46.6669744,0 11.8145943,46.6669601,0 11.8146074,46.6669425,0 11.814617,46.6669282,0 11.8146301,46.6668947,0 11.814617,46.6669282,0 11.8146074,46.6669425,0 11.8145943,46.6669601,0 11.8145741,46.6669744,0 11.8145068,46.6670156,0 11.8143444,46.667095,0 11.8141347,46.6672264,0 11.8140174,46.6672802,0 11.8136873,46.6674197,0 11.8135208,46.6672252,0 11.8134822,46.6672005,0 11.8134344,46.6671736,0 11.813378,46.667151,0 11.8132759,46.6671238,0 11.8131355,46.667079,0 11.8130335,46.6670566,0 11.8127975,46.6670103,0 11.8127331,46.6669926,0 11.8125674,46.666906,0 11.8122317,46.6666571,0 11.81188,46.666411,0 11.811745,46.6663192,0 11.811601,46.6662348,0 11.8114199,46.6661477,0 11.8112153,46.6660619,0 11.8110581,46.6659736,0 11.8109743,46.665914,0 11.8107609,46.6657716,0 11.8105595,46.6656294,0 11.8103469,46.6654942,0 11.8102342,46.6654235,0 11.8101609,46.6653833,0 11.8098451,46.665192,0 11.8095873,46.6650453,0 11.809326,46.6648806,0 11.8090839,46.6647392,0 11.8089147,46.6646477,0 11.8087538,46.6645563,0 11.8086422,46.6644869,0 11.8085432,46.6644128,0 11.8082703,46.6641403,0 11.8081717,46.6640736,0 11.8081071,46.6640185,0 11.8080702,46.6639741,0 11.8080548,46.6639486,0 11.8080456,46.6639169,0 11.8080527,46.6638854,0 11.8080637,46.6638596,0 11.8080766,46.6638399,0 11.8081194,46.6637878,0 11.8081339,46.6637681,0 11.8081777,46.6637073,0 11.808209,46.6636778,0 11.8083428,46.6635993,0 11.8082964,46.6635471,0 11.8082583,46.6634972,0 11.8082322,46.6634572,0 11.8082341,46.6634449,0 11.8082441,46.6634378,0 11.8082723,46.6634309,0 11.8082908,46.6634208,0 11.8082947,46.6634111,0 11.8082895,46.6633688,0 11.8082963,46.6633531,0 11.8083239,46.6633412,0 11.8083455,46.6633327,0 11.8083602,46.6633135,0 11.8083642,46.6632989,0 11.8083739,46.6632541,0 11.8083824,46.6632366,0 11.808355,46.663114,0 11.8083705,46.662981,0 11.8083882,46.6629233,0 11.8084104,46.6628777,0 11.8084513,46.6628145,0 11.8084797,46.6627655,0 11.8085066,46.6626905,0 11.8085486,46.6626464,0 11.8085645,46.6625511,0 11.8085597,46.6624764,0 11.8085705,46.6624205,0 11.8085749,46.6623288,0 11.8085901,46.662274,0 11.8086135,46.6622187,0 11.8086066,46.6621223,0 11.8085596,46.6620194,0 11.808541,46.6619139,0 11.8084944,46.6618014,0 11.8084249,46.6617144,0 11.8082732,46.6615736,0 11.8080988,46.6614439,0 11.8078723,46.6612964,0 11.8077756,46.6612252,0 11.8077493,46.6611708,0 11.8076964,46.6610872,0 11.8076348,46.6610103,0 11.8075504,46.6609018,0 11.80746,46.6608066,0 11.8073986,46.660738,0 11.807312,46.6606887,0 11.8072472,46.6606496,0 11.8071838,46.6606146,0 11.8071294,46.6605724,0 11.8070772,46.6605137,0 11.8070718,46.6604332,0 11.807049,46.6603934,0 11.8069836,46.6603576,0 11.8069246,46.6603066,0 11.8068828,46.6602567,0 11.8068701,46.6602088,0 11.8068004,46.6601304,0 11.8067975,46.6600512,0 11.8067272,46.659954,0 11.8066712,46.659856,0 11.8066582,46.6598333,0 11.8066508,46.6597683,0 11.8066536,46.6597164,0 11.8066643,46.6596771,0 11.8066954,46.6596404,0 11.8067076,46.6595917,0 11.8066855,46.6595623,0 11.8066772,46.6595513,0 11.806616,46.6595168,0 11.8065572,46.6594584,0 11.8064707,46.659378,0 11.8064386,46.6593118,0 11.8063995,46.6592435,0 11.8063438,46.6591921,0 11.8063098,46.6591062,0 11.8063031,46.6590424,0 11.8062536,46.6589842,0 11.8061904,46.6588758,0 11.8061657,46.6588233,0 11.8061536,46.6587736,0 11.8061859,46.6586583,0 11.8061976,46.6585511,0 11.8062071,46.6584801,0 11.8062017,46.6584165,0 11.8062213,46.6583703,0 11.8062599,46.6583275,0 11.8062755,46.6582924,0 11.8062484,46.658256,0 11.8061795,46.6582446,0 11.8061174,46.6582256,0 11.8060398,46.6582193,0 11.8059928,46.6581747,0 11.8059456,46.6581024,0 11.8058699,46.6580295,0 11.8058215,46.6579859,0 11.8057972,46.6579304,0 11.8057659,46.6578444,0 11.8057005,46.6577707,0 11.8056479,46.6576976,0 11.8056078,46.6576027,0 11.8056363,46.6575138,0 11.805605,46.6574513,0 11.805549,46.6573802,0 11.8055321,46.6573427,0 11.8055389,46.6572698,0 11.8055152,46.6572112,0 11.8055089,46.6571517,0 11.8055372,46.6571179,0 11.8055405,46.6570854,0 11.8054996,46.6570417,0 11.8054405,46.6570131,0 11.80541,46.6569781,0 11.8054013,46.6569436,0 11.8054246,46.6569066,0 11.805413,46.6568829,0 11.8053591,46.6568411,0 11.8052875,46.656783,0 11.8052678,46.6567466,0 11.8052801,46.6567252,0 11.8053203,46.6566681,0 11.8053345,46.6566265,0 11.8053288,46.6565857,0 11.8052618,46.6565308,0 11.8052263,46.65647,0 11.8050914,46.6563867,0 11.8050125,46.6563623,0 11.8049695,46.6563462,0 11.8049498,46.65631,0 11.8049742,46.6562353,0 11.8050423,46.6560834,0 11.805046,46.6560467,0 11.8050167,46.6560236,0 11.80501,46.656005,0 11.8050516,46.6558579,0 11.8051037,46.6556576,0 11.8051571,46.6554983,0 11.8052819,46.6551795,0 11.8054159,46.6549921,0 11.8054833,46.6548703,0 11.8054987,46.6547777,0 11.8056028,46.6541989,0 11.8056634,46.6540825,0 11.805686,46.6540648,0 11.8057141,46.6540326,0 11.8057401,46.6539882,0 11.8057398,46.6538533,0 11.8057361,46.6538128,0 11.80575,46.6537834,0 11.8057336,46.6537432,0 11.8057155,46.6536922,0 11.8057265,46.6536545,0 11.805798,46.6535737,0 11.8058595,46.6535229,0 11.8059003,46.6534381,0 11.8059796,46.6533836,0 11.8060302,46.6533285,0 11.8062443,46.6532341,0 11.8064571,46.6531207,0 11.8065579,46.6530668,0 11.8065822,46.653001,0 11.8066222,46.6529874,0 11.8066683,46.6530192,0 11.8066732,46.653097,0 11.8067458,46.6530644,0 11.8068178,46.6529818,0 11.8068343,46.6529101,0 11.8069222,46.6528254,0 11.8070229,46.6528102,0 11.807068,46.6527834,0 11.8071125,46.6527738,0 11.8071636,46.6527831,0 11.8073129,46.6527814,0 11.8074873,46.6527339,0 11.8077023,46.6527335,0 11.8079172,46.6527331,0 11.8083831,46.6526783,0 11.808677,46.6525385,0 11.8088844,46.6524885,0 11.8089406,46.6524485,0 11.8090386,46.652415,0 11.8091558,46.6524936,0 11.8091891,46.652453,0 11.809256,46.6524101,0 11.8092703,46.6523651,0 11.8093782,46.6523303,0 11.8095219,46.6523044,0 11.8095754,46.6522804,0 11.8096198,46.652286,0 11.8097259,46.6522243,0 11.8100174,46.6521331,0 11.8101544,46.6520494,0 11.810263,46.6520195,0 11.8102701,46.6519841,0 11.8103405,46.6519531,0 11.8104855,46.6519146,0 11.8106765,46.6518805,0 11.8108821,46.6517839,0 11.8109675,46.6517288,0 11.8110807,46.6517222,0 11.8112183,46.651681,0 11.8113533,46.6516479,0 11.81159,46.6515437,0 11.8118683,46.6514123,0 11.8119067,46.6513702,0 11.8119201,46.6513182,0 11.8118966,46.651288,0 11.8118918,46.6512282,0 11.8119311,46.6511864,0 11.8120056,46.6511712,0 11.8120377,46.6511388,0 11.8120335,46.6510881,0 11.8120915,46.6510356,0 11.8121274,46.6510161,0 11.8121793,46.65102,0 11.8122197,46.6510179,0 11.8122663,46.65102,0 11.8123942,46.6510097,0 11.8124785,46.6510133,0 11.8126193,46.6509769,0 11.8127988,46.6509773,0 11.8129274,46.6509617,0 11.8129495,46.6509289,0 11.8128948,46.6508875,0 11.8127949,46.6508449,0 11.81268,46.6508052,0 11.8126472,46.650778,0 11.8127255,46.6507501,0 11.812933,46.6507195,0 11.8130284,46.6507011,0 11.813208,46.6506669,0 11.8135016,46.6505774,0 11.8135281,46.6505478,0 11.8135892,46.6505254,0 11.8137408,46.6505256,0 11.813789,46.6505063,0 11.8139276,46.6505099,0 11.814039,46.6505293,0 11.8140793,46.6505193,0 11.8140648,46.6504896,0 11.8141328,46.650463,0 11.8141588,46.6504899,0 11.8141898,46.650495,0 11.8141955,46.6504628,0 11.8142309,46.6504699,0 11.8142665,46.650494,0 11.8142895,46.6504643,0 11.8143086,46.6504294,0 11.8143891,46.6504297,0 11.8144731,46.6504308,0 11.8145664,46.6503632,0 11.8146298,46.6503225,0 11.814703,46.6502921,0 11.8147823,46.6502405,0 11.8150402,46.6501614,0 11.8152002,46.6500717,0 11.815294,46.6500201,0 11.8162939,46.6496281,0 11.8166903,46.6494643,0 11.8163379,46.6491634,0 11.8170108,46.6492189,0 11.8167846,46.6489093,0 11.8173638,46.648856,0 11.8176037,46.6487008,0 11.8176534,46.6486314,0 11.8176915,46.6485621,0 11.8177132,46.6484982,0 11.8177204,46.6484342,0 11.8177538,46.648388,0 11.8177974,46.6483478,0 11.817844,46.6483032,0 11.8178339,46.6482343,0 11.8178137,46.6481624,0 11.8177872,46.6480994,0 11.817752,46.6480354,0 11.8177614,46.6479675,0 11.8177825,46.6478996,0 11.8177617,46.6478262,0 11.8177336,46.6477528,0 11.8176803,46.6476868,0 11.8176347,46.6476284,0 11.8175391,46.6476064,0 11.8174321,46.6475932,0 11.8173343,46.6475907,0 11.8172797,46.647579,0 11.8172469,46.6475633,0 11.8172186,46.6475132,0 11.8172095,46.6474953,0 11.8171164,46.6473693,0 11.8170738,46.6473125,0 11.8170665,46.6472858,0 11.8170599,46.6472586,0 11.8170634,46.6470831,0 11.8170626,46.6470277,0 11.8170614,46.6469818,0 11.8170447,46.6468179,0 11.8170489,46.6467589,0 11.8170589,46.646721,0 11.8171016,46.646671,0 11.8171294,46.646641,0 11.8173686,46.6464806,0 11.8175176,46.6463672,0 11.817568,46.646325,0 11.817593,46.6463041,0 11.8176273,46.6462834,0 11.817672,46.6462697,0 11.8177663,46.6462507,0 11.8178426,46.6462306,0 11.8178975,46.6462088,0 11.8179474,46.6461837,0 11.8179992,46.6461512,0 11.8180558,46.6460789,0 11.818127,46.6460129,0 11.8181979,46.6459434,0 11.8182491,46.6459005,0 11.8183095,46.645871,0 11.8183692,46.6458523,0 11.8185303,46.6458072,0 11.8186614,46.6457777,0 11.8187554,46.645763,0 11.818853,46.6457591,0 11.8189212,46.6457587,0 11.8190805,46.6457578,0 11.8191282,46.6457654,0 11.8191985,46.6457931,0 11.8197669,46.6460172,0 11.8202496,46.6461968,0 11.8203417,46.6462289,0 11.8204106,46.6462383,0 11.8204821,46.646243,0 11.8205353,46.6462316,0 11.820825,46.6461688,0 11.8209402,46.6461788,0 11.8209725,46.6461818,0 11.8210881,46.6461924,0 11.8211597,46.6462316,0 11.8212103,46.6462981,0 11.8212598,46.646473,0 11.8212332,46.646567,0 11.821211,46.6466937,0 11.821244,46.6467806,0 11.8212827,46.6468619,0 11.8212955,46.6469535,0 11.8212778,46.6470425,0 11.8212731,46.6471048,0 11.8212584,46.6471783,0 11.8212137,46.6472832,0 11.8211676,46.6474442,0 11.821178,46.6475028,0 11.8211821,46.6475961,0 11.8211508,46.6477821,0 11.8211561,46.6478471,0 11.8211762,46.6478873,0 11.8212193,46.6479234,0 11.8212708,46.647952,0 11.82134,46.6479561,0 11.8214358,46.6479347,0 11.8215258,46.647905,0 11.8217765,46.6477726,0 11.8218593,46.6477322,0 11.8219008,46.6477251,0 11.8219481,46.6477169,0 11.8221343,46.6477276,0 11.8222569,46.6477081,0 11.8223849,46.6476487,0 11.8224777,46.6476226,0 11.8226814,46.6476217,0 11.8228198,46.6476373,0 11.8229875,46.6476629,0 11.8231075,46.6476791,0 11.8233459,46.6477035,0 11.8234807,46.6477184,0 11.8235539,46.6477291,0 11.8236063,46.6477414,0 11.8237269,46.6477742,0 11.8238012,46.6477906,0 11.8238568,46.6477983,0 11.8239222,46.647802,0 11.8239775,46.6478007,0 11.8241829,46.6477832,0 11.824319,46.6477882,0 11.8244073,46.6477974,0 11.8245976,46.6478302,0 11.8247358,46.6478503,0 11.8248581,46.6478887,0 11.8249146,46.6479462,0 11.8249762,46.6479961,0 11.8250385,46.6480305,0 11.8251262,46.6480547,0 11.8252384,46.648063,0 11.8254403,46.6480516,0 11.8257903,46.6480662,0 11.8259601,46.6480413,0 11.8261412,46.6480136,0 11.8263877,46.6479831,0 11.8264741,46.6479688,0 11.8265589,46.6479623,0 11.8266356,46.6479658,0 11.8267107,46.6479728,0 11.8268328,46.6479947,0 11.8271392,46.6480626,0 11.8273566,46.6480984,0 11.8274109,46.6481119,0 11.8274718,46.6481333,0 11.8275475,46.6481725,0 11.827696,46.6482603,0 11.8277364,46.6482806,0 11.8278007,46.6483017,0 11.8278494,46.6483089,0 11.8278956,46.6483135,0 11.8280954,46.6483015,0 11.828195,46.6483037,0 11.8282793,46.6483092,0 11.8284494,46.6483338,0 11.8285624,46.6483479,0 11.8286764,46.6483548,0 11.8288639,46.6483692,0 11.8291336,46.6483863,0 11.8292411,46.6483937,0 11.82933,46.6484053,0 11.8297755,46.6484847,0 11.8298811,46.6485005,0 11.8299824,46.6485031,0 11.8300996,46.6484823,0 11.8301988,46.648477,0 11.8303237,46.6484912,0 11.8306518,46.6485909,0 11.8309915,46.648683,0 11.8311483,46.6487428,0 11.8313984,46.648884,0 11.8319095,46.6491238,0 11.8320221,46.6491752,0 11.8321066,46.6491889,0 11.8321729,46.649195,0 11.8322391,46.6492084,0 11.8324466,46.6492606,0 11.8326507,46.6493303,0 11.8328268,46.6493979,0 11.8330119,46.6494587,0 11.8331963,46.6494823,0 11.8335391,46.6495226,0 11.8337531,46.6495294,0 11.8339528,46.6495127,0 11.8345504,46.6495126,0 11.8346191,46.6494886,0 11.8348637,46.6493601,0 11.835156,46.6492273,0 11.8354059,46.6491607,0 11.8358426,46.6490881,0 11.8361417,46.6490103,0 11.8364085,46.6489688,0 11.8367349,46.6489557,0 11.8370806,46.6489319,0 11.8374025,46.648924,0 11.8375235,46.6489282,0 11.8375928,46.6489278,0 11.837735,46.648948,0 11.8378692,46.6489676,0 11.8381561,46.649048,0 11.838401,46.6491289,0 11.8385238,46.6491761,0 11.8385999,46.649217,0 11.8386231,46.6492725,0 11.8386278,46.6493328,0 11.8385889,46.6494459,0 11.8385247,46.6495327,0 11.8384758,46.649577,0 11.8384459,46.6496138,0 11.8384001,46.6496913,0 11.8383643,46.6497916,0 11.8383045,46.6499552,0 11.838107,46.6503143,0 11.8380634,46.6504805,0 11.8380358,46.650594,0 11.8379412,46.6508134,0 11.8379197,46.6509071,0 11.8379461,46.6510561,0 11.8379913,46.6511543,0 11.8380213,46.6512193,0 11.838074,46.6514082,0 11.838117,46.6516062,0 11.8381647,46.6517486,0 11.8382339,46.6518533,0 11.8383195,46.6519798,0 11.8383721,46.6521238,0 11.8384124,46.6522521,0 11.8384208,46.6523248,0 11.8384147,46.6523926,0 11.8383189,46.6525522,0 11.8382685,46.6526348,0 11.8382469,46.6527196,0 11.8382535,46.6528792,0 11.8382738,46.6529858,0 11.8383022,46.6530541,0 11.8383316,46.6531112,0 11.8383884,46.6531708,0 11.8384614,46.6532004,0 11.838445,46.6532229,0 11.8384347,46.6532623,0 11.8384379,46.6532946,0 11.8384355,46.6533856,0 11.8384032,46.6534741,0 11.8385549,46.6534966,0 11.8386578,46.6535063,0 11.8388243,46.6535376,0 11.8390772,46.6535879,0 11.8392329,46.6536243,0 11.8393079,46.6536463,0 11.8393668,46.6536681,0 11.8394053,46.6536959,0 11.8394576,46.6537428,0 11.8394879,46.6537832,0 11.8395419,46.6538748,0 11.8396225,46.6539542,0 11.8396299,46.6539122,0 11.839655,46.6539352,0 11.8396773,46.6539565,0 11.8396868,46.6539821,0 11.8397091,46.6540419,0 11.8397415,46.6540818,0 11.8397767,46.6541189,0 11.8398111,46.6541454,0 11.8398348,46.6541797,0 11.839878,46.6543045,0 11.8399145,46.6545007,0 11.8399321,46.6545453,0 11.8399686,46.6545879,0 11.8400315,46.6546496,0 11.8404174,46.65496,0 11.8404985,46.6550171,0 11.8406276,46.6550894,0 11.840879,46.6552063,0 11.8409845,46.6552954,0 11.8409919,46.6553297,0 11.8410723,46.6553715,0 11.8410912,46.6553622,0 11.8413231,46.6555501,0 11.8413805,46.6556085,0 11.8414326,46.6556744,0 11.8417072,46.6559928,0 11.8418932,46.6560332,0 11.8421231,46.6560853,0 11.8422117,46.656113,0 11.8422908,46.6561523,0 11.8423792,46.6562016,0 11.8424757,46.6562651,0 11.842595,46.6563591,0 11.8427381,46.6564749,0 11.8428109,46.6565206,0 11.8428585,46.6565456,0 11.8429125,46.6565675,0 11.8429527,46.6565761,0 11.8430075,46.6565793,0 11.8430798,46.6565802,0 11.8431502,46.6565696,0 11.8431862,46.6565597,0 11.8433774,46.6566325,0 11.8434101,46.6566463,0 11.8434635,46.6566743,0 11.8435286,46.6567333,0 11.8435551,46.6567681,0 11.843586,46.65681,0 11.8436139,46.6568506,0 11.8436438,46.6568849,0 11.843653,46.6569098,0 11.8436554,46.6569401,0 11.8436699,46.6569872,0 11.8436719,46.6570232,0 11.843666,46.657067,0 11.8436411,46.6571119,0 11.8436317,46.6571495,0 11.8436235,46.6571922,0 11.8436035,46.6572212,0 11.8435596,46.6572719,0 11.8435529,46.6572871,0 11.8435534,46.6573072,0 11.8435334,46.6574056,0 11.843525,46.6574832,0 11.8435078,46.6576051,0 11.8435094,46.6576724,0 11.8435036,46.6577708,0 11.8435429,46.6580073,0 11.8436247,46.6582908,0 11.843684,46.6584488,0 11.8438473,46.6585945,0 11.8441301,46.6588189,0 11.8442627,46.6589603,0 11.8443773,46.6590859,0 11.8445694,46.6592446,0 11.8447629,46.6593558,0 11.8450215,46.6595814,0 11.8450822,46.6596417,0 11.8452619,46.6597385,0 11.8453145,46.659759,0 11.8454494,46.6598208,0 11.8455263,46.6598596,0 11.8455908,46.6598863,0 11.8457224,46.6599324,0 11.8457822,46.6599501,0 11.8458155,46.6599558,0 11.8458691,46.6599556,0 11.8459164,46.6599544,0 11.8459561,46.65996,0 11.8460963,46.6599674,0 11.8462618,46.659992,0 11.8465256,46.6600356,0 11.8468184,46.6600696,0 11.8472615,46.6601601,0 11.847512,46.6602252,0 11.847737,46.6602591,0 11.8479391,46.6603386,0 11.8480924,46.6604434,0 11.8481901,46.6605504,0 11.8482762,46.6606111,0 11.8484984,46.6606151,0 11.8486587,46.6606392,0 11.8489711,46.6606266,0 11.8490824,46.6606304,0 11.8492129,46.6606467,0 11.8494177,46.6606578,0 11.8497252,46.6607466,0 11.8498418,46.6607896,0 11.8499921,46.66082,0 11.8502117,46.6608789,0 11.8503273,46.66093,0 11.8504021,46.6609783,0 11.8504353,46.6610156,0 11.8504623,46.6610568,0 11.8504897,46.6610789,0 11.8505171,46.6611046,0 11.8505635,46.6611312,0 11.8507065,46.6612609,0 11.850732,46.6612945,0 11.8507424,46.6613462,0 11.8507789,46.661412,0 11.8507669,46.6614599,0 11.850791,46.6615078,0 11.8507437,46.6615315,0 11.8506247,46.6615584,0 11.8505573,46.6615961,0 11.8504443,46.6616131,0 11.8504688,46.6616778,0 11.8504675,46.661705,0 11.8504514,46.6617353,0 11.8503981,46.6617922,0 11.850393,46.6618511,0 11.8503555,46.6618796,0 11.8503917,46.661968,0 11.8503756,46.6621072,0 11.8503768,46.6621246,0 11.850328,46.6621316,0 11.850092,46.6621668,0 11.8499803,46.6621925,0 11.8496541,46.6622906,0 11.8495595,46.6623318,0 11.8494582,46.6624557,0 11.8494454,46.6624727,0 11.8493968,46.6624934,0 11.8493589,46.6625012,0 11.8488989,46.6624343,0 11.8487054,46.6624183,0 11.8485902,46.6624088,0 11.8484588,46.6623474,0 11.8479783,46.6623506,0 11.847675,46.6623872,0 11.8475219,46.6623984,0 11.8474214,46.6624691,0 11.8473097,46.6625042,0 11.8469945,46.6625729,0 11.8468319,46.6626417,0 11.8466283,46.6627855,0 11.8462366,46.6630151,0 11.8460722,46.6630765,0 11.8458277,46.6631159,0 11.8450505,46.6631693,0 11.8445473,46.6632706,0 11.8440854,46.6633979,0 11.8437807,46.6635238,0 11.8436661,46.6636101,0 11.8432791,46.6637428,0 11.8428946,46.6639668,0 11.8421234,46.6642996,0 11.8418308,46.6644538,0 11.8415189,46.6645737,0 11.8409999,46.6648059,0 11.8407243,46.6649892,0 11.840573,46.6650642,0 11.8404216,46.6651094,0 11.8402258,46.6651447,0 11.8399689,46.6651663,0 11.8397167,46.6651827,0 11.8394828,46.6652115,0 11.8390387,46.6653282,0 11.8386166,46.6654782,0 11.8382068,46.6655831,0 11.8379706,46.6656727,0 11.8378819,46.6656938,0 11.8377345,46.6657235,0 11.8375416,46.6657642,0 11.8373471,46.6658174,0 11.837032,46.6658894,0 11.8367295,46.6659311,0 11.8365648,46.665962,0 11.8364851,46.6659947,0 11.8364083,46.6660346,0 11.8361815,46.666154,0 11.8360138,46.6662334,0 11.835892,46.6662842,0 11.8357976,46.6663091,0 11.8354519,46.6664023,0 11.8346207,46.6666722,0 11.8344214,46.6667003,0 11.8343241,46.6667214,0 11.8342362,46.6667509,0 11.834169,46.6667775,0 11.8340353,46.6668572,0 11.8339147,46.6669308,0 11.8338584,46.6669563,0 11.8338019,46.6669778,0 11.8337381,46.6669964,0 11.8333842,46.6670505,0 11.8332548,46.6670409,0 11.83308,46.6670726,0 11.8328296,46.6671067,0 11.8326738,46.6671277,0 11.832413,46.6671792,0 11.8321568,46.6672167,0 11.8321252,46.6672029,0 11.8321539,46.6670916,0 11.8321252,46.6672029,0 11.8321568,46.6672167,0 11.8321153,46.6672282,0 11.8320858,46.6672419,0 11.8320692,46.6672632,0 11.8320451,46.6672972,0 11.8318922,46.6675269,0 11.8318739,46.6675587,0 11.8318601,46.6676046,0 11.8318396,46.6677126,0 11.8318333,46.6677372,0 11.8318212,46.6677571,0 11.831751,46.6678218,0 11.8316611,46.6678931,0 11.8315931,46.667952,0 11.831544,46.6680271,0 11.8314817,46.6680989,0 11.8314641,46.6681201,0 11.8314458,46.6681382,0 11.8312465,46.6682385,0 11.8312088,46.6682595,0 11.8311901,46.6682722,0 11.8311689,46.6683066,0 11.831141,46.6683355,0 11.8311181,46.6683532,0 11.8309046,46.6684707,0 11.8307663,46.6685948,0 11.8306564,46.6686454,0 11.8305806,46.6686611,0 11.8305366,46.6686648,0 11.8304076,46.6686755,0 11.8297684,46.6686109,0 11.8290352,46.6684913,0 11.8289311,46.6684696,0 11.8289,46.6684573,0 11.8288817,46.6684473,0 11.8288097,46.6684023,0 11.8283624,46.6680518,0 11.8280791,46.6678406,0 11.8279283,46.6677528,0 11.8274596,46.6673654,0 11.8273885,46.6673482,0 11.8272944,46.6673901,0 11.8271897,46.6673873,0 11.8271528,46.6673631,0 11.8270548,46.6671753,0 11.8269898,46.6671327,0 11.8267068,46.6670315,0 11.8266357,46.6669779,0 11.8265335,46.666962,0 11.8263978,46.6669121,0 11.8261812,46.6668878,0 11.8257658,46.6667708,0 11.8253219,46.6665637,0 11.8253089,46.6664847,0 11.825293,46.6664561,0 11.8252688,46.6664376,0 11.8251727,46.6664174,0 11.8250533,46.666389,0 11.8249987,46.6663638,0 11.8249591,46.6663372,0 11.8247367,46.6660691,0 11.8246238,46.6660079,0 11.8245093,46.6658841,0 11.8243639,46.6657547,0 11.8243403,46.6657274,0 11.8243215,46.6656658,0 11.8243026,46.6656449,0 11.8242346,46.6656265,0 11.824197,46.665604,0 11.8241779,46.665581,0 11.824152,46.665535,0 11.824126,46.6655062,0 11.8240971,46.6654935,0 11.8240186,46.6654735,0 11.8238685,46.6654412,0 11.8238198,46.6654305,0 11.8237949,46.6654332,0 11.8237703,46.6654435,0 11.8237479,46.6654698,0 11.8237368,46.6655172,0 11.8236813,46.6655361,0 11.8234548,46.6655572,0 11.8232996,46.665535,0 11.823219,46.6655569,0 11.8230528,46.6657156,0 11.8229535,46.6657589,0 11.8228541,46.665816,0 11.8227757,46.6658298,0 11.8226657,46.66581,0 11.822522,46.6658239,0 11.8224339,46.6658188,0 11.8222982,46.6658235,0 11.8222398,46.6658925,0 11.8220657,46.6659347,0 11.8220557,46.6659969,0 11.8219536,46.6660714,0 11.8218006,46.6661213,0 11.8216445,46.6661924,0 11.8214521,46.6662349,0 11.8212897,46.6662362,0 11.8211325,46.6662654,0 11.820991,46.6662743,0 11.8209018,46.6663254,0 11.8206184,46.6663939,0 11.8203689,46.6663673,0 11.8202209,46.6662987,0 11.8200208,46.6662709,0 11.8198722,46.6661892,0 11.8195784,46.6660806,0 11.8195342,46.6659753,0 11.8192561,46.6658133,0 11.8191539,46.6657479,0 11.8191004,46.6657525,0 11.8190204,46.6657346,0 11.8189187,46.6657387,0 11.8188048,46.6657083,0 11.8187498,46.6656948,0 11.8187088,46.6656975,0 11.8186162,46.6657138,0 11.8185494,46.6657329,0 11.8184391,46.6657628,0 11.8182143,46.6658009,0 11.8180799,46.6658551,0 11.8179495,46.6659238,0 11.8177898,46.6659853,0 11.8174711,46.666091,0 11.8172271,46.6661424,0 11.816257,46.6665551,0 11.8151415,46.666925,0 11.8149355,46.6670055,0 11.8148293,46.6670532,0 11.8147544,46.6670877,0 11.8147259,46.6671035,0 11.8146754,46.6671175,0 11.8146062,46.6671256,0 11.814543,46.6671256,0 11.8145081,46.6671247,0 11.8144597,46.6671212,0 11.814416,46.6671152,0 11.8143847,46.6671077,0 11.8143444,46.667095,0 11.8145068,46.6670156,0 11.8145741,46.6669744,0 11.8145943,46.6669601,0 11.8146074,46.6669425,0 11.814617,46.6669282,0 11.8146301,46.6668947,0 11.814617,46.6669282,0 11.8146074,46.6669425,0 11.8145943,46.6669601,0 11.8145741,46.6669744,0 11.8145068,46.6670156,0 11.8143444,46.667095,0 11.8141347,46.6672264,0 11.8140174,46.6672802,0 11.8136873,46.6674197,0 11.8136934,46.6674522,0 11.8136931,46.6674835,0 11.8136926,46.6675255,0 11.8137045,46.6676109,0 11.8137232,46.6677017,0 11.813742,46.6677942,0 11.8137618,46.6678848,0 11.8137811,46.6679555,0 11.8137883,46.6680043,0 11.8137772,46.6680526,0 11.8137533,46.6681152,0 11.8136852,46.6682351,0 11.8136049,46.6684209,0 11.8135674,46.6685909,0 11.8135274,46.6686791,0 11.8134279,46.6688217,0 11.8134101,46.6689329,0 11.8134523,46.6690052,0 11.8135249,46.6691098,0 11.8135534,46.6691543,0 11.8135603,46.6692054,0 11.8135188,46.6693044,0 11.8134631,46.6693917,0 11.813397,46.6694594,0 11.8132991,46.6695372,0 11.8130445,46.6696461,0 11.8128963,46.6696814,0 11.812762,46.6697261,0 11.8126008,46.6697714,0 11.8124709,46.6697903,0 11.8123874,46.6698239,0 11.8122819,46.6698964,0 11.8121879,46.6699356,0 11.8120044,46.6700081,0 11.8118511,46.670099,0 11.8117523,46.6701925,0 11.811514,46.6704111,0 11.8114453,46.6704892,0 11.8113772,46.6705961,0 11.8113375,46.670694,0 11.8113169,46.6707934,0 11.8113159,46.6709104,0 11.8113272,46.6710709,0 11.8113506,46.6711886,0 11.8114087,46.671396,0 11.8114706,46.6715194,0 11.811535,46.6716278,0 11.8116153,46.6717325,0 11.8116925,46.6718222,0 11.811752,46.6718818,0 11.8118743,46.6719851,0 11.8120142,46.6720759,0 11.8121033,46.6721345,0 11.8121798,46.6721936,0 11.8122292,46.6722397,0 11.8122746,46.6722976,0 11.8123123,46.6723737,0 11.8123339,46.6724397,0 11.8123738,46.6726233,0 11.8123902,46.6726695,0 11.8124191,46.672716,0 11.812471,46.6727675,0 11.8125325,46.6728043,0 11.8125993,46.6728377,0 11.8127316,46.6728957,0 11.8129593,46.6730039,0 11.8131009,46.6730793,0 11.8132232,46.6731605,0 11.8134053,46.6733279,0 11.8134951,46.6734574,0 11.8135642,46.6735902,0 11.8136294,46.6736431,0 11.8137223,46.6736743,0 11.8138211,46.6736906,0 11.8138982,46.6737146,0 11.8139516,46.6737384,0 11.8139803,46.6737645,0 11.8139923,46.6738038,0 11.8139732,46.6739034,0 11.8139584,46.6739884,0 11.8139539,46.6740332,0 11.813966,46.6740864,0 11.8139706,46.6741361,0 11.8139596,46.6741811,0 11.8139367,46.6742106,0 11.8138988,46.6742398,0 11.8138507,46.6742625,0 11.8137719,46.6742925,0 11.8136999,46.674323,0 11.8136676,46.674366,0 11.8136591,46.6744054,0 11.8136608,46.6744374,0 11.8136723,46.6744758,0 11.8137075,46.6745404,0 11.813739,46.6745842,0 11.8137772,46.6746204,0 11.8138741,46.6746913,0 11.8139493,46.6747379,0 11.8140156,46.6747715,0 11.8140907,46.6747941,0 11.8141874,46.6748135,0 11.8142871,46.6748336,0 11.8143227,46.6748584,0 11.8143506,46.6748869,0 11.8143731,46.6749232,0 11.8143042,46.6749936,0 11.8143123,46.6751109,0</coordinates></LineString></Placemark></Document></kml>