<?xml version="1.0" encoding="UTF-8"?><gpx version="1.1" creator="Dolomites Atlas" xmlns="http://www.topografix.com/GPX/1/1"><metadata><name>Sass de Putia · панорамное кольцо</name><desc>Планировочная реконструкция по OpenStreetMap, 09.09.2026. Не запись GPS и не проверенный навигационный трек. Высоты не экспортированы. Данные © OpenStreetMap contributors, ODbL. Автопереезды и канатки в пеший трек не включены.</desc><link href="https://www.openstreetmap.org/copyright"><text>OpenStreetMap contributors · ODbL</text></link></metadata><wpt lat="46.6751109" lon="11.8143123"><name>Passo delle Erbe · старт</name></wpt><wpt lat="46.6668488" lon="11.8145072"><name>Munt de Fornella</name></wpt><wpt lat="46.6502921" lon="11.814703"><name>Forcella de Putia</name></wpt><wpt lat="46.6553129" lon="11.8408774"><name>Ütia Vaciara</name></wpt><wpt lat="46.6610789" lon="11.8504897"><name>Passo Göma</name></wpt><wpt lat="46.6670511" lon="11.8320798"><name>Ütia de Göma</name></wpt><trk><name>Кольцо Sass de Putia</name><desc>Планировочная реконструкция по OpenStreetMap, 09.09.2026. Не запись GPS и не проверенный навигационный трек. Высоты не экспортированы. Данные © OpenStreetMap contributors, ODbL. Автопереезды и канатки в пеший трек не включены.</desc><type>hiking</type><trkseg><trkpt lat="46.6751109" lon="11.8143123"/><trkpt lat="46.6749936" lon="11.8143042"/><trkpt lat="46.6749232" lon="11.8143731"/><trkpt lat="46.6748869" lon="11.8143506"/><trkpt lat="46.6748584" lon="11.8143227"/><trkpt lat="46.6748336" lon="11.8142871"/><trkpt lat="46.6748135" lon="11.8141874"/><trkpt lat="46.6747941" lon="11.8140907"/><trkpt lat="46.6747715" lon="11.8140156"/><trkpt lat="46.6747379" lon="11.8139493"/><trkpt lat="46.6746913" lon="11.8138741"/><trkpt lat="46.6746204" lon="11.8137772"/><trkpt lat="46.6745842" lon="11.813739"/><trkpt lat="46.6745404" lon="11.8137075"/><trkpt lat="46.6744758" lon="11.8136723"/><trkpt lat="46.6744374" lon="11.8136608"/><trkpt lat="46.6744054" lon="11.8136591"/><trkpt lat="46.674366" lon="11.8136676"/><trkpt lat="46.674323" lon="11.8136999"/><trkpt lat="46.6742925" lon="11.8137719"/><trkpt lat="46.6742625" lon="11.8138507"/><trkpt lat="46.6742398" lon="11.8138988"/><trkpt lat="46.6742106" lon="11.8139367"/><trkpt lat="46.6741811" lon="11.8139596"/><trkpt lat="46.6741361" lon="11.8139706"/><trkpt lat="46.6740864" lon="11.813966"/><trkpt lat="46.6740332" lon="11.8139539"/><trkpt lat="46.6739884" lon="11.8139584"/><trkpt lat="46.6739034" lon="11.8139732"/><trkpt lat="46.6738038" lon="11.8139923"/><trkpt lat="46.6737645" lon="11.8139803"/><trkpt lat="46.6737384" lon="11.8139516"/><trkpt lat="46.6737146" lon="11.8138982"/><trkpt lat="46.6736906" lon="11.8138211"/><trkpt lat="46.6736743" lon="11.8137223"/><trkpt lat="46.6736431" lon="11.8136294"/><trkpt lat="46.6735902" lon="11.8135642"/><trkpt lat="46.6734574" lon="11.8134951"/><trkpt lat="46.6733279" lon="11.8134053"/><trkpt lat="46.6731605" lon="11.8132232"/><trkpt lat="46.6730793" lon="11.8131009"/><trkpt lat="46.6730039" lon="11.8129593"/><trkpt lat="46.6728957" lon="11.8127316"/><trkpt lat="46.6728377" lon="11.8125993"/><trkpt lat="46.6728043" lon="11.8125325"/><trkpt lat="46.6727675" lon="11.812471"/><trkpt lat="46.672716" lon="11.8124191"/><trkpt lat="46.6726695" lon="11.8123902"/><trkpt lat="46.6726233" lon="11.8123738"/><trkpt lat="46.6724397" lon="11.8123339"/><trkpt lat="46.6723737" lon="11.8123123"/><trkpt lat="46.6722976" lon="11.8122746"/><trkpt lat="46.6722397" lon="11.8122292"/><trkpt lat="46.6721936" lon="11.8121798"/><trkpt lat="46.6721345" lon="11.8121033"/><trkpt lat="46.6720759" lon="11.8120142"/><trkpt lat="46.6719851" lon="11.8118743"/><trkpt lat="46.6718818" lon="11.811752"/><trkpt lat="46.6718222" lon="11.8116925"/><trkpt lat="46.6717325" lon="11.8116153"/><trkpt lat="46.6716278" lon="11.811535"/><trkpt lat="46.6715194" lon="11.8114706"/><trkpt lat="46.671396" lon="11.8114087"/><trkpt lat="46.6711886" lon="11.8113506"/><trkpt lat="46.6710709" lon="11.8113272"/><trkpt lat="46.6709104" lon="11.8113159"/><trkpt lat="46.6707934" lon="11.8113169"/><trkpt lat="46.670694" lon="11.8113375"/><trkpt lat="46.6705961" lon="11.8113772"/><trkpt lat="46.6704892" lon="11.8114453"/><trkpt lat="46.6704111" lon="11.811514"/><trkpt lat="46.6701925" lon="11.8117523"/><trkpt lat="46.670099" lon="11.8118511"/><trkpt lat="46.6700081" lon="11.8120044"/><trkpt lat="46.6699356" lon="11.8121879"/><trkpt lat="46.6698964" lon="11.8122819"/><trkpt lat="46.6698239" lon="11.8123874"/><trkpt lat="46.6697903" lon="11.8124709"/><trkpt lat="46.6697714" lon="11.8126008"/><trkpt lat="46.6697261" lon="11.812762"/><trkpt lat="46.6696814" lon="11.8128963"/><trkpt lat="46.6696461" lon="11.8130445"/><trkpt lat="46.6695372" lon="11.8132991"/><trkpt lat="46.6694594" lon="11.813397"/><trkpt lat="46.6693917" lon="11.8134631"/><trkpt lat="46.6693044" lon="11.8135188"/><trkpt lat="46.6692054" lon="11.8135603"/><trkpt lat="46.6691543" lon="11.8135534"/><trkpt lat="46.6691098" lon="11.8135249"/><trkpt lat="46.6690052" lon="11.8134523"/><trkpt lat="46.6689329" lon="11.8134101"/><trkpt lat="46.6688217" lon="11.8134279"/><trkpt lat="46.6686791" lon="11.8135274"/><trkpt lat="46.6685909" lon="11.8135674"/><trkpt lat="46.6684209" lon="11.8136049"/><trkpt lat="46.6682351" lon="11.8136852"/><trkpt lat="46.6681152" lon="11.8137533"/><trkpt lat="46.6680526" lon="11.8137772"/><trkpt lat="46.6680043" lon="11.8137883"/><trkpt lat="46.6679555" lon="11.8137811"/><trkpt lat="46.6678848" lon="11.8137618"/><trkpt lat="46.6677942" lon="11.813742"/><trkpt lat="46.6677017" lon="11.8137232"/><trkpt lat="46.6676109" lon="11.8137045"/><trkpt lat="46.6675255" lon="11.8136926"/><trkpt lat="46.6674835" lon="11.8136931"/><trkpt lat="46.6674522" lon="11.8136934"/><trkpt lat="46.6674197" lon="11.8136873"/><trkpt lat="46.6672802" lon="11.8140174"/><trkpt lat="46.6672264" lon="11.8141347"/><trkpt lat="46.667095" lon="11.8143444"/><trkpt lat="46.6670156" lon="11.8145068"/><trkpt lat="46.6669744" lon="11.8145741"/><trkpt lat="46.6669601" lon="11.8145943"/><trkpt lat="46.6669425" lon="11.8146074"/><trkpt lat="46.6669282" lon="11.814617"/><trkpt lat="46.6668947" lon="11.8146301"/><trkpt lat="46.6669282" lon="11.814617"/><trkpt lat="46.6669425" lon="11.8146074"/><trkpt lat="46.6669601" lon="11.8145943"/><trkpt lat="46.6669744" lon="11.8145741"/><trkpt lat="46.6670156" lon="11.8145068"/><trkpt lat="46.667095" lon="11.8143444"/><trkpt lat="46.6672264" lon="11.8141347"/><trkpt lat="46.6672802" lon="11.8140174"/><trkpt lat="46.6674197" lon="11.8136873"/><trkpt lat="46.6672252" lon="11.8135208"/><trkpt lat="46.6672005" lon="11.8134822"/><trkpt lat="46.6671736" lon="11.8134344"/><trkpt lat="46.667151" lon="11.813378"/><trkpt lat="46.6671238" lon="11.8132759"/><trkpt lat="46.667079" lon="11.8131355"/><trkpt lat="46.6670566" lon="11.8130335"/><trkpt lat="46.6670103" lon="11.8127975"/><trkpt lat="46.6669926" lon="11.8127331"/><trkpt lat="46.666906" lon="11.8125674"/><trkpt lat="46.6666571" lon="11.8122317"/><trkpt lat="46.666411" lon="11.81188"/><trkpt lat="46.6663192" lon="11.811745"/><trkpt lat="46.6662348" lon="11.811601"/><trkpt lat="46.6661477" lon="11.8114199"/><trkpt lat="46.6660619" lon="11.8112153"/><trkpt lat="46.6659736" lon="11.8110581"/><trkpt lat="46.665914" lon="11.8109743"/><trkpt lat="46.6657716" lon="11.8107609"/><trkpt lat="46.6656294" lon="11.8105595"/><trkpt lat="46.6654942" lon="11.8103469"/><trkpt lat="46.6654235" lon="11.8102342"/><trkpt lat="46.6653833" lon="11.8101609"/><trkpt lat="46.665192" lon="11.8098451"/><trkpt lat="46.6650453" lon="11.8095873"/><trkpt lat="46.6648806" lon="11.809326"/><trkpt lat="46.6647392" lon="11.8090839"/><trkpt lat="46.6646477" lon="11.8089147"/><trkpt lat="46.6645563" lon="11.8087538"/><trkpt lat="46.6644869" lon="11.8086422"/><trkpt lat="46.6644128" lon="11.8085432"/><trkpt lat="46.6641403" lon="11.8082703"/><trkpt lat="46.6640736" lon="11.8081717"/><trkpt lat="46.6640185" lon="11.8081071"/><trkpt lat="46.6639741" lon="11.8080702"/><trkpt lat="46.6639486" lon="11.8080548"/><trkpt lat="46.6639169" lon="11.8080456"/><trkpt lat="46.6638854" lon="11.8080527"/><trkpt lat="46.6638596" lon="11.8080637"/><trkpt lat="46.6638399" lon="11.8080766"/><trkpt lat="46.6637878" lon="11.8081194"/><trkpt lat="46.6637681" lon="11.8081339"/><trkpt lat="46.6637073" lon="11.8081777"/><trkpt lat="46.6636778" lon="11.808209"/><trkpt lat="46.6635993" lon="11.8083428"/><trkpt lat="46.6635471" lon="11.8082964"/><trkpt lat="46.6634972" lon="11.8082583"/><trkpt lat="46.6634572" lon="11.8082322"/><trkpt lat="46.6634449" lon="11.8082341"/><trkpt lat="46.6634378" lon="11.8082441"/><trkpt lat="46.6634309" lon="11.8082723"/><trkpt lat="46.6634208" lon="11.8082908"/><trkpt lat="46.6634111" lon="11.8082947"/><trkpt lat="46.6633688" lon="11.8082895"/><trkpt lat="46.6633531" lon="11.8082963"/><trkpt lat="46.6633412" lon="11.8083239"/><trkpt lat="46.6633327" lon="11.8083455"/><trkpt lat="46.6633135" lon="11.8083602"/><trkpt lat="46.6632989" lon="11.8083642"/><trkpt lat="46.6632541" lon="11.8083739"/><trkpt lat="46.6632366" lon="11.8083824"/><trkpt lat="46.663114" lon="11.808355"/><trkpt lat="46.662981" lon="11.8083705"/><trkpt lat="46.6629233" lon="11.8083882"/><trkpt lat="46.6628777" lon="11.8084104"/><trkpt lat="46.6628145" lon="11.8084513"/><trkpt lat="46.6627655" lon="11.8084797"/><trkpt lat="46.6626905" lon="11.8085066"/><trkpt lat="46.6626464" lon="11.8085486"/><trkpt lat="46.6625511" lon="11.8085645"/><trkpt lat="46.6624764" lon="11.8085597"/><trkpt lat="46.6624205" lon="11.8085705"/><trkpt lat="46.6623288" lon="11.8085749"/><trkpt lat="46.662274" lon="11.8085901"/><trkpt lat="46.6622187" lon="11.8086135"/><trkpt lat="46.6621223" lon="11.8086066"/><trkpt lat="46.6620194" lon="11.8085596"/><trkpt lat="46.6619139" lon="11.808541"/><trkpt lat="46.6618014" lon="11.8084944"/><trkpt lat="46.6617144" lon="11.8084249"/><trkpt lat="46.6615736" lon="11.8082732"/><trkpt lat="46.6614439" lon="11.8080988"/><trkpt lat="46.6612964" lon="11.8078723"/><trkpt lat="46.6612252" lon="11.8077756"/><trkpt lat="46.6611708" lon="11.8077493"/><trkpt lat="46.6610872" lon="11.8076964"/><trkpt lat="46.6610103" lon="11.8076348"/><trkpt lat="46.6609018" lon="11.8075504"/><trkpt lat="46.6608066" lon="11.80746"/><trkpt lat="46.660738" lon="11.8073986"/><trkpt lat="46.6606887" lon="11.807312"/><trkpt lat="46.6606496" lon="11.8072472"/><trkpt lat="46.6606146" lon="11.8071838"/><trkpt lat="46.6605724" lon="11.8071294"/><trkpt lat="46.6605137" lon="11.8070772"/><trkpt lat="46.6604332" lon="11.8070718"/><trkpt lat="46.6603934" lon="11.807049"/><trkpt lat="46.6603576" lon="11.8069836"/><trkpt lat="46.6603066" lon="11.8069246"/><trkpt lat="46.6602567" lon="11.8068828"/><trkpt lat="46.6602088" lon="11.8068701"/><trkpt lat="46.6601304" lon="11.8068004"/><trkpt lat="46.6600512" lon="11.8067975"/><trkpt lat="46.659954" lon="11.8067272"/><trkpt lat="46.659856" lon="11.8066712"/><trkpt lat="46.6598333" lon="11.8066582"/><trkpt lat="46.6597683" lon="11.8066508"/><trkpt lat="46.6597164" lon="11.8066536"/><trkpt lat="46.6596771" lon="11.8066643"/><trkpt lat="46.6596404" lon="11.8066954"/><trkpt lat="46.6595917" lon="11.8067076"/><trkpt lat="46.6595623" lon="11.8066855"/><trkpt lat="46.6595513" lon="11.8066772"/><trkpt lat="46.6595168" lon="11.806616"/><trkpt lat="46.6594584" lon="11.8065572"/><trkpt lat="46.659378" lon="11.8064707"/><trkpt lat="46.6593118" lon="11.8064386"/><trkpt lat="46.6592435" lon="11.8063995"/><trkpt lat="46.6591921" lon="11.8063438"/><trkpt lat="46.6591062" lon="11.8063098"/><trkpt lat="46.6590424" lon="11.8063031"/><trkpt lat="46.6589842" lon="11.8062536"/><trkpt lat="46.6588758" lon="11.8061904"/><trkpt lat="46.6588233" lon="11.8061657"/><trkpt lat="46.6587736" lon="11.8061536"/><trkpt lat="46.6586583" lon="11.8061859"/><trkpt lat="46.6585511" lon="11.8061976"/><trkpt lat="46.6584801" lon="11.8062071"/><trkpt lat="46.6584165" lon="11.8062017"/><trkpt lat="46.6583703" lon="11.8062213"/><trkpt lat="46.6583275" lon="11.8062599"/><trkpt lat="46.6582924" lon="11.8062755"/><trkpt lat="46.658256" lon="11.8062484"/><trkpt lat="46.6582446" lon="11.8061795"/><trkpt lat="46.6582256" lon="11.8061174"/><trkpt lat="46.6582193" lon="11.8060398"/><trkpt lat="46.6581747" lon="11.8059928"/><trkpt lat="46.6581024" lon="11.8059456"/><trkpt lat="46.6580295" lon="11.8058699"/><trkpt lat="46.6579859" lon="11.8058215"/><trkpt lat="46.6579304" lon="11.8057972"/><trkpt lat="46.6578444" lon="11.8057659"/><trkpt lat="46.6577707" lon="11.8057005"/><trkpt lat="46.6576976" lon="11.8056479"/><trkpt lat="46.6576027" lon="11.8056078"/><trkpt lat="46.6575138" lon="11.8056363"/><trkpt lat="46.6574513" lon="11.805605"/><trkpt lat="46.6573802" lon="11.805549"/><trkpt lat="46.6573427" lon="11.8055321"/><trkpt lat="46.6572698" lon="11.8055389"/><trkpt lat="46.6572112" lon="11.8055152"/><trkpt lat="46.6571517" lon="11.8055089"/><trkpt lat="46.6571179" lon="11.8055372"/><trkpt lat="46.6570854" lon="11.8055405"/><trkpt lat="46.6570417" lon="11.8054996"/><trkpt lat="46.6570131" lon="11.8054405"/><trkpt lat="46.6569781" lon="11.80541"/><trkpt lat="46.6569436" lon="11.8054013"/><trkpt lat="46.6569066" lon="11.8054246"/><trkpt lat="46.6568829" lon="11.805413"/><trkpt lat="46.6568411" lon="11.8053591"/><trkpt lat="46.656783" lon="11.8052875"/><trkpt lat="46.6567466" lon="11.8052678"/><trkpt lat="46.6567252" lon="11.8052801"/><trkpt lat="46.6566681" lon="11.8053203"/><trkpt lat="46.6566265" lon="11.8053345"/><trkpt lat="46.6565857" lon="11.8053288"/><trkpt lat="46.6565308" lon="11.8052618"/><trkpt lat="46.65647" lon="11.8052263"/><trkpt lat="46.6563867" lon="11.8050914"/><trkpt lat="46.6563623" lon="11.8050125"/><trkpt lat="46.6563462" lon="11.8049695"/><trkpt lat="46.65631" lon="11.8049498"/><trkpt lat="46.6562353" lon="11.8049742"/><trkpt lat="46.6560834" lon="11.8050423"/><trkpt lat="46.6560467" lon="11.805046"/><trkpt lat="46.6560236" lon="11.8050167"/><trkpt lat="46.656005" lon="11.80501"/><trkpt lat="46.6558579" lon="11.8050516"/><trkpt lat="46.6556576" lon="11.8051037"/><trkpt lat="46.6554983" lon="11.8051571"/><trkpt lat="46.6551795" lon="11.8052819"/><trkpt lat="46.6549921" lon="11.8054159"/><trkpt lat="46.6548703" lon="11.8054833"/><trkpt lat="46.6547777" lon="11.8054987"/><trkpt lat="46.6541989" lon="11.8056028"/><trkpt lat="46.6540825" lon="11.8056634"/><trkpt lat="46.6540648" lon="11.805686"/><trkpt lat="46.6540326" lon="11.8057141"/><trkpt lat="46.6539882" lon="11.8057401"/><trkpt lat="46.6538533" lon="11.8057398"/><trkpt lat="46.6538128" lon="11.8057361"/><trkpt lat="46.6537834" lon="11.80575"/><trkpt lat="46.6537432" lon="11.8057336"/><trkpt lat="46.6536922" lon="11.8057155"/><trkpt lat="46.6536545" lon="11.8057265"/><trkpt lat="46.6535737" lon="11.805798"/><trkpt lat="46.6535229" lon="11.8058595"/><trkpt lat="46.6534381" lon="11.8059003"/><trkpt lat="46.6533836" lon="11.8059796"/><trkpt lat="46.6533285" lon="11.8060302"/><trkpt lat="46.6532341" lon="11.8062443"/><trkpt lat="46.6531207" lon="11.8064571"/><trkpt lat="46.6530668" lon="11.8065579"/><trkpt lat="46.653001" lon="11.8065822"/><trkpt lat="46.6529874" lon="11.8066222"/><trkpt lat="46.6530192" lon="11.8066683"/><trkpt lat="46.653097" lon="11.8066732"/><trkpt lat="46.6530644" lon="11.8067458"/><trkpt lat="46.6529818" lon="11.8068178"/><trkpt lat="46.6529101" lon="11.8068343"/><trkpt lat="46.6528254" lon="11.8069222"/><trkpt lat="46.6528102" lon="11.8070229"/><trkpt lat="46.6527834" lon="11.807068"/><trkpt lat="46.6527738" lon="11.8071125"/><trkpt lat="46.6527831" lon="11.8071636"/><trkpt lat="46.6527814" lon="11.8073129"/><trkpt lat="46.6527339" lon="11.8074873"/><trkpt lat="46.6527335" lon="11.8077023"/><trkpt lat="46.6527331" lon="11.8079172"/><trkpt lat="46.6526783" lon="11.8083831"/><trkpt lat="46.6525385" lon="11.808677"/><trkpt lat="46.6524885" lon="11.8088844"/><trkpt lat="46.6524485" lon="11.8089406"/><trkpt lat="46.652415" lon="11.8090386"/><trkpt lat="46.6524936" lon="11.8091558"/><trkpt lat="46.652453" lon="11.8091891"/><trkpt lat="46.6524101" lon="11.809256"/><trkpt lat="46.6523651" lon="11.8092703"/><trkpt lat="46.6523303" lon="11.8093782"/><trkpt lat="46.6523044" lon="11.8095219"/><trkpt lat="46.6522804" lon="11.8095754"/><trkpt lat="46.652286" lon="11.8096198"/><trkpt lat="46.6522243" lon="11.8097259"/><trkpt lat="46.6521331" lon="11.8100174"/><trkpt lat="46.6520494" lon="11.8101544"/><trkpt lat="46.6520195" lon="11.810263"/><trkpt lat="46.6519841" lon="11.8102701"/><trkpt lat="46.6519531" lon="11.8103405"/><trkpt lat="46.6519146" lon="11.8104855"/><trkpt lat="46.6518805" lon="11.8106765"/><trkpt lat="46.6517839" lon="11.8108821"/><trkpt lat="46.6517288" lon="11.8109675"/><trkpt lat="46.6517222" lon="11.8110807"/><trkpt lat="46.651681" lon="11.8112183"/><trkpt lat="46.6516479" lon="11.8113533"/><trkpt lat="46.6515437" lon="11.81159"/><trkpt lat="46.6514123" lon="11.8118683"/><trkpt lat="46.6513702" lon="11.8119067"/><trkpt lat="46.6513182" lon="11.8119201"/><trkpt lat="46.651288" lon="11.8118966"/><trkpt lat="46.6512282" lon="11.8118918"/><trkpt lat="46.6511864" lon="11.8119311"/><trkpt lat="46.6511712" lon="11.8120056"/><trkpt lat="46.6511388" lon="11.8120377"/><trkpt lat="46.6510881" lon="11.8120335"/><trkpt lat="46.6510356" lon="11.8120915"/><trkpt lat="46.6510161" lon="11.8121274"/><trkpt lat="46.65102" lon="11.8121793"/><trkpt lat="46.6510179" lon="11.8122197"/><trkpt lat="46.65102" lon="11.8122663"/><trkpt lat="46.6510097" lon="11.8123942"/><trkpt lat="46.6510133" lon="11.8124785"/><trkpt lat="46.6509769" lon="11.8126193"/><trkpt lat="46.6509773" lon="11.8127988"/><trkpt lat="46.6509617" lon="11.8129274"/><trkpt lat="46.6509289" lon="11.8129495"/><trkpt lat="46.6508875" lon="11.8128948"/><trkpt lat="46.6508449" lon="11.8127949"/><trkpt lat="46.6508052" lon="11.81268"/><trkpt lat="46.650778" lon="11.8126472"/><trkpt lat="46.6507501" lon="11.8127255"/><trkpt lat="46.6507195" lon="11.812933"/><trkpt lat="46.6507011" lon="11.8130284"/><trkpt lat="46.6506669" lon="11.813208"/><trkpt lat="46.6505774" lon="11.8135016"/><trkpt lat="46.6505478" lon="11.8135281"/><trkpt lat="46.6505254" lon="11.8135892"/><trkpt lat="46.6505256" lon="11.8137408"/><trkpt lat="46.6505063" lon="11.813789"/><trkpt lat="46.6505099" lon="11.8139276"/><trkpt lat="46.6505293" lon="11.814039"/><trkpt lat="46.6505193" lon="11.8140793"/><trkpt lat="46.6504896" lon="11.8140648"/><trkpt lat="46.650463" lon="11.8141328"/><trkpt lat="46.6504899" lon="11.8141588"/><trkpt lat="46.650495" lon="11.8141898"/><trkpt lat="46.6504628" lon="11.8141955"/><trkpt lat="46.6504699" lon="11.8142309"/><trkpt lat="46.650494" lon="11.8142665"/><trkpt lat="46.6504643" lon="11.8142895"/><trkpt lat="46.6504294" lon="11.8143086"/><trkpt lat="46.6504297" lon="11.8143891"/><trkpt lat="46.6504308" lon="11.8144731"/><trkpt lat="46.6503632" lon="11.8145664"/><trkpt lat="46.6503225" lon="11.8146298"/><trkpt lat="46.6502921" lon="11.814703"/><trkpt lat="46.6502405" lon="11.8147823"/><trkpt lat="46.6501614" lon="11.8150402"/><trkpt lat="46.6500717" lon="11.8152002"/><trkpt lat="46.6500201" lon="11.815294"/><trkpt lat="46.6496281" lon="11.8162939"/><trkpt lat="46.6494643" lon="11.8166903"/><trkpt lat="46.6491634" lon="11.8163379"/><trkpt lat="46.6492189" lon="11.8170108"/><trkpt lat="46.6489093" lon="11.8167846"/><trkpt lat="46.648856" lon="11.8173638"/><trkpt lat="46.6487008" lon="11.8176037"/><trkpt lat="46.6486314" lon="11.8176534"/><trkpt lat="46.6485621" lon="11.8176915"/><trkpt lat="46.6484982" lon="11.8177132"/><trkpt lat="46.6484342" lon="11.8177204"/><trkpt lat="46.648388" lon="11.8177538"/><trkpt lat="46.6483478" lon="11.8177974"/><trkpt lat="46.6483032" lon="11.817844"/><trkpt lat="46.6482343" lon="11.8178339"/><trkpt lat="46.6481624" lon="11.8178137"/><trkpt lat="46.6480994" lon="11.8177872"/><trkpt lat="46.6480354" lon="11.817752"/><trkpt lat="46.6479675" lon="11.8177614"/><trkpt lat="46.6478996" lon="11.8177825"/><trkpt lat="46.6478262" lon="11.8177617"/><trkpt lat="46.6477528" lon="11.8177336"/><trkpt lat="46.6476868" lon="11.8176803"/><trkpt lat="46.6476284" lon="11.8176347"/><trkpt lat="46.6476064" lon="11.8175391"/><trkpt lat="46.6475932" lon="11.8174321"/><trkpt lat="46.6475907" lon="11.8173343"/><trkpt lat="46.647579" lon="11.8172797"/><trkpt lat="46.6475633" lon="11.8172469"/><trkpt lat="46.6475132" lon="11.8172186"/><trkpt lat="46.6474953" lon="11.8172095"/><trkpt lat="46.6473693" lon="11.8171164"/><trkpt lat="46.6473125" lon="11.8170738"/><trkpt lat="46.6472858" lon="11.8170665"/><trkpt lat="46.6472586" lon="11.8170599"/><trkpt lat="46.6470831" lon="11.8170634"/><trkpt lat="46.6470277" lon="11.8170626"/><trkpt lat="46.6469818" lon="11.8170614"/><trkpt lat="46.6468179" lon="11.8170447"/><trkpt lat="46.6467589" lon="11.8170489"/><trkpt lat="46.646721" lon="11.8170589"/><trkpt lat="46.646671" lon="11.8171016"/><trkpt lat="46.646641" lon="11.8171294"/><trkpt lat="46.6464806" lon="11.8173686"/><trkpt lat="46.6463672" lon="11.8175176"/><trkpt lat="46.646325" lon="11.817568"/><trkpt lat="46.6463041" lon="11.817593"/><trkpt lat="46.6462834" lon="11.8176273"/><trkpt lat="46.6462697" lon="11.817672"/><trkpt lat="46.6462507" lon="11.8177663"/><trkpt lat="46.6462306" lon="11.8178426"/><trkpt lat="46.6462088" lon="11.8178975"/><trkpt lat="46.6461837" lon="11.8179474"/><trkpt lat="46.6461512" lon="11.8179992"/><trkpt lat="46.6460789" lon="11.8180558"/><trkpt lat="46.6460129" lon="11.818127"/><trkpt lat="46.6459434" lon="11.8181979"/><trkpt lat="46.6459005" lon="11.8182491"/><trkpt lat="46.645871" lon="11.8183095"/><trkpt lat="46.6458523" lon="11.8183692"/><trkpt lat="46.6458072" lon="11.8185303"/><trkpt lat="46.6457777" lon="11.8186614"/><trkpt lat="46.645763" lon="11.8187554"/><trkpt lat="46.6457591" lon="11.818853"/><trkpt lat="46.6457587" lon="11.8189212"/><trkpt lat="46.6457578" lon="11.8190805"/><trkpt lat="46.6457654" lon="11.8191282"/><trkpt lat="46.6457931" lon="11.8191985"/><trkpt lat="46.6460172" lon="11.8197669"/><trkpt lat="46.6461968" lon="11.8202496"/><trkpt lat="46.6462289" lon="11.8203417"/><trkpt lat="46.6462383" lon="11.8204106"/><trkpt lat="46.646243" lon="11.8204821"/><trkpt lat="46.6462316" lon="11.8205353"/><trkpt lat="46.6461688" lon="11.820825"/><trkpt lat="46.6461788" lon="11.8209402"/><trkpt lat="46.6461818" lon="11.8209725"/><trkpt lat="46.6461924" lon="11.8210881"/><trkpt lat="46.6462316" lon="11.8211597"/><trkpt lat="46.6462981" lon="11.8212103"/><trkpt lat="46.646473" lon="11.8212598"/><trkpt lat="46.646567" lon="11.8212332"/><trkpt lat="46.6466937" lon="11.821211"/><trkpt lat="46.6467806" lon="11.821244"/><trkpt lat="46.6468619" lon="11.8212827"/><trkpt lat="46.6469535" lon="11.8212955"/><trkpt lat="46.6470425" lon="11.8212778"/><trkpt lat="46.6471048" lon="11.8212731"/><trkpt lat="46.6471783" lon="11.8212584"/><trkpt lat="46.6472832" lon="11.8212137"/><trkpt lat="46.6474442" lon="11.8211676"/><trkpt lat="46.6475028" lon="11.821178"/><trkpt lat="46.6475961" lon="11.8211821"/><trkpt lat="46.6477821" lon="11.8211508"/><trkpt lat="46.6478471" lon="11.8211561"/><trkpt lat="46.6478873" lon="11.8211762"/><trkpt lat="46.6479234" lon="11.8212193"/><trkpt lat="46.647952" lon="11.8212708"/><trkpt lat="46.6479561" lon="11.82134"/><trkpt lat="46.6479347" lon="11.8214358"/><trkpt lat="46.647905" lon="11.8215258"/><trkpt lat="46.6477726" lon="11.8217765"/><trkpt lat="46.6477322" lon="11.8218593"/><trkpt lat="46.6477251" lon="11.8219008"/><trkpt lat="46.6477169" lon="11.8219481"/><trkpt lat="46.6477276" lon="11.8221343"/><trkpt lat="46.6477081" lon="11.8222569"/><trkpt lat="46.6476487" lon="11.8223849"/><trkpt lat="46.6476226" lon="11.8224777"/><trkpt lat="46.6476217" lon="11.8226814"/><trkpt lat="46.6476373" lon="11.8228198"/><trkpt lat="46.6476629" lon="11.8229875"/><trkpt lat="46.6476791" lon="11.8231075"/><trkpt lat="46.6477035" lon="11.8233459"/><trkpt lat="46.6477184" lon="11.8234807"/><trkpt lat="46.6477291" lon="11.8235539"/><trkpt lat="46.6477414" lon="11.8236063"/><trkpt lat="46.6477742" lon="11.8237269"/><trkpt lat="46.6477906" lon="11.8238012"/><trkpt lat="46.6477983" lon="11.8238568"/><trkpt lat="46.647802" lon="11.8239222"/><trkpt lat="46.6478007" lon="11.8239775"/><trkpt lat="46.6477832" lon="11.8241829"/><trkpt lat="46.6477882" lon="11.824319"/><trkpt lat="46.6477974" lon="11.8244073"/><trkpt lat="46.6478302" lon="11.8245976"/><trkpt lat="46.6478503" lon="11.8247358"/><trkpt lat="46.6478887" lon="11.8248581"/><trkpt lat="46.6479462" lon="11.8249146"/><trkpt lat="46.6479961" lon="11.8249762"/><trkpt lat="46.6480305" lon="11.8250385"/><trkpt lat="46.6480547" lon="11.8251262"/><trkpt lat="46.648063" lon="11.8252384"/><trkpt lat="46.6480516" lon="11.8254403"/><trkpt lat="46.6480662" lon="11.8257903"/><trkpt lat="46.6480413" lon="11.8259601"/><trkpt lat="46.6480136" lon="11.8261412"/><trkpt lat="46.6479831" lon="11.8263877"/><trkpt lat="46.6479688" lon="11.8264741"/><trkpt lat="46.6479623" lon="11.8265589"/><trkpt lat="46.6479658" lon="11.8266356"/><trkpt lat="46.6479728" lon="11.8267107"/><trkpt lat="46.6479947" lon="11.8268328"/><trkpt lat="46.6480626" lon="11.8271392"/><trkpt lat="46.6480984" lon="11.8273566"/><trkpt lat="46.6481119" lon="11.8274109"/><trkpt lat="46.6481333" lon="11.8274718"/><trkpt lat="46.6481725" lon="11.8275475"/><trkpt lat="46.6482603" lon="11.827696"/><trkpt lat="46.6482806" lon="11.8277364"/><trkpt lat="46.6483017" lon="11.8278007"/><trkpt lat="46.6483089" lon="11.8278494"/><trkpt lat="46.6483135" lon="11.8278956"/><trkpt lat="46.6483015" lon="11.8280954"/><trkpt lat="46.6483037" lon="11.828195"/><trkpt lat="46.6483092" lon="11.8282793"/><trkpt lat="46.6483338" lon="11.8284494"/><trkpt lat="46.6483479" lon="11.8285624"/><trkpt lat="46.6483548" lon="11.8286764"/><trkpt lat="46.6483692" lon="11.8288639"/><trkpt lat="46.6483863" lon="11.8291336"/><trkpt lat="46.6483937" lon="11.8292411"/><trkpt lat="46.6484053" lon="11.82933"/><trkpt lat="46.6484847" lon="11.8297755"/><trkpt lat="46.6485005" lon="11.8298811"/><trkpt lat="46.6485031" lon="11.8299824"/><trkpt lat="46.6484823" lon="11.8300996"/><trkpt lat="46.648477" lon="11.8301988"/><trkpt lat="46.6484912" lon="11.8303237"/><trkpt lat="46.6485909" lon="11.8306518"/><trkpt lat="46.648683" lon="11.8309915"/><trkpt lat="46.6487428" lon="11.8311483"/><trkpt lat="46.648884" lon="11.8313984"/><trkpt lat="46.6491238" lon="11.8319095"/><trkpt lat="46.6491752" lon="11.8320221"/><trkpt lat="46.6491889" lon="11.8321066"/><trkpt lat="46.649195" lon="11.8321729"/><trkpt lat="46.6492084" lon="11.8322391"/><trkpt lat="46.6492606" lon="11.8324466"/><trkpt lat="46.6493303" lon="11.8326507"/><trkpt lat="46.6493979" lon="11.8328268"/><trkpt lat="46.6494587" lon="11.8330119"/><trkpt lat="46.6494823" lon="11.8331963"/><trkpt lat="46.6495226" lon="11.8335391"/><trkpt lat="46.6495294" lon="11.8337531"/><trkpt lat="46.6495127" lon="11.8339528"/><trkpt lat="46.6495126" lon="11.8345504"/><trkpt lat="46.6494886" lon="11.8346191"/><trkpt lat="46.6493601" lon="11.8348637"/><trkpt lat="46.6492273" lon="11.835156"/><trkpt lat="46.6491607" lon="11.8354059"/><trkpt lat="46.6490881" lon="11.8358426"/><trkpt lat="46.6490103" lon="11.8361417"/><trkpt lat="46.6489688" lon="11.8364085"/><trkpt lat="46.6489557" lon="11.8367349"/><trkpt lat="46.6489319" lon="11.8370806"/><trkpt lat="46.648924" lon="11.8374025"/><trkpt lat="46.6489282" lon="11.8375235"/><trkpt lat="46.6489278" lon="11.8375928"/><trkpt lat="46.648948" lon="11.837735"/><trkpt lat="46.6489676" lon="11.8378692"/><trkpt lat="46.649048" lon="11.8381561"/><trkpt lat="46.6491289" lon="11.838401"/><trkpt lat="46.6491761" lon="11.8385238"/><trkpt lat="46.649217" lon="11.8385999"/><trkpt lat="46.6492725" lon="11.8386231"/><trkpt lat="46.6493328" lon="11.8386278"/><trkpt lat="46.6494459" lon="11.8385889"/><trkpt lat="46.6495327" lon="11.8385247"/><trkpt lat="46.649577" lon="11.8384758"/><trkpt lat="46.6496138" lon="11.8384459"/><trkpt lat="46.6496913" lon="11.8384001"/><trkpt lat="46.6497916" lon="11.8383643"/><trkpt lat="46.6499552" lon="11.8383045"/><trkpt lat="46.6503143" lon="11.838107"/><trkpt lat="46.6504805" lon="11.8380634"/><trkpt lat="46.650594" lon="11.8380358"/><trkpt lat="46.6508134" lon="11.8379412"/><trkpt lat="46.6509071" lon="11.8379197"/><trkpt lat="46.6510561" lon="11.8379461"/><trkpt lat="46.6511543" lon="11.8379913"/><trkpt lat="46.6512193" lon="11.8380213"/><trkpt lat="46.6514082" lon="11.838074"/><trkpt lat="46.6516062" lon="11.838117"/><trkpt lat="46.6517486" lon="11.8381647"/><trkpt lat="46.6518533" lon="11.8382339"/><trkpt lat="46.6519798" lon="11.8383195"/><trkpt lat="46.6521238" lon="11.8383721"/><trkpt lat="46.6522521" lon="11.8384124"/><trkpt lat="46.6523248" lon="11.8384208"/><trkpt lat="46.6523926" lon="11.8384147"/><trkpt lat="46.6525522" lon="11.8383189"/><trkpt lat="46.6526348" lon="11.8382685"/><trkpt lat="46.6527196" lon="11.8382469"/><trkpt lat="46.6528792" lon="11.8382535"/><trkpt lat="46.6529858" lon="11.8382738"/><trkpt lat="46.6530541" lon="11.8383022"/><trkpt lat="46.6531112" lon="11.8383316"/><trkpt lat="46.6531708" lon="11.8383884"/><trkpt lat="46.6532004" lon="11.8384614"/><trkpt lat="46.6532229" lon="11.838445"/><trkpt lat="46.6532623" lon="11.8384347"/><trkpt lat="46.6532946" lon="11.8384379"/><trkpt lat="46.6533856" lon="11.8384355"/><trkpt lat="46.6534741" lon="11.8384032"/><trkpt lat="46.6534966" lon="11.8385549"/><trkpt lat="46.6535063" lon="11.8386578"/><trkpt lat="46.6535376" lon="11.8388243"/><trkpt lat="46.6535879" lon="11.8390772"/><trkpt lat="46.6536243" lon="11.8392329"/><trkpt lat="46.6536463" lon="11.8393079"/><trkpt lat="46.6536681" lon="11.8393668"/><trkpt lat="46.6536959" lon="11.8394053"/><trkpt lat="46.6537428" lon="11.8394576"/><trkpt lat="46.6537832" lon="11.8394879"/><trkpt lat="46.6538748" lon="11.8395419"/><trkpt lat="46.6539542" lon="11.8396225"/><trkpt lat="46.6539122" lon="11.8396299"/><trkpt lat="46.6539352" lon="11.839655"/><trkpt lat="46.6539565" lon="11.8396773"/><trkpt lat="46.6539821" lon="11.8396868"/><trkpt lat="46.6540419" lon="11.8397091"/><trkpt lat="46.6540818" lon="11.8397415"/><trkpt lat="46.6541189" lon="11.8397767"/><trkpt lat="46.6541454" lon="11.8398111"/><trkpt lat="46.6541797" lon="11.8398348"/><trkpt lat="46.6543045" lon="11.839878"/><trkpt lat="46.6545007" lon="11.8399145"/><trkpt lat="46.6545453" lon="11.8399321"/><trkpt lat="46.6545879" lon="11.8399686"/><trkpt lat="46.6546496" lon="11.8400315"/><trkpt lat="46.65496" lon="11.8404174"/><trkpt lat="46.6550171" lon="11.8404985"/><trkpt lat="46.6550894" lon="11.8406276"/><trkpt lat="46.6552063" lon="11.840879"/><trkpt lat="46.6552954" lon="11.8409845"/><trkpt lat="46.6553297" lon="11.8409919"/><trkpt lat="46.6553715" lon="11.8410723"/><trkpt lat="46.6553622" lon="11.8410912"/><trkpt lat="46.6555501" lon="11.8413231"/><trkpt lat="46.6556085" lon="11.8413805"/><trkpt lat="46.6556744" lon="11.8414326"/><trkpt lat="46.6559928" lon="11.8417072"/><trkpt lat="46.6560332" lon="11.8418932"/><trkpt lat="46.6560853" lon="11.8421231"/><trkpt lat="46.656113" lon="11.8422117"/><trkpt lat="46.6561523" lon="11.8422908"/><trkpt lat="46.6562016" lon="11.8423792"/><trkpt lat="46.6562651" lon="11.8424757"/><trkpt lat="46.6563591" lon="11.842595"/><trkpt lat="46.6564749" lon="11.8427381"/><trkpt lat="46.6565206" lon="11.8428109"/><trkpt lat="46.6565456" lon="11.8428585"/><trkpt lat="46.6565675" lon="11.8429125"/><trkpt lat="46.6565761" lon="11.8429527"/><trkpt lat="46.6565793" lon="11.8430075"/><trkpt lat="46.6565802" lon="11.8430798"/><trkpt lat="46.6565696" lon="11.8431502"/><trkpt lat="46.6565597" lon="11.8431862"/><trkpt lat="46.6566325" lon="11.8433774"/><trkpt lat="46.6566463" lon="11.8434101"/><trkpt lat="46.6566743" lon="11.8434635"/><trkpt lat="46.6567333" lon="11.8435286"/><trkpt lat="46.6567681" lon="11.8435551"/><trkpt lat="46.65681" lon="11.843586"/><trkpt lat="46.6568506" lon="11.8436139"/><trkpt lat="46.6568849" lon="11.8436438"/><trkpt lat="46.6569098" lon="11.843653"/><trkpt lat="46.6569401" lon="11.8436554"/><trkpt lat="46.6569872" lon="11.8436699"/><trkpt lat="46.6570232" lon="11.8436719"/><trkpt lat="46.657067" lon="11.843666"/><trkpt lat="46.6571119" lon="11.8436411"/><trkpt lat="46.6571495" lon="11.8436317"/><trkpt lat="46.6571922" lon="11.8436235"/><trkpt lat="46.6572212" lon="11.8436035"/><trkpt lat="46.6572719" lon="11.8435596"/><trkpt lat="46.6572871" lon="11.8435529"/><trkpt lat="46.6573072" lon="11.8435534"/><trkpt lat="46.6574056" lon="11.8435334"/><trkpt lat="46.6574832" lon="11.843525"/><trkpt lat="46.6576051" lon="11.8435078"/><trkpt lat="46.6576724" lon="11.8435094"/><trkpt lat="46.6577708" lon="11.8435036"/><trkpt lat="46.6580073" lon="11.8435429"/><trkpt lat="46.6582908" lon="11.8436247"/><trkpt lat="46.6584488" lon="11.843684"/><trkpt lat="46.6585945" lon="11.8438473"/><trkpt lat="46.6588189" lon="11.8441301"/><trkpt lat="46.6589603" lon="11.8442627"/><trkpt lat="46.6590859" lon="11.8443773"/><trkpt lat="46.6592446" lon="11.8445694"/><trkpt lat="46.6593558" lon="11.8447629"/><trkpt lat="46.6595814" lon="11.8450215"/><trkpt lat="46.6596417" lon="11.8450822"/><trkpt lat="46.6597385" lon="11.8452619"/><trkpt lat="46.659759" lon="11.8453145"/><trkpt lat="46.6598208" lon="11.8454494"/><trkpt lat="46.6598596" lon="11.8455263"/><trkpt lat="46.6598863" lon="11.8455908"/><trkpt lat="46.6599324" lon="11.8457224"/><trkpt lat="46.6599501" lon="11.8457822"/><trkpt lat="46.6599558" lon="11.8458155"/><trkpt lat="46.6599556" lon="11.8458691"/><trkpt lat="46.6599544" lon="11.8459164"/><trkpt lat="46.65996" lon="11.8459561"/><trkpt lat="46.6599674" lon="11.8460963"/><trkpt lat="46.659992" lon="11.8462618"/><trkpt lat="46.6600356" lon="11.8465256"/><trkpt lat="46.6600696" lon="11.8468184"/><trkpt lat="46.6601601" lon="11.8472615"/><trkpt lat="46.6602252" lon="11.847512"/><trkpt lat="46.6602591" lon="11.847737"/><trkpt lat="46.6603386" lon="11.8479391"/><trkpt lat="46.6604434" lon="11.8480924"/><trkpt lat="46.6605504" lon="11.8481901"/><trkpt lat="46.6606111" lon="11.8482762"/><trkpt lat="46.6606151" lon="11.8484984"/><trkpt lat="46.6606392" lon="11.8486587"/><trkpt lat="46.6606266" lon="11.8489711"/><trkpt lat="46.6606304" lon="11.8490824"/><trkpt lat="46.6606467" lon="11.8492129"/><trkpt lat="46.6606578" lon="11.8494177"/><trkpt lat="46.6607466" lon="11.8497252"/><trkpt lat="46.6607896" lon="11.8498418"/><trkpt lat="46.66082" lon="11.8499921"/><trkpt lat="46.6608789" lon="11.8502117"/><trkpt lat="46.66093" lon="11.8503273"/><trkpt lat="46.6609783" lon="11.8504021"/><trkpt lat="46.6610156" lon="11.8504353"/><trkpt lat="46.6610568" lon="11.8504623"/><trkpt lat="46.6610789" lon="11.8504897"/><trkpt lat="46.6611046" lon="11.8505171"/><trkpt lat="46.6611312" lon="11.8505635"/><trkpt lat="46.6612609" lon="11.8507065"/><trkpt lat="46.6612945" lon="11.850732"/><trkpt lat="46.6613462" lon="11.8507424"/><trkpt lat="46.661412" lon="11.8507789"/><trkpt lat="46.6614599" lon="11.8507669"/><trkpt lat="46.6615078" lon="11.850791"/><trkpt lat="46.6615315" lon="11.8507437"/><trkpt lat="46.6615584" lon="11.8506247"/><trkpt lat="46.6615961" lon="11.8505573"/><trkpt lat="46.6616131" lon="11.8504443"/><trkpt lat="46.6616778" lon="11.8504688"/><trkpt lat="46.661705" lon="11.8504675"/><trkpt lat="46.6617353" lon="11.8504514"/><trkpt lat="46.6617922" lon="11.8503981"/><trkpt lat="46.6618511" lon="11.850393"/><trkpt lat="46.6618796" lon="11.8503555"/><trkpt lat="46.661968" lon="11.8503917"/><trkpt lat="46.6621072" lon="11.8503756"/><trkpt lat="46.6621246" lon="11.8503768"/><trkpt lat="46.6621316" lon="11.850328"/><trkpt lat="46.6621668" lon="11.850092"/><trkpt lat="46.6621925" lon="11.8499803"/><trkpt lat="46.6622906" lon="11.8496541"/><trkpt lat="46.6623318" lon="11.8495595"/><trkpt lat="46.6624557" lon="11.8494582"/><trkpt lat="46.6624727" lon="11.8494454"/><trkpt lat="46.6624934" lon="11.8493968"/><trkpt lat="46.6625012" lon="11.8493589"/><trkpt lat="46.6624343" lon="11.8488989"/><trkpt lat="46.6624183" lon="11.8487054"/><trkpt lat="46.6624088" lon="11.8485902"/><trkpt lat="46.6623474" lon="11.8484588"/><trkpt lat="46.6623506" lon="11.8479783"/><trkpt lat="46.6623872" lon="11.847675"/><trkpt lat="46.6623984" lon="11.8475219"/><trkpt lat="46.6624691" lon="11.8474214"/><trkpt lat="46.6625042" lon="11.8473097"/><trkpt lat="46.6625729" lon="11.8469945"/><trkpt lat="46.6626417" lon="11.8468319"/><trkpt lat="46.6627855" lon="11.8466283"/><trkpt lat="46.6630151" lon="11.8462366"/><trkpt lat="46.6630765" lon="11.8460722"/><trkpt lat="46.6631159" lon="11.8458277"/><trkpt lat="46.6631693" lon="11.8450505"/><trkpt lat="46.6632706" lon="11.8445473"/><trkpt lat="46.6633979" lon="11.8440854"/><trkpt lat="46.6635238" lon="11.8437807"/><trkpt lat="46.6636101" lon="11.8436661"/><trkpt lat="46.6637428" lon="11.8432791"/><trkpt lat="46.6639668" lon="11.8428946"/><trkpt lat="46.6642996" lon="11.8421234"/><trkpt lat="46.6644538" lon="11.8418308"/><trkpt lat="46.6645737" lon="11.8415189"/><trkpt lat="46.6648059" lon="11.8409999"/><trkpt lat="46.6649892" lon="11.8407243"/><trkpt lat="46.6650642" lon="11.840573"/><trkpt lat="46.6651094" lon="11.8404216"/><trkpt lat="46.6651447" lon="11.8402258"/><trkpt lat="46.6651663" lon="11.8399689"/><trkpt lat="46.6651827" lon="11.8397167"/><trkpt lat="46.6652115" lon="11.8394828"/><trkpt lat="46.6653282" lon="11.8390387"/><trkpt lat="46.6654782" lon="11.8386166"/><trkpt lat="46.6655831" lon="11.8382068"/><trkpt lat="46.6656727" lon="11.8379706"/><trkpt lat="46.6656938" lon="11.8378819"/><trkpt lat="46.6657235" lon="11.8377345"/><trkpt lat="46.6657642" lon="11.8375416"/><trkpt lat="46.6658174" lon="11.8373471"/><trkpt lat="46.6658894" lon="11.837032"/><trkpt lat="46.6659311" lon="11.8367295"/><trkpt lat="46.665962" lon="11.8365648"/><trkpt lat="46.6659947" lon="11.8364851"/><trkpt lat="46.6660346" lon="11.8364083"/><trkpt lat="46.666154" lon="11.8361815"/><trkpt lat="46.6662334" lon="11.8360138"/><trkpt lat="46.6662842" lon="11.835892"/><trkpt lat="46.6663091" lon="11.8357976"/><trkpt lat="46.6664023" lon="11.8354519"/><trkpt lat="46.6666722" lon="11.8346207"/><trkpt lat="46.6667003" lon="11.8344214"/><trkpt lat="46.6667214" lon="11.8343241"/><trkpt lat="46.6667509" lon="11.8342362"/><trkpt lat="46.6667775" lon="11.834169"/><trkpt lat="46.6668572" lon="11.8340353"/><trkpt lat="46.6669308" lon="11.8339147"/><trkpt lat="46.6669563" lon="11.8338584"/><trkpt lat="46.6669778" lon="11.8338019"/><trkpt lat="46.6669964" lon="11.8337381"/><trkpt lat="46.6670505" lon="11.8333842"/><trkpt lat="46.6670409" lon="11.8332548"/><trkpt lat="46.6670726" lon="11.83308"/><trkpt lat="46.6671067" lon="11.8328296"/><trkpt lat="46.6671277" lon="11.8326738"/><trkpt lat="46.6671792" lon="11.832413"/><trkpt lat="46.6672167" lon="11.8321568"/><trkpt lat="46.6672029" lon="11.8321252"/><trkpt lat="46.6670916" lon="11.8321539"/><trkpt lat="46.6672029" lon="11.8321252"/><trkpt lat="46.6672167" lon="11.8321568"/><trkpt lat="46.6672282" lon="11.8321153"/><trkpt lat="46.6672419" lon="11.8320858"/><trkpt lat="46.6672632" lon="11.8320692"/><trkpt lat="46.6672972" lon="11.8320451"/><trkpt lat="46.6675269" lon="11.8318922"/><trkpt lat="46.6675587" lon="11.8318739"/><trkpt lat="46.6676046" lon="11.8318601"/><trkpt lat="46.6677126" lon="11.8318396"/><trkpt lat="46.6677372" lon="11.8318333"/><trkpt lat="46.6677571" lon="11.8318212"/><trkpt lat="46.6678218" lon="11.831751"/><trkpt lat="46.6678931" lon="11.8316611"/><trkpt lat="46.667952" lon="11.8315931"/><trkpt lat="46.6680271" lon="11.831544"/><trkpt lat="46.6680989" lon="11.8314817"/><trkpt lat="46.6681201" lon="11.8314641"/><trkpt lat="46.6681382" lon="11.8314458"/><trkpt lat="46.6682385" lon="11.8312465"/><trkpt lat="46.6682595" lon="11.8312088"/><trkpt lat="46.6682722" lon="11.8311901"/><trkpt lat="46.6683066" lon="11.8311689"/><trkpt lat="46.6683355" lon="11.831141"/><trkpt lat="46.6683532" lon="11.8311181"/><trkpt lat="46.6684707" lon="11.8309046"/><trkpt lat="46.6685948" lon="11.8307663"/><trkpt lat="46.6686454" lon="11.8306564"/><trkpt lat="46.6686611" lon="11.8305806"/><trkpt lat="46.6686648" lon="11.8305366"/><trkpt lat="46.6686755" lon="11.8304076"/><trkpt lat="46.6686109" lon="11.8297684"/><trkpt lat="46.6684913" lon="11.8290352"/><trkpt lat="46.6684696" lon="11.8289311"/><trkpt lat="46.6684573" lon="11.8289"/><trkpt lat="46.6684473" lon="11.8288817"/><trkpt lat="46.6684023" lon="11.8288097"/><trkpt lat="46.6680518" lon="11.8283624"/><trkpt lat="46.6678406" lon="11.8280791"/><trkpt lat="46.6677528" lon="11.8279283"/><trkpt lat="46.6673654" lon="11.8274596"/><trkpt lat="46.6673482" lon="11.8273885"/><trkpt lat="46.6673901" lon="11.8272944"/><trkpt lat="46.6673873" lon="11.8271897"/><trkpt lat="46.6673631" lon="11.8271528"/><trkpt lat="46.6671753" lon="11.8270548"/><trkpt lat="46.6671327" lon="11.8269898"/><trkpt lat="46.6670315" lon="11.8267068"/><trkpt lat="46.6669779" lon="11.8266357"/><trkpt lat="46.666962" lon="11.8265335"/><trkpt lat="46.6669121" lon="11.8263978"/><trkpt lat="46.6668878" lon="11.8261812"/><trkpt lat="46.6667708" lon="11.8257658"/><trkpt lat="46.6665637" lon="11.8253219"/><trkpt lat="46.6664847" lon="11.8253089"/><trkpt lat="46.6664561" lon="11.825293"/><trkpt lat="46.6664376" lon="11.8252688"/><trkpt lat="46.6664174" lon="11.8251727"/><trkpt lat="46.666389" lon="11.8250533"/><trkpt lat="46.6663638" lon="11.8249987"/><trkpt lat="46.6663372" lon="11.8249591"/><trkpt lat="46.6660691" lon="11.8247367"/><trkpt lat="46.6660079" lon="11.8246238"/><trkpt lat="46.6658841" lon="11.8245093"/><trkpt lat="46.6657547" lon="11.8243639"/><trkpt lat="46.6657274" lon="11.8243403"/><trkpt lat="46.6656658" lon="11.8243215"/><trkpt lat="46.6656449" lon="11.8243026"/><trkpt lat="46.6656265" lon="11.8242346"/><trkpt lat="46.665604" lon="11.824197"/><trkpt lat="46.665581" lon="11.8241779"/><trkpt lat="46.665535" lon="11.824152"/><trkpt lat="46.6655062" lon="11.824126"/><trkpt lat="46.6654935" lon="11.8240971"/><trkpt lat="46.6654735" lon="11.8240186"/><trkpt lat="46.6654412" lon="11.8238685"/><trkpt lat="46.6654305" lon="11.8238198"/><trkpt lat="46.6654332" lon="11.8237949"/><trkpt lat="46.6654435" lon="11.8237703"/><trkpt lat="46.6654698" lon="11.8237479"/><trkpt lat="46.6655172" lon="11.8237368"/><trkpt lat="46.6655361" lon="11.8236813"/><trkpt lat="46.6655572" lon="11.8234548"/><trkpt lat="46.665535" lon="11.8232996"/><trkpt lat="46.6655569" lon="11.823219"/><trkpt lat="46.6657156" lon="11.8230528"/><trkpt lat="46.6657589" lon="11.8229535"/><trkpt lat="46.665816" lon="11.8228541"/><trkpt lat="46.6658298" lon="11.8227757"/><trkpt lat="46.66581" lon="11.8226657"/><trkpt lat="46.6658239" lon="11.822522"/><trkpt lat="46.6658188" lon="11.8224339"/><trkpt lat="46.6658235" lon="11.8222982"/><trkpt lat="46.6658925" lon="11.8222398"/><trkpt lat="46.6659347" lon="11.8220657"/><trkpt lat="46.6659969" lon="11.8220557"/><trkpt lat="46.6660714" lon="11.8219536"/><trkpt lat="46.6661213" lon="11.8218006"/><trkpt lat="46.6661924" lon="11.8216445"/><trkpt lat="46.6662349" lon="11.8214521"/><trkpt lat="46.6662362" lon="11.8212897"/><trkpt lat="46.6662654" lon="11.8211325"/><trkpt lat="46.6662743" lon="11.820991"/><trkpt lat="46.6663254" lon="11.8209018"/><trkpt lat="46.6663939" lon="11.8206184"/><trkpt lat="46.6663673" lon="11.8203689"/><trkpt lat="46.6662987" lon="11.8202209"/><trkpt lat="46.6662709" lon="11.8200208"/><trkpt lat="46.6661892" lon="11.8198722"/><trkpt lat="46.6660806" lon="11.8195784"/><trkpt lat="46.6659753" lon="11.8195342"/><trkpt lat="46.6658133" lon="11.8192561"/><trkpt lat="46.6657479" lon="11.8191539"/><trkpt lat="46.6657525" lon="11.8191004"/><trkpt lat="46.6657346" lon="11.8190204"/><trkpt lat="46.6657387" lon="11.8189187"/><trkpt lat="46.6657083" lon="11.8188048"/><trkpt lat="46.6656948" lon="11.8187498"/><trkpt lat="46.6656975" lon="11.8187088"/><trkpt lat="46.6657138" lon="11.8186162"/><trkpt lat="46.6657329" lon="11.8185494"/><trkpt lat="46.6657628" lon="11.8184391"/><trkpt lat="46.6658009" lon="11.8182143"/><trkpt lat="46.6658551" lon="11.8180799"/><trkpt lat="46.6659238" lon="11.8179495"/><trkpt lat="46.6659853" lon="11.8177898"/><trkpt lat="46.666091" lon="11.8174711"/><trkpt lat="46.6661424" lon="11.8172271"/><trkpt lat="46.6665551" lon="11.816257"/><trkpt lat="46.666925" lon="11.8151415"/><trkpt lat="46.6670055" lon="11.8149355"/><trkpt lat="46.6670532" lon="11.8148293"/><trkpt lat="46.6670877" lon="11.8147544"/><trkpt lat="46.6671035" lon="11.8147259"/><trkpt lat="46.6671175" lon="11.8146754"/><trkpt lat="46.6671256" lon="11.8146062"/><trkpt lat="46.6671256" lon="11.814543"/><trkpt lat="46.6671247" lon="11.8145081"/><trkpt lat="46.6671212" lon="11.8144597"/><trkpt lat="46.6671152" lon="11.814416"/><trkpt lat="46.6671077" lon="11.8143847"/><trkpt lat="46.667095" lon="11.8143444"/><trkpt lat="46.6670156" lon="11.8145068"/><trkpt lat="46.6669744" lon="11.8145741"/><trkpt lat="46.6669601" lon="11.8145943"/><trkpt lat="46.6669425" lon="11.8146074"/><trkpt lat="46.6669282" lon="11.814617"/><trkpt lat="46.6668947" lon="11.8146301"/><trkpt lat="46.6669282" lon="11.814617"/><trkpt lat="46.6669425" lon="11.8146074"/><trkpt lat="46.6669601" lon="11.8145943"/><trkpt lat="46.6669744" lon="11.8145741"/><trkpt lat="46.6670156" lon="11.8145068"/><trkpt lat="46.667095" lon="11.8143444"/><trkpt lat="46.6672264" lon="11.8141347"/><trkpt lat="46.6672802" lon="11.8140174"/><trkpt lat="46.6674197" lon="11.8136873"/><trkpt lat="46.6674522" lon="11.8136934"/><trkpt lat="46.6674835" lon="11.8136931"/><trkpt lat="46.6675255" lon="11.8136926"/><trkpt lat="46.6676109" lon="11.8137045"/><trkpt lat="46.6677017" lon="11.8137232"/><trkpt lat="46.6677942" lon="11.813742"/><trkpt lat="46.6678848" lon="11.8137618"/><trkpt lat="46.6679555" lon="11.8137811"/><trkpt lat="46.6680043" lon="11.8137883"/><trkpt lat="46.6680526" lon="11.8137772"/><trkpt lat="46.6681152" lon="11.8137533"/><trkpt lat="46.6682351" lon="11.8136852"/><trkpt lat="46.6684209" lon="11.8136049"/><trkpt lat="46.6685909" lon="11.8135674"/><trkpt lat="46.6686791" lon="11.8135274"/><trkpt lat="46.6688217" lon="11.8134279"/><trkpt lat="46.6689329" lon="11.8134101"/><trkpt lat="46.6690052" lon="11.8134523"/><trkpt lat="46.6691098" lon="11.8135249"/><trkpt lat="46.6691543" lon="11.8135534"/><trkpt lat="46.6692054" lon="11.8135603"/><trkpt lat="46.6693044" lon="11.8135188"/><trkpt lat="46.6693917" lon="11.8134631"/><trkpt lat="46.6694594" lon="11.813397"/><trkpt lat="46.6695372" lon="11.8132991"/><trkpt lat="46.6696461" lon="11.8130445"/><trkpt lat="46.6696814" lon="11.8128963"/><trkpt lat="46.6697261" lon="11.812762"/><trkpt lat="46.6697714" lon="11.8126008"/><trkpt lat="46.6697903" lon="11.8124709"/><trkpt lat="46.6698239" lon="11.8123874"/><trkpt lat="46.6698964" lon="11.8122819"/><trkpt lat="46.6699356" lon="11.8121879"/><trkpt lat="46.6700081" lon="11.8120044"/><trkpt lat="46.670099" lon="11.8118511"/><trkpt lat="46.6701925" lon="11.8117523"/><trkpt lat="46.6704111" lon="11.811514"/><trkpt lat="46.6704892" lon="11.8114453"/><trkpt lat="46.6705961" lon="11.8113772"/><trkpt lat="46.670694" lon="11.8113375"/><trkpt lat="46.6707934" lon="11.8113169"/><trkpt lat="46.6709104" lon="11.8113159"/><trkpt lat="46.6710709" lon="11.8113272"/><trkpt lat="46.6711886" lon="11.8113506"/><trkpt lat="46.671396" lon="11.8114087"/><trkpt lat="46.6715194" lon="11.8114706"/><trkpt lat="46.6716278" lon="11.811535"/><trkpt lat="46.6717325" lon="11.8116153"/><trkpt lat="46.6718222" lon="11.8116925"/><trkpt lat="46.6718818" lon="11.811752"/><trkpt lat="46.6719851" lon="11.8118743"/><trkpt lat="46.6720759" lon="11.8120142"/><trkpt lat="46.6721345" lon="11.8121033"/><trkpt lat="46.6721936" lon="11.8121798"/><trkpt lat="46.6722397" lon="11.8122292"/><trkpt lat="46.6722976" lon="11.8122746"/><trkpt lat="46.6723737" lon="11.8123123"/><trkpt lat="46.6724397" lon="11.8123339"/><trkpt lat="46.6726233" lon="11.8123738"/><trkpt lat="46.6726695" lon="11.8123902"/><trkpt lat="46.672716" lon="11.8124191"/><trkpt lat="46.6727675" lon="11.812471"/><trkpt lat="46.6728043" lon="11.8125325"/><trkpt lat="46.6728377" lon="11.8125993"/><trkpt lat="46.6728957" lon="11.8127316"/><trkpt lat="46.6730039" lon="11.8129593"/><trkpt lat="46.6730793" lon="11.8131009"/><trkpt lat="46.6731605" lon="11.8132232"/><trkpt lat="46.6733279" lon="11.8134053"/><trkpt lat="46.6734574" lon="11.8134951"/><trkpt lat="46.6735902" lon="11.8135642"/><trkpt lat="46.6736431" lon="11.8136294"/><trkpt lat="46.6736743" lon="11.8137223"/><trkpt lat="46.6736906" lon="11.8138211"/><trkpt lat="46.6737146" lon="11.8138982"/><trkpt lat="46.6737384" lon="11.8139516"/><trkpt lat="46.6737645" lon="11.8139803"/><trkpt lat="46.6738038" lon="11.8139923"/><trkpt lat="46.6739034" lon="11.8139732"/><trkpt lat="46.6739884" lon="11.8139584"/><trkpt lat="46.6740332" lon="11.8139539"/><trkpt lat="46.6740864" lon="11.813966"/><trkpt lat="46.6741361" lon="11.8139706"/><trkpt lat="46.6741811" lon="11.8139596"/><trkpt lat="46.6742106" lon="11.8139367"/><trkpt lat="46.6742398" lon="11.8138988"/><trkpt lat="46.6742625" lon="11.8138507"/><trkpt lat="46.6742925" lon="11.8137719"/><trkpt lat="46.674323" lon="11.8136999"/><trkpt lat="46.674366" lon="11.8136676"/><trkpt lat="46.6744054" lon="11.8136591"/><trkpt lat="46.6744374" lon="11.8136608"/><trkpt lat="46.6744758" lon="11.8136723"/><trkpt lat="46.6745404" lon="11.8137075"/><trkpt lat="46.6745842" lon="11.813739"/><trkpt lat="46.6746204" lon="11.8137772"/><trkpt lat="46.6746913" lon="11.8138741"/><trkpt lat="46.6747379" lon="11.8139493"/><trkpt lat="46.6747715" lon="11.8140156"/><trkpt lat="46.6747941" lon="11.8140907"/><trkpt lat="46.6748135" lon="11.8141874"/><trkpt lat="46.6748336" lon="11.8142871"/><trkpt lat="46.6748584" lon="11.8143227"/><trkpt lat="46.6748869" lon="11.8143506"/><trkpt lat="46.6749232" lon="11.8143731"/><trkpt lat="46.6749936" lon="11.8143042"/><trkpt lat="46.6751109" lon="11.8143123"/></trkseg></trk></gpx>